202001020850 METAR EDTL 020850Z 16008KT 1500 BR OVC002 M01/M02 Q1031=
202001020920 METAR EDTL 020920Z 18006KT 0600 R21/P2000N FZFG OVC002 M01/M02
202001020950 METAR EDTL 020950Z 20008KT 1200 R21/P2000D BR OVC002 M01/M02
202001021020 METAR EDTL 021020Z 20007KT 0900 R21/P2000N FZFG OVC002 M01/M02
202001021050 METAR EDTL 021050Z 21007KT 1200 R21/P2000D BR OVC002 M01/M02
202001021120 METAR EDTL 021120Z 21007KT 0700 R21/1600U FZFG OVC002 M01/M01
202001021150 METAR EDTL 021150Z 19006KT 0500 R21/1100N FZFG OVC002 M01/M01
202001021620 METAR EDTL 021620Z VRB02KT 0600 R21/P2000N FZFG OVC002 M01/M01
202001060750 METAR EDTL 060750Z 10003KT 0250 R21/0650U FZFG OVC001 M01/M01
202001060820 METAR EDTL 060820Z VRB01KT 0200 R21/0550N FZFG OVC001 M01/M01
202001060850 METAR EDTL 060850Z VRB02KT 0100 R21/0250N FZFG OVC001 M01/M02
202001060920 METAR EDTL 060920Z 00000KT 0150 R21/0275N FZFG VV001 M01/M01
202001070650 METAR EDTL 070650Z 21006KT 9999 BKN027 05/02 Q1029=
202001070720 METAR EDTL 070720Z 21005KT 9999 BKN027 05/02 Q1030=
202001070750 METAR EDTL 070750Z 21003KT 9999 BKN025 05/02 Q1030=
202001070820 METAR EDTL 070820Z 19006KT 9999 FEW027 BKN041 05/03 Q1031=
202001070850 METAR EDTL 070850Z 21007KT 9999 BKN040 05/03 Q1031=
202001070920 METAR EDTL 070920Z 19009KT 9999 BKN041 06/03 Q1032=
202001070950 METAR EDTL 070950Z 20007KT 9999 BKN042 06/03 Q1032=
202001071020 METAR EDTL 071020Z 20007KT 9999 BKN043 07/04 Q1031=
202001071050 METAR EDTL 071050Z 21008KT 9999 BKN044 07/04 Q1031=
202001071120 METAR EDTL 071120Z 21008KT 9999 SCT043 08/03 Q1031=
202001071150 METAR EDTL 071150Z 21008KT 180V240 9999 SCT043 08/04 Q1031=
202001071220 METAR EDTL 071220Z 21007KT 9999 BKN043 08/03 Q1031=
202001071250 METAR EDTL 071250Z 23006KT 190V260 9999 SCT041 09/02 Q1030=
202001071320 METAR EDTL 071320Z 27006KT 9999 SCT039 09/03 Q1031=
202001071350 METAR EDTL 071350Z 26004KT 9999 SCT043 08/03 Q1031=
202001071420 METAR EDTL 071420Z 27003KT 9999 BKN041 08/03 Q1030=
202001071450 METAR EDTL 071450Z 27002KT 9999 BKN040 08/03 Q1031=
202001071520 METAR EDTL 071520Z 00000KT 9999 SCT040 07/02 Q1031=
202001071550 METAR EDTL 071550Z VRB01KT 9999 FEW040 06/02 Q1031=
202001071620 METAR EDTL 071620Z 11003KT 9999 FEW040 05/02 Q1031=
202001071650 METAR EDTL 071650Z 10004KT 9999 SCT039 04/02 Q1031=
202001071720 METAR EDTL 071720Z 11004KT 9999 SCT038 04/02 Q1031=
202001071750 METAR EDTL 071750Z 12004KT 9999 BKN038 06/02 Q1031=
202001071820 METAR EDTL 071820Z 13005KT 9999 FEW038 04/01 Q1031=
202001080650 METAR EDTL 080650Z 20005KT CAVOK 01/00 Q1030=
202001080720 METAR EDTL 080720Z 16005KT CAVOK 02/00 Q1030=
202001080750 METAR EDTL 080750Z 21006KT CAVOK 02/01 Q1030=
202001080820 METAR EDTL 080820Z 21006KT CAVOK 03/01 Q1030=
202001080850 METAR EDTL 080850Z 20007KT 9999 BKN029 04/02 Q1030=
202001080920 METAR EDTL 080920Z 20007KT 9999 BKN029 05/02 Q1030=
202001080950 METAR EDTL 080950Z 24008KT 210V270 9999 BKN030 BKN042 05/03
202001081020 METAR EDTL 081020Z 23007KT 9999 SCT030 BKN043 06/03 Q1030=
202001081050 METAR EDTL 081050Z 20009KT 9999 SCT030 BKN045 07/02 Q1030=
202001081120 METAR EDTL 081120Z 21008KT 9999 SCT032 BKN041 08/03 Q1029=
202001081150 METAR EDTL 081150Z 22009KT 9999 BKN031 08/03 Q1029=
202001081220 METAR EDTL 081220Z 23006KT 9999 BKN032 08/04 Q1029=
202001081250 METAR EDTL 081250Z 21006KT 9999 BKN033 09/05 Q1028=
202001081320 METAR EDTL 081320Z 21005KT 9999 OVC031 09/05 Q1028=
202001081350 METAR EDTL 081350Z 19005KT 9999 FEW021 BKN032 BKN045 10/06
202001081420 METAR EDTL 081420Z 23006KT 9999 BKN032 BKN039 10/06 Q1028=
202001081450 METAR EDTL 081450Z 21007KT 9999 BKN033 BKN160 10/05 Q1028=
202001081520 METAR EDTL 081520Z 23006KT 9999 FEW034 BKN062 09/05 Q1028=
202001081550 METAR EDTL 081550Z 23004KT 9999 BKN034 BKN057 09/06 Q1028=
202001081620 METAR EDTL 081620Z 18004KT 9999 OVC034 09/05 Q1028=
202001081650 METAR EDTL 081650Z 18003KT 9999 OVC035 09/05 Q1028=
202001081720 METAR EDTL 081720Z 18004KT 9999 OVC033 09/05 Q1028=
202001081750 METAR EDTL 081750Z 21004KT 9999 OVC033 10/06 Q1028=
202001081820 METAR EDTL 081820Z 23004KT 9999 OVC033 10/06 Q1028=
202001081850 METAR EDTL 081850Z 21005KT 9999 OVC034 10/07 Q1028=
202001090620 METAR EDTL 090620Z 19010KT CAVOK 11/09 Q1023=
202001090650 METAR EDTL 090650Z 21008KT CAVOK 11/09 Q1022=
202001090720 METAR EDTL 090720Z 20010KT CAVOK 11/09 Q1022=
202001090750 METAR EDTL 090750Z 23008KT 9999 SCT018 BKN076 11/08 Q1022=
202001090820 METAR EDTL 090820Z 22006KT 9999 FEW019 BKN078 10/08 Q1022=
202001090850 METAR EDTL 090850Z 22005KT 9999 SCT046 OVC078 11/09 Q1022=
202001090920 METAR EDTL 090920Z 20008KT 9999 SCT046 SCT074 12/08 Q1022=
202001090950 METAR EDTL 090950Z 19008KT CAVOK 12/08 Q1021=
202001091020 METAR EDTL 091020Z 19009KT CAVOK 13/07 Q1021=
202001091050 METAR EDTL 091050Z 19013KT CAVOK 13/06 Q1021=
202001091120 METAR EDTL 091120Z 20010KT CAVOK 13/06 Q1020=
202001091150 METAR EDTL 091150Z 20007KT CAVOK 14/06 Q1020=
202001091220 METAR EDTL 091220Z 20010KT CAVOK 15/05 Q1019=
202001091250 METAR EDTL 091250Z 20012KT CAVOK 15/04 Q1019=
202001091320 METAR EDTL 091320Z 20011KT CAVOK 15/04 Q1018=
202001091350 METAR EDTL 091350Z 19012KT CAVOK 15/03 Q1018=
202001091420 METAR EDTL 091420Z 19010KT CAVOK 14/03 Q1018=
202001091450 METAR EDTL 091450Z 19008KT CAVOK 14/04 Q1018=
202001091520 METAR EDTL 091520Z 20004KT 150V230 CAVOK 14/04 Q1018=
202001091550 METAR EDTL 091550Z 19003KT 150V240 CAVOK 13/03 Q1017=
202001091620 METAR EDTL 091620Z 18008KT CAVOK 13/03 Q1017=
202001091650 METAR EDTL 091650Z 18009KT CAVOK 13/03 Q1017=
202001091720 METAR EDTL 091720Z 18007KT CAVOK 13/03 Q1016=
202001091750 METAR EDTL 091750Z 22006KT CAVOK 13/03 Q1017=
202001091820 METAR EDTL 091820Z 19005KT CAVOK 12/03 Q1016=
202001091850 METAR EDTL 091850Z 22006KT CAVOK 12/03 Q1016=
202001100650 METAR EDTL 100650Z 19013KT 9999 SCT046 BKN180 09/04 Q1019=
202001100720 METAR EDTL 100720Z 18013KT 9999 SCT047 SCT072 09/04 Q1019=
202001100750 METAR EDTL 100750Z 18010KT 9999 BKN044 10/04 Q1019=
202001100820 METAR EDTL 100820Z 19010KT 9999 BKN045 10/05 Q1019=
202001100850 METAR EDTL 100850Z 19009KT 9999 BKN046 10/05 Q1020=
202001100920 METAR EDTL 100920Z 19009KT 9999 BKN048 10/05 Q1020=
202001100950 METAR EDTL 100950Z 19009KT 9999 BKN047 10/05 Q1020=
202001101020 METAR EDTL 101020Z 19013KT 9999 BKN047 11/05 Q1021=
202001101050 METAR EDTL 101050Z 19015KT 9999 BKN048 11/06 Q1021=
202001101120 METAR EDTL 101120Z 20013KT 9999 BKN048 12/06 Q1021=
202001101150 METAR EDTL 101150Z 20011KT 9999 BKN046 11/06 Q1021=
202001101220 METAR EDTL 101220Z 20012KT 9999 BKN045 11/05 Q1021=
202001101250 METAR EDTL 101250Z 20012KT 9999 BKN043 11/05 Q1021=
202001101320 METAR EDTL 101320Z 21011KT 9999 -RA BKN041 11/05 Q1022=
202001101350 METAR EDTL 101350Z 24007KT 9999 FEW004 OVC039 10/07 Q1022=
202001101420 METAR EDTL 101420Z 24004KT 190V280 9999 BKN037 09/07 Q1023=
202001101450 METAR EDTL 101450Z 21007KT 180V240 9999 BKN036 OVC043 10/06
202001101520 METAR EDTL 101520Z 20009KT 9999 VCSH FEW004 BKN031 BKN038
202001101550 METAR EDTL 101550Z 24007KT 210V290 9999 VCSH FEW004 SCT010
202001101620 METAR EDTL 101620Z 24010KT 9999 OVC038 09/07 Q1025=
202001101650 METAR EDTL 101650Z 23007KT 9999 -RA OVC043 08/07 Q1026=
202001101720 METAR EDTL 101720Z 29007KT 9999 FEW030 OVC043 09/06 Q1026=
202001101750 METAR EDTL 101750Z 32008KT 9999 SCT032 OVC053 09/05 Q1027=
202001101820 METAR EDTL 101820Z 34005KT 9999 SCT036 OVC051 08/05 Q1028=
202001101850 METAR EDTL 101850Z 32007KT 9999 OVC036 08/05 Q1028=
202001130650 METAR EDTL 130650Z 17003KT 9000 BKN016 OVC043 04/02 Q1024=
202001130720 METAR EDTL 130720Z 18005KT 9000 BKN015 OVC045 04/03 Q1024=
202001130750 METAR EDTL 130750Z 20004KT 9999 BKN017 04/03 Q1024=
202001130820 METAR EDTL 130820Z 20003KT 9999 SCT016 BKN049 05/03 Q1024=
202001130850 METAR EDTL 130850Z 20006KT 9999 BKN017 05/03 Q1023=
202001130920 METAR EDTL 130920Z 20006KT 9999 FEW017 05/03 Q1023=
202001130950 METAR EDTL 130950Z 22004KT CAVOK 06/03 Q1023=
202001131020 METAR EDTL 131020Z 24004KT CAVOK 06/03 Q1023=
202001131050 METAR EDTL 131050Z 25004KT 210V300 CAVOK 06/03 Q1022=
202001131120 METAR EDTL 131120Z 23006KT 9999 SCT047 07/03 Q1022=
202001131150 METAR EDTL 131150Z 20004KT 9999 BKN051 07/02 Q1022=
202001131220 METAR EDTL 131220Z 19004KT 160V230 CAVOK 07/02 Q1021=
202001131250 METAR EDTL 131250Z 28005KT 9999 FEW009 BKN034 07/03 Q1021=
202001131320 METAR EDTL 131320Z 18004KT 140V210 9999 SCT027 OVC042 08/03
202001131350 METAR EDTL 131350Z 15006KT 9999 SCT042 08/03 Q1020=
202001131420 METAR EDTL 131420Z 19007KT 9999 NSC 09/04 Q1020=
202001131450 METAR EDTL 131450Z 18008KT CAVOK 09/04 Q1019=
202001131520 METAR EDTL 131520Z 18007KT CAVOK 09/04 Q1019=
202001131550 METAR EDTL 131550Z 19007KT CAVOK 08/04 Q1019=
202001131620 METAR EDTL 131620Z 13003KT CAVOK 08/04 Q1019=
202001131650 METAR EDTL 131650Z 15005KT CAVOK 07/04 Q1019=
202001131720 METAR EDTL 131720Z VRB02KT CAVOK 06/03 Q1019=
202001131750 METAR EDTL 131750Z 16003KT CAVOK 06/04 Q1019=
202001131820 METAR EDTL 131820Z 20003KT CAVOK 06/04 Q1019=
202001131850 METAR EDTL 131850Z 14005KT CAVOK 06/04 Q1018=
202001140650 METAR EDTL 140650Z 20010KT CAVOK 07/M01 Q1016=
202001140720 METAR EDTL 140720Z 19011KT CAVOK 08/M01 Q1016=
202001140750 METAR EDTL 140750Z 20011KT CAVOK 08/M01 Q1016=
202001140820 METAR EDTL 140820Z 19010KT CAVOK 08/M01 Q1016=
202001140850 METAR EDTL 140850Z 18013KT CAVOK 09/M01 Q1016=
202001140920 METAR EDTL 140920Z 18014KT CAVOK 10/M01 Q1017=
202001140950 METAR EDTL 140950Z 18019KT CAVOK 10/M02 Q1016=
202001141020 METAR EDTL 141020Z 18017KT CAVOK 11/M01 Q1017=
202001141050 METAR EDTL 141050Z 19018KT CAVOK 11/M01 Q1016=
202001141120 METAR EDTL 141120Z 19016KT CAVOK 11/M01 Q1016=
202001141150 METAR EDTL 141150Z 19017KT CAVOK 11/M01 Q1016=
202001141220 METAR EDTL 141220Z 19014KT CAVOK 11/M00 Q1016=
202001141250 METAR EDTL 141250Z 19013KT CAVOK 12/M00 Q1016=
202001141320 METAR EDTL 141320Z 19016KT CAVOK 12/M00 Q1016=
202001141350 METAR EDTL 141350Z 19015KT CAVOK 12/00 Q1016=
202001141420 METAR EDTL 141420Z 18013KT CAVOK 12/00 Q1016=
202001141450 METAR EDTL 141450Z 18013KT CAVOK 12/01 Q1016=
202001141520 METAR EDTL 141520Z 19013KT CAVOK 12/01 Q1016=
202001141550 METAR EDTL 141550Z 19013KT CAVOK 13/01 Q1016=
202001141620 METAR EDTL 141620Z 18011KT CAVOK 12/01 Q1016=
202001141650 METAR EDTL 141650Z 19011KT CAVOK 12/02 Q1017=
202001141720 METAR EDTL 141720Z 19010KT CAVOK 13/02 Q1017=
202001141750 METAR EDTL 141750Z 19010KT CAVOK 12/02 Q1017=
202001141820 METAR EDTL 141820Z 19007KT CAVOK 12/02 Q1017=
202001141850 METAR EDTL 141850Z 19007KT CAVOK 12/02 Q1017=
202001141920 METAR EDTL 141920Z 19006KT CAVOK 11/02 Q1017=
202001141950 METAR EDTL 141950Z 18007KT CAVOK 11/02 Q1017=
202001142150 METAR EDTL 142150Z 22006KT CAVOK 10/02 Q1017=
202001142220 METAR EDTL 142220Z 19007KT CAVOK 10/01 Q1017=
202001142250 METAR EDTL 142250Z 21006KT CAVOK 10/01 Q1017=
202001150650 METAR EDTL 150650Z 18009KT CAVOK 08/00 Q1018=
202001150720 METAR EDTL 150720Z 18008KT CAVOK 08/00 Q1018=
202001150750 METAR EDTL 150750Z 20007KT CAVOK 09/00 Q1018=
202001150820 METAR EDTL 150820Z 22007KT CAVOK 08/01 Q1019=
202001150850 METAR EDTL 150850Z 22005KT CAVOK 10/01 Q1019=
202001150920 METAR EDTL 150920Z 19009KT CAVOK 11/02 Q1019=
202001150950 METAR EDTL 150950Z 20010KT CAVOK 12/02 Q1019=
202001151020 METAR EDTL 151020Z 20013KT CAVOK 12/02 Q1019=
202001151050 METAR EDTL 151050Z 20011KT CAVOK 12/02 Q1019=
202001151120 METAR EDTL 151120Z 20011KT CAVOK 13/02 Q1019=
202001151150 METAR EDTL 151150Z 20013KT CAVOK 13/03 Q1019=
202001151220 METAR EDTL 151220Z 21014KT CAVOK 14/03 Q1019=
202001151250 METAR EDTL 151250Z 20013KT CAVOK 14/03 Q1019=
202001151320 METAR EDTL 151320Z 20014KT CAVOK 14/03 Q1019=
202001151350 METAR EDTL 151350Z 19013KT CAVOK 14/03 Q1019=
202001151420 METAR EDTL 151420Z 19013KT CAVOK 14/03 Q1020=
202001151450 METAR EDTL 151450Z 18010KT CAVOK 14/03 Q1019=
202001151520 METAR EDTL 151520Z 18011KT CAVOK 13/03 Q1020=
202001151550 METAR EDTL 151550Z 19009KT CAVOK 13/03 Q1020=
202001151620 METAR EDTL 151620Z 19009KT CAVOK 12/03 Q1021=
202001151650 METAR EDTL 151650Z 21011KT CAVOK 12/03 Q1021=
202001151720 METAR EDTL 151720Z 18006KT CAVOK 12/03 Q1021=
202001151750 METAR EDTL 151750Z 18010KT CAVOK 12/03 Q1022=
202001151820 METAR EDTL 151820Z 19013KT CAVOK 12/03 Q1022=
202001151850 METAR EDTL 151850Z 19014KT CAVOK 13/03 Q1023=
202001160650 METAR EDTL 160650Z 00000KT CAVOK 09/04 Q1028=
202001160720 METAR EDTL 160720Z VRB01KT 9999 FEW047 SCT055 09/04 Q1028=
202001160750 METAR EDTL 160750Z 13003KT CAVOK 09/04 Q1028=
202001160820 METAR EDTL 160820Z 13004KT CAVOK 07/04 Q1028=
202001160850 METAR EDTL 160850Z 15001KT CAVOK 08/06 Q1028=
202001160920 METAR EDTL 160920Z 29003KT CAVOK 09/06 Q1028=
202001160950 METAR EDTL 160950Z 22002KT CAVOK 10/06 Q1028=
202001161020 METAR EDTL 161020Z 24005KT CAVOK 11/05 Q1028=
202001161050 METAR EDTL 161050Z 26003KT 210V290 CAVOK 12/05 Q1028=
202001161120 METAR EDTL 161120Z 26004KT 230V300 CAVOK 13/05 Q1027=
202001161150 METAR EDTL 161150Z 28004KT 250V320 CAVOK 13/05 Q1027=
202001161220 METAR EDTL 161220Z VRB03KT CAVOK 14/05 Q1026=
202001161250 METAR EDTL 161250Z VRB02KT CAVOK 14/05 Q1026=
202001161320 METAR EDTL 161320Z VRB02KT CAVOK 14/05 Q1026=
202001161350 METAR EDTL 161350Z VRB02KT CAVOK 14/05 Q1025=
202001161420 METAR EDTL 161420Z 34004KT CAVOK 14/05 Q1025=
202001161450 METAR EDTL 161450Z 34002KT CAVOK 14/06 Q1025=
202001161520 METAR EDTL 161520Z 35003KT CAVOK 13/05 Q1025=
202001161550 METAR EDTL 161550Z 01003KT CAVOK 13/05 Q1025=
202001161620 METAR EDTL 161620Z 28002KT CAVOK 10/05 Q1025=
202001161650 METAR EDTL 161650Z 13003KT CAVOK 09/05 Q1025=
202001161720 METAR EDTL 161720Z 13003KT CAVOK 10/05 Q1025=
202001161750 METAR EDTL 161750Z 12005KT CAVOK 10/05 Q1025=
202001161820 METAR EDTL 161820Z 12007KT CAVOK 10/05 Q1025=
202001161850 METAR EDTL 161850Z 12007KT CAVOK 09/05 Q1025=
202001170650 METAR EDTL 170650Z VRB02KT CAVOK 02/01 Q1020=
202001170720 METAR EDTL 170720Z VRB02KT CAVOK M00/M01 Q1021=
202001170750 METAR EDTL 170750Z 10003KT CAVOK 01/00 Q1021=
202001170820 METAR EDTL 170820Z VRB01KT CAVOK 02/M00 Q1021=
202001170850 METAR EDTL 170850Z 12002KT CAVOK 03/01 Q1021=
202001170920 METAR EDTL 170920Z 12003KT CAVOK 04/02 Q1020=
202001170950 METAR EDTL 170950Z VRB03KT CAVOK 04/03 Q1020=
202001171020 METAR EDTL 171020Z VRB02KT CAVOK 05/03 Q1020=
202001171050 METAR EDTL 171050Z 33002KT CAVOK 06/04 Q1020=
202001171120 METAR EDTL 171120Z VRB01KT CAVOK 11/04 Q1020=
202001171150 METAR EDTL 171150Z 20008KT CAVOK 11/03 Q1019=
202001171220 METAR EDTL 171220Z 20008KT CAVOK 11/03 Q1019=
202001171250 METAR EDTL 171250Z 19008KT CAVOK 11/03 Q1019=
202001171320 METAR EDTL 171320Z 22006KT CAVOK 10/04 Q1019=
202001171350 METAR EDTL 171350Z 22006KT 9999 -RA BKN039 OVC051 10/05 Q1019=
202001171420 METAR EDTL 171420Z 22007KT 9999 -RA OVC043 09/06 Q1019=
202001171450 METAR EDTL 171450Z 21005KT 9999 -RA OVC039 09/07 Q1020=
202001171520 METAR EDTL 171520Z 19008KT 9999 -DZ SCT038 OVC051 08/07 Q1020=
202001171550 METAR EDTL 171550Z 19008KT 9999 -RA OVC044 08/07 Q1020=
202001171620 METAR EDTL 171620Z 20006KT 9999 -RA FEW007 OVC034 08/07 Q1020=
202001171650 METAR EDTL 171650Z 19006KT 9999 -RA FEW005 BKN033 OVC048
202001171720 METAR EDTL 171720Z 17008KT 9999 OVC035 08/07 Q1021=
202001171750 METAR EDTL 171750Z 19008KT 9999 SCT030 OVC036 08/07 Q1021=
202001171820 METAR EDTL 171820Z 18006KT 9999 OVC040 08/07 Q1021=
202001200820 METAR EDTL 200820Z 05004KT CAVOK 01/M00 Q1044=
202001200850 METAR EDTL 200850Z 04005KT CAVOK 01/M00 Q1044=
202001200920 METAR EDTL 200920Z 05006KT CAVOK 02/00 Q1044=
202001200950 METAR EDTL 200950Z 04006KT CAVOK 02/01 Q1045=
202001201020 METAR EDTL 201020Z 03008KT CAVOK 04/01 Q1044=
202001201050 METAR EDTL 201050Z 03009KT CAVOK 04/02 Q1044=
202001201120 METAR EDTL 201120Z 03009KT CAVOK 05/01 Q1044=
202001201150 METAR EDTL 201150Z 02011KT CAVOK 06/01 Q1043=
202001201220 METAR EDTL 201220Z 01012KT CAVOK 06/00 Q1043=
202001201250 METAR EDTL 201250Z 02012KT CAVOK 07/01 Q1043=
202001201320 METAR EDTL 201320Z 02013KT CAVOK 07/01 Q1043=
202001201350 METAR EDTL 201350Z 08008KT 040V110 CAVOK 07/M02 Q1042=
202001201420 METAR EDTL 201420Z 06007KT CAVOK 07/M02 Q1042=
202001201450 METAR EDTL 201450Z 05009KT 010V080 CAVOK 06/M02 Q1042=
202001201520 METAR EDTL 201520Z 05007KT CAVOK 06/M02 Q1042=
202001201550 METAR EDTL 201550Z 06011KT CAVOK 06/M03 Q1042=
202001201620 METAR EDTL 201620Z 07007KT 040V100 CAVOK 05/M03 Q1042=
202001201650 METAR EDTL 201650Z 09005KT CAVOK 05/M03 Q1042=
202001201720 METAR EDTL 201720Z 05006KT CAVOK 04/M03 Q1042=
202001201750 METAR EDTL 201750Z 05006KT CAVOK 03/M03 Q1042=
202001201820 METAR EDTL 201820Z 02004KT CAVOK 02/M03 Q1042=
202001201850 METAR EDTL 201850Z VRB02KT CAVOK 02/M03 Q1042=
202001210450 METAR EDTL 210450Z VRB01KT CAVOK M03/M04 Q1041=
202001210520 METAR EDTL 210520Z VRB02KT CAVOK M02/M03 Q1041=
202001210550 METAR EDTL 210550Z 18003KT CAVOK M03/M04 Q1041=
202001210620 METAR EDTL 210620Z 20004KT CAVOK M02/M03 Q1041=
202001210650 METAR EDTL 210650Z 21004KT CAVOK M03/M03 Q1041=
202001210720 METAR EDTL 210720Z 00000KT CAVOK M03/M04 Q1041=
202001210750 METAR EDTL 210750Z 10001KT CAVOK M03/M03 Q1041=
202001210820 METAR EDTL 210820Z 06002KT CAVOK M03/M04 Q1041=
202001210850 METAR EDTL 210850Z VRB01KT CAVOK M01/M02 Q1042=
202001210920 METAR EDTL 210920Z VRB02KT CAVOK M01/M02 Q1041=
202001210950 METAR EDTL 210950Z VRB02KT CAVOK 00/M01 Q1041=
202001211020 METAR EDTL 211020Z VRB01KT CAVOK 01/M02 Q1041=
202001211050 METAR EDTL 211050Z VRB02KT CAVOK 01/M01 Q1041=
202001211120 METAR EDTL 211120Z VRB03KT CAVOK 02/M01 Q1041=
202001211150 METAR EDTL 211150Z 35004KT 320V020 CAVOK 02/M01 Q1040=
202001211220 METAR EDTL 211220Z 01005KT 330V040 CAVOK 02/M01 Q1040=
202001211250 METAR EDTL 211250Z 36004KT 330V050 CAVOK 03/M01 Q1040=
202001211320 METAR EDTL 211320Z 36006KT CAVOK 03/M01 Q1039=
202001211350 METAR EDTL 211350Z 36007KT CAVOK 03/M01 Q1039=
202001211420 METAR EDTL 211420Z 01007KT CAVOK 03/M01 Q1039=
202001211450 METAR EDTL 211450Z 02007KT CAVOK 03/M01 Q1038=
202001211520 METAR EDTL 211520Z 03006KT CAVOK 03/M01 Q1038=
202001211550 METAR EDTL 211550Z 02006KT CAVOK 01/M02 Q1038=
202001211620 METAR EDTL 211620Z 01006KT CAVOK 01/M02 Q1038=
202001211650 METAR EDTL 211650Z 36004KT CAVOK 01/M02 Q1038=
202001211720 METAR EDTL 211720Z 36003KT CAVOK 01/M02 Q1038=
202001211750 METAR EDTL 211750Z VRB02KT CAVOK 00/M02 Q1038=
202001211820 METAR EDTL 211820Z VRB01KT CAVOK M00/M02 Q1038=
202001211850 METAR EDTL 211850Z 20002KT CAVOK M01/M02 Q1038=
202001220650 METAR EDTL 220650Z 04008KT 1100 R21/P2000N BR OVC002 M02/M02
202001220720 METAR EDTL 220720Z 04005KT 1400 R03/P2000N BR OVC002 M02/M02
202001220750 METAR EDTL 220750Z 04004KT 0800 R03/1800D FZFG OVC002 M02/M02
202001220820 METAR EDTL 220820Z VRB03KT 2500 BR SCT002 OVC005 M02/M02
202001220850 METAR EDTL 220850Z VRB02KT 3100 BR OVC002 M02/M03 Q1035=
202001220920 METAR EDTL 220920Z 01003KT 320V060 2700 BR OVC002 M02/M03
202001220950 METAR EDTL 220950Z VRB01KT 2400 BR OVC002 M02/M02 Q1036=
202001221020 METAR EDTL 221020Z 04003KT 2300 BR OVC002 M02/M02 Q1036=
202001221050 METAR EDTL 221050Z VRB03KT 2800 BR OVC002 M02/M02 Q1036=
202001221120 METAR EDTL 221120Z 08004KT 050V130 2800 BR OVC003 M02/M02
202001221150 METAR EDTL 221150Z VRB02KT 2800 BR OVC002 M02/M02 Q1035=
202001221220 METAR EDTL 221220Z VRB01KT 2700 BR BKN003 M01/M02 Q1035=
202001221250 METAR EDTL 221250Z 36004KT 300V060 2600 BR OVC003 M01/M02
202001221320 METAR EDTL 221320Z 02005KT 2700 BR BKN004 M01/M02 Q1034=
202001221350 METAR EDTL 221350Z 04004KT 2600 BR BKN003 M01/M02 Q1034=
202001221420 METAR EDTL 221420Z 03005KT 2700 BR BKN004 M01/M02 Q1034=
202001221450 METAR EDTL 221450Z 02007KT 2400 BR BKN004 M01/M02 Q1034=
202001221520 METAR EDTL 221520Z 03008KT 3300 BR OVC005 M02/M02 Q1034=
202001221550 METAR EDTL 221550Z 01006KT 340V060 3400 BR BKN005 M02/M02
202001221620 METAR EDTL 221620Z 36003KT 320V060 2800 BR BKN005 M02/M03
202001221650 METAR EDTL 221650Z 36003KT 320V040 2900 BR BKN005 M02/M02
202001221720 METAR EDTL 221720Z VRB02KT 3200 BR BKN004 M02/M03 Q1035=
202001221750 METAR EDTL 221750Z 00000KT 3200 BR BKN005 M02/M02 Q1035=
202001221820 METAR EDTL 221820Z 03003KT 2800 BR BKN005 M02/M02 Q1035=
202001221850 METAR EDTL 221850Z 01003KT 4700 BR OVC006 M02/M02 Q1035=
202001230620 METAR EDTL 230620Z 35003KT 320V030 2500 BR OVC008 M03/M04
202001230650 METAR EDTL 230650Z 35005KT 310V020 2500 BR OVC006 M03/M04
202001230720 METAR EDTL 230720Z 03005KT 3000 BR OVC006 M03/M04 Q1032=
202001230750 METAR EDTL 230750Z 04004KT 3000 BR OVC006 M03/M04 Q1032=
202001230820 METAR EDTL 230820Z VRB04KT 3500 BR OVC006 M03/M04 Q1032=
202001230850 METAR EDTL 230850Z VRB03KT 3500 BR OVC006 M03/M04 Q1032=
202001230920 METAR EDTL 230920Z VRB02KT 5000 OVC006 M03/M04 Q1032=
202001230950 METAR EDTL 230950Z VRB01KT 3500 BR OVC006 M03/M04 Q1032=
202001231020 METAR EDTL 231020Z 02004KT 340V060 3500 BR OVC006 M02/M04
202001231050 METAR EDTL 231050Z VRB02KT 3000 BR OVC006 M03/M04 Q1031=
202001231120 METAR EDTL 231120Z VRB02KT 5000 BR OVC006 M03/M04 Q1031=
202001231150 METAR EDTL 231150Z VRB03KT 4500 BR OVC007 M02/M04 Q1030=
202001231220 METAR EDTL 231220Z 03004KT 360V060 4500 BR OVC007 M02/M04
202001231250 METAR EDTL 231250Z 03005KT 4500 BR OVC007 M02/M04 Q1029=
202001231320 METAR EDTL 231320Z 03004KT 350V070 5000 BR OVC007 M02/M04
202001231350 METAR EDTL 231350Z VRB02KT 5000 BR OVC009 M02/M04 Q1028=
202001231420 METAR EDTL 231420Z VRB03KT 6000 OVC009 M01/M03 Q1028=
202001231450 METAR EDTL 231450Z 19002KT 6000 OVC009 M01/M03 Q1027=
202001231520 METAR EDTL 231520Z 19004KT 6000 OVC010 M01/M03 Q1027=
202001231550 METAR EDTL 231550Z 19007KT 6000 OVC010 M01/M03 Q1027=
202001231620 METAR EDTL 231620Z 18006KT 7000 OVC009 M01/M03 Q1027=
202001231650 METAR EDTL 231650Z 20006KT 6000 OVC009 M01/M03 Q1028=
202001231720 METAR EDTL 231720Z 20004KT 6000 OVC009 M01/M03 Q1027=
202001231750 METAR EDTL 231750Z 20005KT 7000 OVC009 M01/M03 Q1027=
202001231820 METAR EDTL 231820Z 20006KT 7000 OVC009 M01/M03 Q1027=
202001231850 METAR EDTL 231850Z 21006KT 7000 OVC008 M01/M03 Q1028=
202001240620 METAR EDTL 240620Z 00000KT 8000 NSC M04/M05 Q1025=
202001240650 METAR EDTL 240650Z VRB01KT 8000 NSC M04/M05 Q1026=
202001240720 METAR EDTL 240720Z 00000KT 8000 NSC M04/M05 Q1026=
202001240750 METAR EDTL 240750Z 00000KT 8000 NSC M04/M05 Q1026=
202001240820 METAR EDTL 240820Z 32002KT CAVOK M03/M04 Q1026=
202001240850 METAR EDTL 240850Z 33002KT CAVOK M02/M04 Q1025=
202001240920 METAR EDTL 240920Z VRB01KT CAVOK M00/M03 Q1025=
202001240950 METAR EDTL 240950Z 00000KT CAVOK 01/M02 Q1025=
202001241020 METAR EDTL 241020Z VRB01KT CAVOK 02/M02 Q1025=
202001241050 METAR EDTL 241050Z 21004KT 160V240 CAVOK 02/M02 Q1025=
202001241120 METAR EDTL 241120Z VRB03KT CAVOK 03/M02 Q1025=
202001241150 METAR EDTL 241150Z 18004KT 150V220 CAVOK 03/M01 Q1024=
202001241220 METAR EDTL 241220Z 19005KT 160V230 CAVOK 04/M01 Q1024=
202001241250 METAR EDTL 241250Z 21006KT 190V250 CAVOK 04/M01 Q1024=
202001241320 METAR EDTL 241320Z 20004KT 170V240 CAVOK 05/M00 Q1023=
202001241350 METAR EDTL 241350Z VRB02KT CAVOK 06/M00 Q1023=
202001241420 METAR EDTL 241420Z VRB01KT CAVOK 06/00 Q1023=
202001241450 METAR EDTL 241450Z 00000KT CAVOK 06/00 Q1022=
202001241520 METAR EDTL 241520Z 34004KT CAVOK 05/01 Q1023=
202001241550 METAR EDTL 241550Z 02003KT CAVOK 04/00 Q1023=
202001241620 METAR EDTL 241620Z 34002KT CAVOK 03/00 Q1023=
202001241650 METAR EDTL 241650Z 06002KT CAVOK 03/00 Q1023=
202001241720 METAR EDTL 241720Z VRB01KT CAVOK 01/M01 Q1023=
202001241750 METAR EDTL 241750Z 29001KT CAVOK 01/M00 Q1023=
202001241820 METAR EDTL 241820Z 04004KT CAVOK 01/M00 Q1023=
202001241850 METAR EDTL 241850Z VRB03KT CAVOK 01/M01 Q1023=
202001261520 METAR EDTL 261520Z 04003KT CAVOK 07/04 Q1018=
202001261550 METAR EDTL 261550Z 03005KT CAVOK 04/03 Q1018=
202001270650 METAR EDTL 270650Z 18008KT 9999 FEW040 BKN062 08/04 Q1016=
202001270720 METAR EDTL 270720Z 19009KT 9999 FEW040 BKN064 08/04 Q1016=
202001270750 METAR EDTL 270750Z 18008KT 150V220 9999 FEW035 BKN062 08/04
202001270820 METAR EDTL 270820Z 19009KT 9999 FEW035 BKN061 BKN088 09/04
202001270850 METAR EDTL 270850Z 19009KT 9999 FEW035 SCT055 OVC088 09/04
202001270920 METAR EDTL 270920Z 19007KT 9999 FEW040 SCT051 09/04 Q1015=
202001270950 METAR EDTL 270950Z 19009KT 170V230 CAVOK 10/03 Q1015=
202001271020 METAR EDTL 271020Z 20008KT CAVOK 10/03 Q1014=
202001271050 METAR EDTL 271050Z 19009KT CAVOK 11/03 Q1014=
202001271120 METAR EDTL 271120Z 19010KT CAVOK 11/03 Q1013=
202001271150 METAR EDTL 271150Z 19010KT CAVOK 11/03 Q1013=
202001271220 METAR EDTL 271220Z 19008KT 9999 -RA FEW049 BKN061 11/03 Q1012=
202001271250 METAR EDTL 271250Z 19007KT 9999 -DZ BKN046 11/03 Q1012=
202001271320 METAR EDTL 271320Z 20007KT 9999 BKN047 10/03 Q1012=
202001271350 METAR EDTL 271350Z 19005KT 150V220 9999 -DZ SCT040 10/03
202001271420 METAR EDTL 271420Z 19006KT 9999 -DZ SCT049 10/03 Q1011=
202001271450 METAR EDTL 271450Z 18007KT 9999 -DZ SCT047 10/03 Q1011=
202001271520 METAR EDTL 271520Z 19007KT 9999 -RA FEW019 BKN038 10/03 Q1010=
202001271550 METAR EDTL 271550Z 19007KT 9999 -RA FEW019 SCT035 09/04 Q1010=
202001271620 METAR EDTL 271620Z 20007KT 9999 -RA FEW018 BKN034 09/04 Q1010=
202001271650 METAR EDTL 271650Z 20014KT 9999 -RA FEW018 OVC036 10/04 Q1009=
202001271720 METAR EDTL 271720Z 19011KT 9999 -RA BKN035 OVC049 09/04 Q1009=
202001271750 METAR EDTL 271750Z 19011KT 9999 -RA OVC045 09/04 Q1009=
202001271820 METAR EDTL 271820Z 20015KT 160V220 9999 -RA BKN044 09/04
202001280650 METAR EDTL 280650Z 20014KT 9999 FEW047 SCT097 08/05 Q1000=
202001280720 METAR EDTL 280720Z 20012KT 9999 -SHRA SCT043 BKN053 08/05
202001280750 METAR EDTL 280750Z 20013KT 9999 VCSH FEW016 BKN033 08/05
202001280820 METAR EDTL 280820Z 27026G39KT 240V320 4200 SHRA FEW021 SCT033
202001280850 METAR EDTL 280850Z 24013KT 9999 FEW019 BKN033 BKN048 06/04
202001280920 METAR EDTL 280920Z 23016KT 9999 FEW044 SCT190 07/02 Q1001=
202001280950 METAR EDTL 280950Z 24013KT 210V270 9999 SCT049 08/01 Q1002=
202001281020 METAR EDTL 281020Z 25016KT 9999 SCT051 BKN072 08/01 Q1003=
202001281050 METAR EDTL 281050Z 25023G35KT 9999 SCT046 BKN068 08/M00 Q1002=
202001281120 METAR EDTL 281120Z 25015KT 220V280 9999 BKN046 10/00 Q1003=
202001281150 METAR EDTL 281150Z 29022KT 9999 VCSH FEW037 OVC055 05/01
202001281220 METAR EDTL 281220Z 27015G26KT 250V310 9999 FEW036 BKN057
202001281250 METAR EDTL 281250Z 24019G33KT 9999 FEW049 BKN069 08/M00 Q1004=
202001281320 METAR EDTL 281320Z 25022G35KT 9999 SCT049 SCT066 08/M02 Q1004=
202001281350 METAR EDTL 281350Z 24018KT 9999 FEW046 07/00 Q1004=
202001281420 METAR EDTL 281420Z 23015KT 9999 SCT047 07/M00 Q1005=
202001281450 METAR EDTL 281450Z 25015KT 9999 FEW018 SCT034 BKN049 06/01
202001281520 METAR EDTL 281520Z 26006KT 210V300 9999 SCT026 05/02 Q1005=
202001281550 METAR EDTL 281550Z 21010KT 9999 -SHRA SCT036TCU SCT110 05/01
202001281620 METAR EDTL 281620Z 25016G28KT 220V280 9999 -SHRA FEW020 SCT031
202001281650 METAR EDTL 281650Z 22010KT 9999 FEW033 SCT068 04/01 Q1007=
202001281720 METAR EDTL 281720Z 26013KT 9999 FEW014 SCT021 BKN026 04/01
202001281750 METAR EDTL 281750Z 20008KT 170V230 9999 NSC 04/01 Q1008=
202001281820 METAR EDTL 281820Z 19005KT 150V220 9999 BKN033 04/00 Q1008=
202001281850 METAR EDTL 281850Z 20009KT 9999 FEW031 04/00 Q1008=
202001290650 METAR EDTL 290650Z 20007KT 170V230 9999 BKN035 OVC043 05/00
202001290720 METAR EDTL 290720Z 21010KT 9999 SCT035 BKN048 05/00 Q1012=
202001290750 METAR EDTL 290750Z 21008KT 9999 -RA FEW005 BKN034 05/00 Q1012=
202001290820 METAR EDTL 290820Z 21009KT 9999 VCSH FEW034 BKN042 05/00
202001290850 METAR EDTL 290850Z 19008KT 9999 -RA SCT036 OVC049 05/01 Q1012=
202001290920 METAR EDTL 290920Z 20009KT 8000 -RA FEW004 BKN032 OVC038
202001290950 METAR EDTL 290950Z 20007KT 180V250 9999 -RA FEW014 OVC030
202001291020 METAR EDTL 291020Z 31004KT 230V340 6000 -RA SCT003 BKN015
202001291050 METAR EDTL 291050Z 22006KT 8000 -RA SCT003 BKN031 OVC040
202001291120 METAR EDTL 291120Z 27003KT 230V310 8000 -RA SCT003 BKN015
202001291150 METAR EDTL 291150Z 20006KT 9999 -RA FEW017 SCT028 BKN035
202001291220 METAR EDTL 291220Z 22012KT 9999 FEW022 SCT049 BKN072 05/03
202001291250 METAR EDTL 291250Z 22011KT 9999 FEW045 BKN064 05/03 Q1014=
202001291320 METAR EDTL 291320Z 22014KT 9999 SCT037 SCT066 05/03 Q1014=
202001291350 METAR EDTL 291350Z 23013KT 9999 SCT046 SCT086 06/02 Q1014=
202001291420 METAR EDTL 291420Z 23013KT 9999 SCT046 SCT075 06/02 Q1014=
202001291450 METAR EDTL 291450Z 27008KT 9999 SCT032 BKN049 06/03 Q1014=
202001291520 METAR EDTL 291520Z 22008KT 180V250 9999 SCT043 07/02 Q1015=
202001291550 METAR EDTL 291550Z 22009KT 9999 SCT038 SCT066 06/02 Q1015=
202001291620 METAR EDTL 291620Z 21007KT 9999 SCT039 06/02 Q1015=
202001291650 METAR EDTL 291650Z 20008KT 9999 SCT047 SCT082 06/02 Q1016=
202001291720 METAR EDTL 291720Z 21009KT 9999 SCT045 06/02 Q1016=
202001291750 METAR EDTL 291750Z 23009KT 9999 SCT049 06/02 Q1017=
202001291820 METAR EDTL 291820Z 23009KT CAVOK 05/02 Q1017=
202001291850 METAR EDTL 291850Z 19007KT CAVOK 06/02 Q1018=
202001291920 METAR EDTL 291920Z 18007KT CAVOK 06/03 Q1018=
202001291950 METAR EDTL 291950Z 21007KT CAVOK 06/03 Q1018=
202001300650 METAR EDTL 300650Z 20004KT CAVOK 05/02 Q1017=
202001300720 METAR EDTL 300720Z 20005KT CAVOK 05/02 Q1017=
202001300750 METAR EDTL 300750Z 17003KT CAVOK 06/02 Q1017=
202001300820 METAR EDTL 300820Z VRB02KT CAVOK 07/02 Q1017=
202001300920 METAR EDTL 300920Z 21004KT CAVOK 08/04 Q1017=
202001300950 METAR EDTL 300950Z 22005KT CAVOK 09/03 Q1016=
202001301020 METAR EDTL 301020Z 22008KT CAVOK 09/04 Q1016=
202001301050 METAR EDTL 301050Z 21011KT CAVOK 09/04 Q1016=
202001301120 METAR EDTL 301120Z 22009KT CAVOK 10/04 Q1015=
202001301150 METAR EDTL 301150Z 20008KT CAVOK 10/04 Q1015=
202001301220 METAR EDTL 301220Z 19013KT CAVOK 11/04 Q1014=
202001301250 METAR EDTL 301250Z 20013KT CAVOK 11/03 Q1014=
202001301320 METAR EDTL 301320Z 20010KT CAVOK 11/02 Q1013=
202001301350 METAR EDTL 301350Z 20012KT CAVOK 11/02 Q1013=
202001301420 METAR EDTL 301420Z 19009KT CAVOK 11/02 Q1012=
202001301450 METAR EDTL 301450Z 19009KT CAVOK 11/01 Q1012=
202001301520 METAR EDTL 301520Z 20009KT CAVOK 11/01 Q1012=
202001301550 METAR EDTL 301550Z 20008KT CAVOK 10/01 Q1011=
202001301620 METAR EDTL 301620Z 20012KT CAVOK 11/01 Q1011=
202001301650 METAR EDTL 301650Z 18015KT CAVOK 09/05 Q1011=
202001301720 METAR EDTL 301720Z 18016KT 9999 -RA OVC045 08/05 Q1011=
202001301750 METAR EDTL 301750Z 19012KT 9999 -RA OVC040 09/05 Q1011=
202001301820 METAR EDTL 301820Z 20013KT 9999 -RA OVC030 10/06 Q1011=
202002010220 METAR EDTL 010220Z 20008KT 9999 SCT039 13/09 Q1013=
202002010250 METAR EDTL 010250Z 19008KT 9999 SCT041 13/09 Q1013=
202002010320 METAR EDTL 010320Z 19009KT 9999 SCT040 13/09 Q1012=
202002010350 METAR EDTL 010350Z 18011KT 9999 SCT041 13/09 Q1012=
202002010420 METAR EDTL 010420Z 18014KT 9999 SCT042 13/09 Q1012=
202002010450 METAR EDTL 010450Z 19012KT CAVOK 13/09 Q1011=
202002010520 METAR EDTL 010520Z 20012KT CAVOK 12/09 Q1011=
202002010550 METAR EDTL 010550Z 20011KT CAVOK 12/09 Q1011=
202002010620 METAR EDTL 010620Z 19012KT CAVOK 12/09 Q1011=
202002011250 METAR EDTL 011250Z 20012KT 9999 -RA BKN034 14/09 Q1010=
202002011320 METAR EDTL 011320Z 21011KT 9999 -RA BKN042 13/10 Q1010=
202002011550 METAR EDTL 011550Z 21015KT 9999 BKN031 OVC041 12/10 Q1011=
202002011620 METAR EDTL 011620Z 20013KT 9999 BKN030 12/11 Q1012=
202002030650 METAR EDTL 030650Z 06004KT 030V090 5000 RA BKN034 09/09 Q1018=
202002030720 METAR EDTL 030720Z 07004KT 030V120 5000 RA FEW003 BKN037
202002030750 METAR EDTL 030750Z 11004KT 6000 -RA FEW008 BKN042 09/09 Q1019=
202002030820 METAR EDTL 030820Z 12004KT 9999 OVC046 09/09 Q1019=
202002030850 METAR EDTL 030850Z 12003KT 9999 BKN047 09/09 Q1019=
202002030920 METAR EDTL 030920Z VRB02KT 9999 BKN044 10/09 Q1019=
202002030950 METAR EDTL 030950Z 00000KT 9999 BKN039 10/09 Q1020=
202002031020 METAR EDTL 031020Z VRB01KT CAVOK 10/09 Q1020=
202002031050 METAR EDTL 031050Z 13004KT 9999 FEW034 SCT057 10/08 Q1020=
202002031120 METAR EDTL 031120Z 16005KT 9999 FEW010 BKN033 OVC078 10/09
202002031150 METAR EDTL 031150Z 17007KT 9999 FEW010 SCT047 OVC078 10/09
202002031220 METAR EDTL 031220Z 23010KT 170V260 9999 -RA FEW010 BKN053
202002031250 METAR EDTL 031250Z 22008KT 170V240 CAVOK 10/06 Q1020=
202002031320 METAR EDTL 031320Z 22009KT 9999 BKN048 10/06 Q1020=
202002031350 METAR EDTL 031350Z 22008KT 9999 BKN048 10/06 Q1020=
202002031420 METAR EDTL 031420Z 23011KT 9999 BKN049 10/06 Q1020=
202002031450 METAR EDTL 031450Z 22010KT 9999 SCT048 BKN076 10/06 Q1019=
202002031520 METAR EDTL 031520Z 16005KT 9999 OVC046 10/07 Q1019=
202002031550 METAR EDTL 031550Z 22009KT 170V280 9999 FEW027 OVC039 10/07
202002031620 METAR EDTL 031620Z 21008KT 9999 OVC036 10/08 Q1019=
202002031650 METAR EDTL 031650Z 18008KT 9999 OVC030 10/08 Q1018=
202002031720 METAR EDTL 031720Z 17005KT 130V200 9999 SCT024 OVC040 10/08
202002031750 METAR EDTL 031750Z 16004KT 9999 FEW018 OVC031 09/08 Q1016=
202002031820 METAR EDTL 031820Z 21006KT 9999 BKN038 BKN049 11/10 Q1015=
202002031850 METAR EDTL 031850Z 20010KT 9999 BKN043 BKN059 12/10 Q1015=
202002040620 METAR EDTL 040620Z 28003KT 250V320 9999 FEW011 OVC033 06/02
202002040650 METAR EDTL 040650Z 24008KT 9999 SCT029 OVC041 05/03 Q1017=
202002040720 METAR EDTL 040720Z 25007KT 220V280 9999 FEW041 SCT059 OVC140
202002040750 METAR EDTL 040750Z 25006KT 210V280 9999 VCSH SCT037 OVC140
202002040820 METAR EDTL 040820Z 27011G22KT 240V310 9999 VCSH FEW003 SCT028
202002040850 METAR EDTL 040850Z 19004KT 160V230 9999 BKN045 05/02 Q1017=
202002040920 METAR EDTL 040920Z 26015KT 220V280 9999 FEW018 BKN039 OVC062
202002040950 METAR EDTL 040950Z 30016KT 8000 SHRA FEW006 BKN011 BKN025
202002041020 METAR EDTL 041020Z 25006KT 9999 FEW009 SCT059 BKN110 02/01
202002041050 METAR EDTL 041050Z 18007KT 9999 SCT037 BKN180 03/02 Q1018=
202002041120 METAR EDTL 041120Z 17008KT 9999 FEW034 SCT057 04/02 Q1018=
202002041150 METAR EDTL 041150Z 18009KT 9999 SCT036 06/02 Q1018=
202002041220 METAR EDTL 041220Z 18009KT 9999 SHRA FEW023 SCT033 BKN043
202002041250 METAR EDTL 041250Z 20004KT 150V260 9999 FEW018 SCT026 OVC055
202002050650 METAR EDTL 050650Z 33008KT 9999 BKN038 04/01 Q1032=
202002050720 METAR EDTL 050720Z 33009KT 9999 BKN038 04/01 Q1032=
202002050750 METAR EDTL 050750Z 33009KT 9999 BKN034 04/01 Q1033=
202002050820 METAR EDTL 050820Z 34005KT 9999 FEW020 BKN030 04/01 Q1033=
202002050850 METAR EDTL 050850Z 31006KT 9999 FEW018 BKN035 04/01 Q1034=
202002050920 METAR EDTL 050920Z 31006KT 9999 SCT040 04/01 Q1034=
202002050950 METAR EDTL 050950Z 34007KT 9999 FEW040 06/01 Q1034=
202002051020 METAR EDTL 051020Z 36009KT 9999 SCT025 06/01 Q1035=
202002051050 METAR EDTL 051050Z 01008KT 9999 SCT029 BKN036 06/01 Q1035=
202002051220 METAR EDTL 051220Z 35004KT 300V060 9999 SCT036 06/M01 Q1036=
202002051320 METAR EDTL 051320Z 31004KT 000V360 9999 SCT035 08/M01 Q1036=
202002060620 METAR EDTL 060620Z 01002KT 9999 MIFG NSC 01/M02 Q1033=
202002060650 METAR EDTL 060650Z 00000KT 9999 MIFG NSC 00/M02 Q1032=
202002060720 METAR EDTL 060720Z VRB01KT CAVOK M02/M03 Q1033=
202002060750 METAR EDTL 060750Z 27002KT CAVOK M02/M03 Q1032=
202002060820 METAR EDTL 060820Z 00000KT CAVOK 00/M02 Q1032=
202002060850 METAR EDTL 060850Z 00000KT CAVOK 01/M02 Q1033=
202002060920 METAR EDTL 060920Z VRB01KT CAVOK 02/M01 Q1032=
202002060950 METAR EDTL 060950Z VRB02KT CAVOK 02/M00 Q1033=
202002061020 METAR EDTL 061020Z VRB01KT CAVOK 03/M01 Q1033=
202002061050 METAR EDTL 061050Z VRB03KT CAVOK 03/M01 Q1032=
202002061120 METAR EDTL 061120Z VRB03KT CAVOK 04/M00 Q1032=
202002061150 METAR EDTL 061150Z 36004KT 320V060 CAVOK 04/M00 Q1031=
202002061220 METAR EDTL 061220Z 01007KT 330V060 CAVOK 05/M01 Q1031=
202002070620 METAR EDTL 070620Z 11002KT CAVOK M04/M04 Q1029=
202002070650 METAR EDTL 070650Z 22002KT CAVOK M03/M04 Q1028=
202002070720 METAR EDTL 070720Z 03003KT CAVOK M04/M05 Q1029=
202002070750 METAR EDTL 070750Z 04002KT 9999 FEW002 M03/M04 Q1028=
202002070820 METAR EDTL 070820Z 00000KT 9999 FEW002 M02/M03 Q1028=
202002070850 METAR EDTL 070850Z VRB01KT 9999 FEW004 M01/M02 Q1028=
202002070920 METAR EDTL 070920Z 34004KT 2200 R21/1700D PRFG SCT002 M01/M02
202002070950 METAR EDTL 070950Z 32003KT 290V350 3100 1100SW BCFG BKN002
202002071020 METAR EDTL 071020Z 34004KT 310V020 0350 R21/0600N OVC002
202002071050 METAR EDTL 071050Z VRB02KT 0650 R21/1100N FG BKN002 M01/M01
202002071120 METAR EDTL 071120Z VRB02KT 2500 BR BKN003 M00/M01 Q1027=
202002071150 METAR EDTL 071150Z VRB03KT 7000 2300SW SCT005 01/M00 Q1027=
202002071250 METAR EDTL 071250Z 30004KT 270V350 9999 FEW006 02/00 Q1026=
202002071320 METAR EDTL 071320Z VRB03KT CAVOK 03/00 Q1026=
202002071350 METAR EDTL 071350Z VRB02KT CAVOK 04/00 Q1025=
202002071420 METAR EDTL 071420Z 35004KT 320V110 CAVOK 04/01 Q1025=
202002071450 METAR EDTL 071450Z 36003KT 330V050 CAVOK 04/M00 Q1025=
202002071520 METAR EDTL 071520Z 36004KT CAVOK 04/01 Q1025=
202002071550 METAR EDTL 071550Z 36003KT CAVOK 02/00 Q1025=
202002071620 METAR EDTL 071620Z 27003KT CAVOK 01/M00 Q1025=
202002080750 METAR EDTL 080750Z VRB01KT CAVOK M00/M01 Q1025=
202002080820 METAR EDTL 080820Z 25005KT CAVOK M00/M01 Q1025=
202002080850 METAR EDTL 080850Z 21005KT CAVOK 00/M00 Q1025=
202002080920 METAR EDTL 080920Z 10003KT CAVOK 03/01 Q1025=
202002100620 METAR EDTL 100620Z 24020G30KT 9999 RA BKN039 11/08 Q1004=
202002100720 METAR EDTL 100720Z 25021KT 9999 FEW031 BKN044 11/06 Q1006=
202002100750 METAR EDTL 100750Z 25020KT 9999 FEW047 12/05 Q1007=
202002100820 METAR EDTL 100820Z 26028G46KT 9000 RA FEW028 SCT041 BKN057
202002100850 METAR EDTL 100850Z 25021G33KT CAVOK 10/03 Q1009=
202002100920 METAR EDTL 100920Z 24021KT 9000 -RA FEW016 SCT043 09/03 Q1010=
202002100950 METAR EDTL 100950Z 25022G39KT 210V280 CAVOK 09/03 Q1011=
202002101020 METAR EDTL 101020Z 26022KT CAVOK 10/03 Q1011=
202002101050 METAR EDTL 101050Z 26022KT CAVOK 11/03 Q1012=
202002101120 METAR EDTL 101120Z 26027G40KT CAVOK 11/02 Q1012=
202002101150 METAR EDTL 101150Z 25024G37KT CAVOK 12/01 Q1012=
202002101220 METAR EDTL 101220Z 25022KT 210V280 CAVOK 12/01 Q1012=
202002101320 METAR EDTL 101320Z 25025KT CAVOK 12/M01 Q1012=
202002101350 METAR EDTL 101350Z 25026G44KT CAVOK 12/M00 Q1012=
202002101420 METAR EDTL 101420Z 25021G38KT 9999 -SHRA SCT045CB 10/02 Q1012=
202002101450 METAR EDTL 101450Z 24015KT CAVOK 11/02 Q1011=
202002101520 METAR EDTL 101520Z 25017G28KT 9999 FEW036 SCT057TCU 11/01
202002101550 METAR EDTL 101550Z 25012KT 9999 FEW046 SCT130 10/02 Q1011=
202002101620 METAR EDTL 101620Z 22020KT 9999 NSC 11/00 Q1009=
202002101650 METAR EDTL 101650Z 22020KT CAVOK 11/M01 Q1009=
202002101720 METAR EDTL 101720Z 20015KT CAVOK 11/M00 Q1007=
202002101750 METAR EDTL 101750Z 20020KT 9999 FEW046 SCT064 BKN080 11/02
202002101820 METAR EDTL 101820Z 21023KT 9999 -SHRA FEW027 BKN049 OVC062
202002101850 METAR EDTL 101850Z 23021G35KT 9999 -SHRA FEW029 BKN053 12/03
202002101920 METAR EDTL 101920Z 23023G36KT 9999 FEW041 OVC053 12/03 Q1005=
202002101950 METAR EDTL 101950Z 25023G45KT 220V280 CAVOK 13/03 Q1005=
202002110050 METAR EDTL 110050Z 24017KT 9999 FEW041 SCT086 07/03 Q1008=
202002110120 METAR EDTL 110120Z 23015KT 9999 FEW022 BKN041 BKN057 07/03
202002110620 METAR EDTL 110620Z 24017KT 9999 FEW020 SCT033 BKN066 05/02
202002110650 METAR EDTL 110650Z 24018G30KT 9999 FEW066 SCT098 05/01 Q1013=
202002110720 METAR EDTL 110720Z 22012KT 9999 FEW047 SCT120 05/01 Q1014=
202002110750 METAR EDTL 110750Z 24018KT 9999 FEW046 BKN110 06/01 Q1014=
202002110820 METAR EDTL 110820Z 23011KT 9999 BKN047 OVC110 07/01 Q1014=
202002110850 METAR EDTL 110850Z 23014KT 9999 FEW033 BKN049 07/02 Q1014=
202002110920 METAR EDTL 110920Z 23018KT 9999 FEW023 SCT045 BKN076 05/02
202002110950 METAR EDTL 110950Z 23013KT 9999 BKN039 OVC051 06/03 Q1014=
202002111020 METAR EDTL 111020Z 24009KT 9999 FEW021 OVC032 06/02 Q1014=
202002111050 METAR EDTL 111050Z 26005KT 9999 OVC031 07/02 Q1014=
202002111120 METAR EDTL 111120Z 24012KT 9999 SCT031 SCT040 07/03 Q1014=
202002111150 METAR EDTL 111150Z 24014KT 9999 SCT030 08/02 Q1014=
202002111220 METAR EDTL 111220Z 23015KT 9999 SCT035 BKN045 09/02 Q1014=
202002111250 METAR EDTL 111250Z 24017KT 9999 FEW039 08/01 Q1013=
202002111320 METAR EDTL 111320Z 25017KT 9999 SCT045 SCT080 09/01 Q1013=
202002111350 METAR EDTL 111350Z 25014G24KT 9999 VCSH SCT039 BKN053 08/00
202002111420 METAR EDTL 111420Z 24015KT 9999 SCT047TCU SCT070 08/01 Q1014=
202002111450 METAR EDTL 111450Z 23017KT 9999 SCT042 07/02 Q1014=
202002111520 METAR EDTL 111520Z 22013KT 9999 FEW035 07/01 Q1014=
202002111550 METAR EDTL 111550Z 24017KT CAVOK 07/01 Q1015=
202002111620 METAR EDTL 111620Z 24017KT CAVOK 07/00 Q1015=
202002111650 METAR EDTL 111650Z 21009KT CAVOK 06/00 Q1015=
202002111720 METAR EDTL 111720Z 20009KT CAVOK 06/00 Q1015=
202002111750 METAR EDTL 111750Z 20009KT CAVOK 06/M00 Q1015=
202002111820 METAR EDTL 111820Z 20011KT 9999 FEW048 SCT082 BKN130 06/00
202002111850 METAR EDTL 111850Z 25017KT 9999 -RA FEW007 BKN034 05/02 Q1017=
202002120650 METAR EDTL 120650Z 19009KT 9999 BKN041 04/00 Q1020=
202002120720 METAR EDTL 120720Z 20011KT 9999 BKN042 04/01 Q1021=
202002120750 METAR EDTL 120750Z 21010KT 9999 -RA FEW017 BKN031 04/01 Q1021=
202002120820 METAR EDTL 120820Z 22012KT 9999 BKN034 04/01 Q1021=
202002120850 METAR EDTL 120850Z 19008KT 9999 BKN032 05/01 Q1021=
202002120920 METAR EDTL 120920Z 18011KT 9999 BKN031 05/01 Q1021=
202002120950 METAR EDTL 120950Z 19011KT 9999 BKN032 05/01 Q1021=
202002121020 METAR EDTL 121020Z 18011KT 9999 FEW022 BKN031 06/01 Q1021=
202002121050 METAR EDTL 121050Z 21009KT 9999 BKN037 06/01 Q1021=
202002121120 METAR EDTL 121120Z 24014KT 220V280 9999 SCT042 SCT086 07/M00
202002121150 METAR EDTL 121150Z 24020KT 9999 SCT046 SCT130 08/M00 Q1020=
202002121220 METAR EDTL 121220Z 25018KT 9999 SCT048 SCT100 08/M00 Q1020=
202002121250 METAR EDTL 121250Z 26018KT 9999 SCT047 07/01 Q1021=
202002121320 METAR EDTL 121320Z 25014KT 9999 SCT045 07/01 Q1020=
202002121350 METAR EDTL 121350Z 25019KT 9999 SCT041 08/01 Q1020=
202002121420 METAR EDTL 121420Z 25018KT 9999 FEW025 SCT045 08/00 Q1020=
202002121450 METAR EDTL 121450Z 26018KT 9999 SCT041 08/01 Q1020=
202002121520 METAR EDTL 121520Z 25019KT 9999 FEW045 08/00 Q1020=
202002121550 METAR EDTL 121550Z 24012KT CAVOK 07/01 Q1020=
202002121620 METAR EDTL 121620Z 24013KT CAVOK 07/01 Q1020=
202002121650 METAR EDTL 121650Z 22012KT 9999 BKN038 07/01 Q1020=
202002121720 METAR EDTL 121720Z 22012KT 9999 BKN039 07/01 Q1021=
202002121750 METAR EDTL 121750Z 21010KT 9999 BKN045 07/01 Q1021=
202002121820 METAR EDTL 121820Z 25007KT 9999 FEW004 BKN036 06/02 Q1022=
202002121850 METAR EDTL 121850Z 21009KT 9999 BKN043 06/01 Q1022=
202002130650 METAR EDTL 130650Z 20004KT CAVOK 01/M00 Q1015=
202002130720 METAR EDTL 130720Z 16006KT CAVOK 02/M00 Q1015=
202002130750 METAR EDTL 130750Z 17006KT CAVOK 03/M00 Q1014=
202002130820 METAR EDTL 130820Z 17005KT CAVOK 03/00 Q1013=
202002130850 METAR EDTL 130850Z 17004KT 140V210 CAVOK 04/00 Q1013=
202002130920 METAR EDTL 130920Z 21004KT 160V230 CAVOK 04/01 Q1012=
202002130950 METAR EDTL 130950Z 18004KT CAVOK 06/M01 Q1011=
202002131020 METAR EDTL 131020Z 19013KT CAVOK 08/M03 Q1010=
202002131050 METAR EDTL 131050Z 20016KT CAVOK 09/M03 Q1009=
202002131120 METAR EDTL 131120Z 20011KT CAVOK 09/M03 Q1009=
202002131150 METAR EDTL 131150Z 20009KT CAVOK 10/M02 Q1007=
202002131250 METAR EDTL 131250Z 20020KT 9999 VCSH SCT044TCU 10/01 Q1006=
202002131320 METAR EDTL 131320Z 19017KT 9999 BKN047 09/02 Q1006=
202002131350 METAR EDTL 131350Z 19016KT 9999 -RA OVC043 09/04 Q1005=
202002131420 METAR EDTL 131420Z 18013KT 9999 BKN049 09/04 Q1004=
202002131450 METAR EDTL 131450Z 19015KT 9999 BKN044 10/04 Q1003=
202002131520 METAR EDTL 131520Z 20017KT 9999 -RA FEW024 OVC053 11/06 Q1003=
202002131550 METAR EDTL 131550Z 24022KT 9999 TSRA FEW003 BKN044CB 09/05
202002131650 METAR EDTL 131650Z 21013KT 9999 SCT048TCU BKN086 07/04 Q1005=
202002131720 METAR EDTL 131720Z 18010KT CAVOK 07/04 Q1006=
202002131750 METAR EDTL 131750Z 17012KT 9999 SCT049 07/04 Q1006=
202002131820 METAR EDTL 131820Z 18017KT 9999 BKN049 07/04 Q1006=
202002131850 METAR EDTL 131850Z 18017KT 9999 OVC044 07/04 Q1006=
202002140650 METAR EDTL 140650Z 20008KT 9999 BKN041 07/03 Q1020=
202002140720 METAR EDTL 140720Z 21010KT 9999 SCT045 BKN053 07/03 Q1021=
202002140750 METAR EDTL 140750Z 21010KT 9999 SCT030 BKN055 07/03 Q1021=
202002140820 METAR EDTL 140820Z 21009KT 9999 FEW040 BKN057 07/03 Q1022=
202002140850 METAR EDTL 140850Z 20007KT 9999 FEW035 BKN059 07/04 Q1022=
202002140920 METAR EDTL 140920Z 20010KT CAVOK 08/03 Q1023=
202002140950 METAR EDTL 140950Z 20010KT 9999 FEW042 OVC055 08/04 Q1024=
202002141020 METAR EDTL 141020Z 21012KT 9999 -SHRA SCT020 BKN036 08/05
202002141050 METAR EDTL 141050Z 20006KT 9999 FEW008 SCT062 08/04 Q1024=
202002141120 METAR EDTL 141120Z 23013KT 9999 SCT043 SCT055 09/04 Q1025=
202002141150 METAR EDTL 141150Z 23009KT CAVOK 10/04 Q1025=
202002141220 METAR EDTL 141220Z 23010KT 190V260 9999 FEW030 10/04 Q1024=
202002141250 METAR EDTL 141250Z 23010KT 9999 FEW031 11/04 Q1024=
202002141320 METAR EDTL 141320Z 24009KT 9999 SCT034 11/04 Q1024=
202002141350 METAR EDTL 141350Z 23009KT 9999 BKN036 10/03 Q1024=
202002141420 METAR EDTL 141420Z 23007KT 9999 BKN037 11/04 Q1024=
202002141450 METAR EDTL 141450Z 22007KT 9999 BKN035 10/04 Q1025=
202002141520 METAR EDTL 141520Z 23006KT 9999 BKN037 10/04 Q1025=
202002141550 METAR EDTL 141550Z 24006KT 9999 SCT037 10/04 Q1025=
202002141620 METAR EDTL 141620Z 22005KT CAVOK 10/04 Q1025=
202002141650 METAR EDTL 141650Z 22006KT 9999 SCT045 09/04 Q1025=
202002141720 METAR EDTL 141720Z 22006KT CAVOK 09/04 Q1026=
202002141750 METAR EDTL 141750Z 23006KT CAVOK 09/04 Q1026=
202002141820 METAR EDTL 141820Z 20004KT CAVOK 09/04 Q1026=
202002141850 METAR EDTL 141850Z 18004KT CAVOK 09/04 Q1026=
202002150250 METAR EDTL 150250Z 19004KT CAVOK 03/02 Q1025=
202002150320 METAR EDTL 150320Z 15003KT CAVOK 04/02 Q1025=
202002150350 METAR EDTL 150350Z 14004KT CAVOK 04/02 Q1025=
202002170020 METAR EDTL 170020Z 19014KT CAVOK 16/04 Q1015=
202002170050 METAR EDTL 170050Z 18014KT CAVOK 15/05 Q1015=
202002170120 METAR EDTL 170120Z 18013KT CAVOK 16/05 Q1015=
202002170150 METAR EDTL 170150Z 20011KT CAVOK 15/05 Q1016=
202002170720 METAR EDTL 170720Z 16005KT 8000 -RA FEW003 BKN037 11/08 Q1018=
202002170750 METAR EDTL 170750Z 14006KT 7000 -RA BKN040 OVC051 10/09 Q1018=
202002170820 METAR EDTL 170820Z VRB02KT 9000 RA SCT003 OVC035 10/09 Q1018=
202002170850 METAR EDTL 170850Z VRB02KT 6000 RA SCT003 OVC037 10/09 Q1018=
202002170920 METAR EDTL 170920Z 18003KT 140V250 9999 RA FEW003 OVC040
202002170950 METAR EDTL 170950Z 18005KT 9999 RA FEW010 OVC043 10/09 Q1019=
202002171020 METAR EDTL 171020Z 18006KT 9999 FEW020 BKN047 10/09 Q1019
202002171050 METAR EDTL 171050Z 21006KT 9999 -RA OVC045 10/08 Q1019=
202002171120 METAR EDTL 171120Z 18006KT 9999 -RA BKN047 10/08 Q1019=
202002171150 METAR EDTL 171150Z 19007KT 7000 BKN035 10/09 Q1019=
202002171220 METAR EDTL 171220Z 16007KT 7000 -RA BKN035 10/08 Q1019=
202002171250 METAR EDTL 171250Z 19005KT 150V220 9999 -RA OVC041 10/08
202002171320 METAR EDTL 171320Z 18007KT 9999 -RA FEW025 BKN036 10/09 Q1019=
202002171350 METAR EDTL 171350Z 20014KT 9999 -RA SCT010 BKN020 10/09 Q1019=
202002171420 METAR EDTL 171420Z 21013KT 9999 -RA BKN032 10/08 Q1019=
202002171450 METAR EDTL 171450Z 21009KT 9999 -DZ FEW014 BKN023 10/08 Q1020=
202002171520 METAR EDTL 171520Z 20013KT 7000 -RA FEW018 BKN030 10/07 Q1020=
202002171550 METAR EDTL 171550Z 20009KT 9999 -RA FEW012 BKN033 10/07 Q1020=
202002171620 METAR EDTL 171620Z 23008KT 9999 -RA SCT017 BKN035 09/07 Q1020=
202002171650 METAR EDTL 171650Z 20010KT 9999 -RA FEW015 BKN030 09/08 Q1021=
202002171720 METAR EDTL 171720Z 21012KT 9999 BKN029 09/06 Q1021=
202002171750 METAR EDTL 171750Z 20012KT 9999 SCT035 09/07 Q1022=
202002171820 METAR EDTL 171820Z 20011KT 9999 FEW034 BKN049 09/06 Q1022=
202002171850 METAR EDTL 171850Z 19011KT 9999 FEW045 09/06 Q1022=
202002180520 METAR EDTL 180520Z 20008KT 9999 SCT039 05/03 Q1028=
202002180550 METAR EDTL 180550Z 20009KT 9999 SCT035 06/03 Q1028=
202002180620 METAR EDTL 180620Z 21010KT 9999 BKN041 06/03 Q1028=
202002180650 METAR EDTL 180650Z 20012KT 9999 VCSH BKN049TCU 06/03 Q1028=
202002180720 METAR EDTL 180720Z 19013KT 9999 VCSH BKN049TCU 06/03 Q1029=
202002180750 METAR EDTL 180750Z 21011KT 9999 VCSH SCT055TCU 07/03 Q1029=
202002180820 METAR EDTL 180820Z 20012KT 9999 VCSH SCT057TCU 07/03 Q1029=
202002180850 METAR EDTL 180850Z 22010KT 9999 VCSH SCT048TCU 08/03 Q1029=
202002180920 METAR EDTL 180920Z 23012KT 9999 SCT049 08/03 Q1030=
202002180950 METAR EDTL 180950Z 23008KT 9999 FEW032 08/03 Q1030=
202002181020 METAR EDTL 181020Z 25008KT 9999 SCT037 SCT049 09/02 Q1029=
202002181050 METAR EDTL 181050Z 23008KT 9999 BKN029 08/02 Q1029=
202002181120 METAR EDTL 181120Z 25009KT 220V280 9999 BKN033 08/02 Q1029=
202002181150 METAR EDTL 181150Z 26012KT 9999 SCT048 09/01 Q1029=
202002181220 METAR EDTL 181220Z 24010KT 210V280 9999 SCT049 09/00 Q1029=
202002181250 METAR EDTL 181250Z 26009KT 9999 BKN046 09/00 Q1029=
202002181320 METAR EDTL 181320Z 24010KT 9999 SCT045 09/01 Q1028=
202002181350 METAR EDTL 181350Z 23010KT 9999 BKN045 10/00 Q1028=
202002181420 METAR EDTL 181420Z 24010KT 9999 BKN048 09/01 Q1028=
202002181450 METAR EDTL 181450Z 25008KT CAVOK 09/M01 Q1027=
202002181520 METAR EDTL 181520Z 25012KT CAVOK 09/M01 Q1027=
202002181550 METAR EDTL 181550Z 23007KT CAVOK 09/M00 Q1027=
202002181620 METAR EDTL 181620Z 23010KT CAVOK 09/M01 Q1027=
202002181650 METAR EDTL 181650Z 21008KT CAVOK 08/M00 Q1027=
202002181720 METAR EDTL 181720Z 21008KT CAVOK 08/M00 Q1027=
202002181750 METAR EDTL 181750Z 21008KT CAVOK 08/00 Q1027=
202002181820 METAR EDTL 181820Z 20008KT CAVOK 08/01 Q1027=
202002181850 METAR EDTL 181850Z 20008KT CAVOK 07/01 Q1027=
202002190650 METAR EDTL 190650Z 23015KT 200V270 7000 RA FEW004 SCT016
202002190720 METAR EDTL 190720Z 21007KT 9999 FEW003 BKN033 05/03 Q1021
202002190750 METAR EDTL 190750Z 23010KT 9999 SCT027 SCT037 06/04 Q1021=
202002190820 METAR EDTL 190820Z 24009KT 9999 BKN020 06/04 Q1022=
202002190850 METAR EDTL 190850Z 23007KT 9999 BKN039 07/04 Q1022=
202002190920 METAR EDTL 190920Z 26013KT 9999 BKN037 07/01 Q1023=
202002191020 METAR EDTL 191020Z 33018KT 9999 VCSH FEW025 SCT039TCU 07/01
202002191050 METAR EDTL 191050Z 29006KT 260V330 9999 VCSH SCT027TCU SCT043
202002191120 METAR EDTL 191120Z 25013KT 9999 VCSH FEW010 BKN038TCU 06/02
202002191150 METAR EDTL 191150Z 26009KT 210V290 9999 FEW020 SCT037TCU
202002191220 METAR EDTL 191220Z 29009KT 270V350 9999 FEW026 SCT033 07/02
202002191250 METAR EDTL 191250Z 23011KT 9999 SCT038 07/02 Q1024=
202002191320 METAR EDTL 191320Z 24013KT 9999 BKN038 08/01 Q1025=
202002191350 METAR EDTL 191350Z 25006KT 210V300 9999 FEW035 SCT049 08/02
202002191420 METAR EDTL 191420Z 25003KT 200V300 9999 SCT039 BKN053 09/00
202002191450 METAR EDTL 191450Z 27005KT 200V010 CAVOK 09/00 Q1025=
202002191520 METAR EDTL 191520Z 24013KT CAVOK 08/M01 Q1025=
202002191550 METAR EDTL 191550Z 26010KT CAVOK 08/M01 Q1025=
202002191620 METAR EDTL 191620Z 24008KT CAVOK 08/M01 Q1025=
202002191650 METAR EDTL 191650Z 24007KT CAVOK 07/M01 Q1026=
202002191720 METAR EDTL 191720Z 24008KT CAVOK 07/M01 Q1026=
202002191750 METAR EDTL 191750Z 23007KT CAVOK 05/M01 Q1026=
202002191820 METAR EDTL 191820Z 21007KT CAVOK 05/M01 Q1026=
202002191850 METAR EDTL 191850Z 20005KT CAVOK 06/M01 Q1026=
202002200450 METAR EDTL 200450Z 19009KT 9999 BKN039 06/02 Q1023=
202002200520 METAR EDTL 200520Z 19009KT 9999 BKN038 07/02 Q1023=
202002200650 METAR EDTL 200650Z 20008KT 9999 BKN030 07/02 Q1023=
202002200720 METAR EDTL 200720Z 19008KT CAVOK 06/03 Q1023=
202002200750 METAR EDTL 200750Z 20009KT CAVOK 06/03 Q1023=
202002200820 METAR EDTL 200820Z 19009KT CAVOK 08/03 Q1023=
202002200850 METAR EDTL 200850Z 20010KT CAVOK 08/03 Q1023=
202002200920 METAR EDTL 200920Z 19010KT CAVOK 09/05 Q1023=
202002200950 METAR EDTL 200950Z 19011KT 160V220 CAVOK 09/03 Q1023=
202002201020 METAR EDTL 201020Z 19011KT CAVOK 10/04 Q1023=
202002201050 METAR EDTL 201050Z 19011KT CAVOK 11/05 Q1022=
202002201120 METAR EDTL 201120Z 19011KT 9999 FEW035 SCT048 11/04 Q1022=
202002201150 METAR EDTL 201150Z 21011KT 170V240 9999 FEW036 SCT047 11/03
202002201220 METAR EDTL 201220Z 22010KT 9999 BKN042 11/03 Q1021=
202002201250 METAR EDTL 201250Z 22011KT 9999 BKN037 12/03 Q1021=
202002201320 METAR EDTL 201320Z 21010KT 170V250 9999 BKN045 12/04 Q1020=
202002201350 METAR EDTL 201350Z 21008KT 9999 FEW047 12/04 Q1020=
202002201420 METAR EDTL 201420Z 21008KT 9999 SCT045 12/04 Q1020=
202002201450 METAR EDTL 201450Z 21009KT 9999 FEW047 12/04 Q1019=
202002201520 METAR EDTL 201520Z 27006KT 9999 FEW044 13/04 Q1019=
202002201550 METAR EDTL 201550Z 25007KT 9999 BKN047 12/03 Q1019=
202002201620 METAR EDTL 201620Z 28005KT 9999 FEW047 11/03 Q1019=
202002201650 METAR EDTL 201650Z 30004KT CAVOK 10/03 Q1019=
202002201720 METAR EDTL 201720Z 29003KT CAVOK 09/03 Q1018=
202002201750 METAR EDTL 201750Z 13003KT CAVOK 10/03 Q1018=
202002201820 METAR EDTL 201820Z 14003KT CAVOK 08/04 Q1018=
202002201850 METAR EDTL 201850Z 15003KT CAVOK 07/03 Q1019=
202002210650 METAR EDTL 210650Z 23007KT CAVOK 03/M01 Q1030=
202002210720 METAR EDTL 210720Z 20007KT CAVOK 03/M01 Q1031=
202002210750 METAR EDTL 210750Z 18006KT CAVOK 04/M01 Q1031=
202002210820 METAR EDTL 210820Z 18009KT CAVOK 04/M00 Q1032=
202002210850 METAR EDTL 210850Z 19008KT CAVOK 05/M00 Q1032=
202002210920 METAR EDTL 210920Z 19009KT CAVOK 06/00 Q1032=
202002210950 METAR EDTL 210950Z 18010KT CAVOK 07/00 Q1032=
202002211020 METAR EDTL 211020Z 20010KT CAVOK 07/M01 Q1032=
202002211050 METAR EDTL 211050Z 21010KT 170V240 CAVOK 08/M01 Q1032=
202002211120 METAR EDTL 211120Z 20011KT 170V230 CAVOK 08/M01 Q1032=
202002211150 METAR EDTL 211150Z 19009KT 160V220 CAVOK 09/M01 Q1031=
202002211220 METAR EDTL 211220Z 26007KT CAVOK 08/M02 Q1031=
202002211250 METAR EDTL 211250Z 25007KT 200V270 CAVOK 09/M02 Q1031=
202002211320 METAR EDTL 211320Z 23006KT 200V260 CAVOK 10/M02 Q1031=
202002211350 METAR EDTL 211350Z 23005KT 190V270 CAVOK 09/M03 Q1030=
202002211420 METAR EDTL 211420Z 22005KT 190V280 CAVOK 09/M02 Q1030=
202002211450 METAR EDTL 211450Z 22008KT CAVOK 10/M03 Q1030=
202002211520 METAR EDTL 211520Z 22007KT CAVOK 10/M03 Q1030=
202002211550 METAR EDTL 211550Z 23004KT CAVOK 09/M03 Q1030=
202002211620 METAR EDTL 211620Z 22006KT CAVOK 09/M02 Q1030=
202002211650 METAR EDTL 211650Z 22005KT CAVOK 08/M02 Q1030=
202002211720 METAR EDTL 211720Z 19003KT CAVOK 08/M01 Q1030=
202002211750 METAR EDTL 211750Z 16004KT CAVOK 08/M01 Q1030=
202002211820 METAR EDTL 211820Z 15004KT CAVOK 07/M01 Q1030=
202002211850 METAR EDTL 211850Z 23006KT CAVOK 06/M01 Q1030=
202002220820 METAR EDTL 220820Z 24006KT CAVOK 04/M01 Q1030=
202002220850 METAR EDTL 220850Z 19005KT CAVOK 06/M00 Q1030=
202002220950 METAR EDTL 220950Z 21006KT 170V250 CAVOK 08/01 Q1030=
202002221450 METAR EDTL 221450Z 19011KT CAVOK 13/M04 Q1027=
202002221520 METAR EDTL 221520Z 19011KT CAVOK 13/M05 Q1026=
202002221550 METAR EDTL 221550Z 19010KT CAVOK 13/M03 Q1027=
202002221620 METAR EDTL 221620Z 20007KT CAVOK 13/M04 Q1027=
202002221650 METAR EDTL 221650Z 20010KT CAVOK 13/M04 Q1027=
202002221720 METAR EDTL 221720Z 19013KT CAVOK 13/M04 Q1027=
202002221750 METAR EDTL 221750Z 19010KT CAVOK 12/M03 Q1027=
202002221820 METAR EDTL 221820Z 20008KT CAVOK 12/M03 Q1028=
202002230750 METAR EDTL 230750Z 20010KT 9999 OVC030 10/04 Q1025=
202002230820 METAR EDTL 230820Z 19010KT 9999 OVC031 10/04 Q1025=
202002230850 METAR EDTL 230850Z 19014KT 9999 OVC033 11/04 Q1025=
202002230920 METAR EDTL 230920Z 19016KT 9999 OVC035 11/03 Q1024=
202002230950 METAR EDTL 230950Z 20020KT 9999 OVC037 12/03 Q1024=
202002231020 METAR EDTL 231020Z 20019KT 9999 OVC037 12/03 Q1024=
202002231050 METAR EDTL 231050Z 20017KT 9999 OVC037 12/03 Q1024=
202002231120 METAR EDTL 231120Z 19019KT 9999 OVC037 13/03 Q1024=
202002240650 METAR EDTL 240650Z 36004KT 3100 -DZ OVC003 07/07 Q1025=
202002240720 METAR EDTL 240720Z 02004KT 3500 BR OVC002 07/07 Q1024=
202002240750 METAR EDTL 240750Z 01006KT 9999 BR OVC003 07/07 Q1024=
202002240820 METAR EDTL 240820Z 01004KT 4500 BR BKN003 OVC005 07/07 Q1024=
202002240850 METAR EDTL 240850Z VRB01KT 9999 OVC003 08/07 Q1023=
202002240920 METAR EDTL 240920Z VRB02KT 9999 OVC004 08/07 Q1023=
202002240950 METAR EDTL 240950Z 24003KT 210V290 9999 BKN004 09/08 Q1022=
202002241020 METAR EDTL 241020Z VRB03KT 9999 SCT005 BKN070 11/09 Q1022=
202002241050 METAR EDTL 241050Z 22005KT 160V260 9999 SCT006 12/10 Q1021=
202002241120 METAR EDTL 241120Z 20014KT 9999 SCT021 14/10 Q1021=
202002241150 METAR EDTL 241150Z 19016KT 9999 SCT023 14/09 Q1020=
202002241220 METAR EDTL 241220Z 18013KT 9999 SCT025 15/09 Q1019=
202002241250 METAR EDTL 241250Z 19015KT 160V220 9999 SCT028 BKN038 15/10
202002241320 METAR EDTL 241320Z 20017KT 9999 SCT042 BKN053 14/09 Q1018=
202002241350 METAR EDTL 241350Z 19016KT 9999 SCT046 15/09 Q1017=
202002241420 METAR EDTL 241420Z 19016KT 9999 OVC047 15/09 Q1017=
202002241450 METAR EDTL 241450Z 19017KT CAVOK 15/09 Q1016=
202002241520 METAR EDTL 241520Z 19015KT CAVOK 15/08 Q1016=
202002241550 METAR EDTL 241550Z 20014KT CAVOK 15/08 Q1015=
202002241620 METAR EDTL 241620Z 19015KT CAVOK 15/08 Q1014=
202002241650 METAR EDTL 241650Z 20015KT CAVOK 15/08 Q1014=
202002241720 METAR EDTL 241720Z 20015KT CAVOK 14/08 Q1014=
202002241750 METAR EDTL 241750Z 19012KT CAVOK 14/07 Q1013=
202002241820 METAR EDTL 241820Z 20012KT CAVOK 14/07 Q1013=
202002241850 METAR EDTL 241850Z 20015KT CAVOK 14/07 Q1013=
202002250650 METAR EDTL 250650Z 19012KT 9999 SCT032 OVC049 08/05 Q1008=
202002250720 METAR EDTL 250720Z 19015KT 9999 -RA OVC032 08/05 Q1008=
202002250750 METAR EDTL 250750Z 19014KT 9999 BKN033 OVC062 08/05 Q1008=
202002250820 METAR EDTL 250820Z 19013KT 9999 -RA BKN030 OVC047 08/05 Q1008=
202002250850 METAR EDTL 250850Z 20013KT 9999 -RA BKN035 OVC055 08/05 Q1008=
202002250920 METAR EDTL 250920Z 19011KT 9999 FEW010 BKN035 08/05 Q1008=
202002250950 METAR EDTL 250950Z 19012KT 9999 -RA FEW015 BKN033 08/05 Q1007=
202002251020 METAR EDTL 251020Z 19014KT 9999 FEW015 OVC035 08/05 Q1007=
202002251050 METAR EDTL 251050Z 20015KT 9999 -RA BKN036 09/05 Q1007=
202002251120 METAR EDTL 251120Z 20014KT 160V220 9999 -RA BKN038 OVC055
202002251150 METAR EDTL 251150Z 20015KT 9999 -RA OVC035 09/06 Q1006=
202002251220 METAR EDTL 251220Z 20016KT 9999 BKN033 OVC038 09/06 Q1006=
202002251250 METAR EDTL 251250Z 20015KT 9999 OVC031 10/05 Q1005=
202002251320 METAR EDTL 251320Z 20014KT 9999 BKN032 OVC046 11/06 Q1005=
202002251350 METAR EDTL 251350Z 20017KT 9999 OVC036 11/06 Q1004=
202002251420 METAR EDTL 251420Z 20016KT 9999 FEW007 OVC031 11/06 Q1004=
202002251450 METAR EDTL 251450Z 21016KT 9999 OVC036 11/06 Q1004=
202002251520 METAR EDTL 251520Z 20015KT 9999 FEW004 BKN033 OVC047 10/07
202002251550 METAR EDTL 251550Z 20014KT 9999 SHRA OVC043 10/07 Q1003=
202002251620 METAR EDTL 251620Z 21012KT 9999 SHRA FEW004 SCT023 BKN032
202002251650 METAR EDTL 251650Z 24013KT 9999 FEW002 BKN040 OVC049 08/06
202002251720 METAR EDTL 251720Z 26012KT 9999 FEW029 SCT046 OVC057 08/05
202002251750 METAR EDTL 251750Z 24016KT CAVOK 08/01 Q1004=
202002251820 METAR EDTL 251820Z 24015KT CAVOK 08/01 Q1004=
202002251850 METAR EDTL 251850Z 23013KT CAVOK 08/01 Q1003=
202002260650 METAR EDTL 260650Z 19010KT 9999 BKN042 OVC055 04/M01 Q1001=
202002260720 METAR EDTL 260720Z 20011KT 9999 -RA FEW006 SCT024 OVC038
202002260750 METAR EDTL 260750Z 21012KT 9999 -RA FEW006 BKN024 BKN032
202002260820 METAR EDTL 260820Z 24011KT 2900 -RA SCT005 BKN018 BKN026
202002260850 METAR EDTL 260850Z 21006KT 9999 -RA FEW012 SCT026 BKN038
202002260920 METAR EDTL 260920Z 21013KT 9999 -RA FEW008 OVC033 03/01 Q1002=
202002260950 METAR EDTL 260950Z 26007KT 9999 FEW003 SCT009 BKN084 03/01
202002261020 METAR EDTL 261020Z 23009KT 9999 VCSH FEW009 BKN034 BKN055
202002261050 METAR EDTL 261050Z 20007KT 9999 FEW006 BKN039 OVC057 03/01
202002261120 METAR EDTL 261120Z 21007KT 190V250 9999 BKN043 OVC055 04/01
202002261220 METAR EDTL 261220Z 25015KT 9999 VCSH FEW031 BKN042 04/00
202002261250 METAR EDTL 261250Z 24013KT 9999 VCSH FEW020 BKN045 05/02
202002261320 METAR EDTL 261320Z 22008KT 9999 FEW024 BKN044 05/M00 Q1005=
202002261350 METAR EDTL 261350Z 21010KT 9999 VCSH FEW024 BKN035TCU 04/01
202002261420 METAR EDTL 261420Z 20010KT 9999 VCSH SCT026TCU BKN042 04/01
202002261450 METAR EDTL 261450Z 27004KT 180V310 9999 FEW010 SCT042 BKN055
202002261520 METAR EDTL 261520Z 21008KT 9999 FEW038 BKN039 05/M00 Q1007=
202002261550 METAR EDTL 261550Z 25011KT 230V290 9999 FEW025 BKN034 05/M01
202002261620 METAR EDTL 261620Z 22011KT 9999 FEW022 BKN076 05/M00 Q1008=
202002261650 METAR EDTL 261650Z 23010KT 9999 VCSH FEW038 BKN061 05/M01
202002261720 METAR EDTL 261720Z 23006KT 190V270 9999 VCSH FEW009 BKN031TCU
202002261750 METAR EDTL 261750Z 27012KT 7000 SHRA SCT003 BKN021 01/00
202002261850 METAR EDTL 261850Z 19008KT 9999 BKN044 03/01 Q1010=
202002270620 METAR EDTL 270620Z 18012KT CAVOK 03/01 Q1009=
202002270650 METAR EDTL 270650Z 18011KT CAVOK 03/00 Q1009=
202002270720 METAR EDTL 270720Z 19010KT CAVOK 03/00 Q1008=
202002270750 METAR EDTL 270750Z 19011KT CAVOK 04/00 Q1007=
202002270820 METAR EDTL 270820Z 19014KT CAVOK 05/00 Q1007=
202002270850 METAR EDTL 270850Z 19014KT CAVOK 05/M00 Q1006=
202002270920 METAR EDTL 270920Z 18012KT CAVOK 05/M01 Q1005=
202002270950 METAR EDTL 270950Z 18012KT CAVOK 06/M01 Q1004=
202002271020 METAR EDTL 271020Z 18009KT 9999 BKN032 06/M02 Q1003=
202002271050 METAR EDTL 271050Z 18009G23KT 120V250 9999 SCT022 OVC033
202002271120 METAR EDTL 271120Z 19018G34KT 150V230 9999 -SHRA FEW007 SCT021
202002271150 METAR EDTL 271150Z 19017KT 160V220 6000 RA SCT008 BKN016
202002271220 METAR EDTL 271220Z 17009KT 6000 RA SCT008 OVC016 02/01 Q0998=
202002271250 METAR EDTL 271250Z 16007KT 9999 SCT006 BKN017 OVC023 02/01
202002271320 METAR EDTL 271320Z 17011KT 7000 -RA SCT004 SCT013 OVC031
202002271350 METAR EDTL 271350Z 18013KT 6000 -RA SCT004 SCT013 BKN024
202002271420 METAR EDTL 271420Z 19019KT 9999 -RA SCT004 BKN011 05/03 Q0993=
202002271450 METAR EDTL 271450Z 19021KT 9999 FEW005 OVC035 06/03 Q0992=
202002271520 METAR EDTL 271520Z 19022KT 9999 FEW018 OVC032 07/04 Q0991=
202002271550 METAR EDTL 271550Z 19022G32KT 9999 FEW015 OVC034 07/05 Q0991=
202002271620 METAR EDTL 271620Z 20019KT 9999 -RA FEW021 OVC032 08/05 Q0991=
202002271650 METAR EDTL 271650Z 21020G31KT 170V240 9999 RA SCT004 OVC034
202002271720 METAR EDTL 271720Z 27028G40KT 9999 -RA BKN029 OVC041 06/02
202002271820 METAR EDTL 271820Z 27021G33KT 9999 OVC033 06/M00 Q1000=
202002271850 METAR EDTL 271850Z 27018KT 9999 OVC033 05/M00 Q1002=
202002280550 METAR EDTL 280550Z 22008KT 9999 FEW048 OVC064 03/M01 Q1020=
202002280620 METAR EDTL 280620Z 22008KT CAVOK 02/M01 Q1021=
202002280650 METAR EDTL 280650Z 21007KT 170V240 CAVOK 02/M01 Q1021=
202002280720 METAR EDTL 280720Z 21007KT CAVOK 02/M01 Q1021=
202002280750 METAR EDTL 280750Z 18007KT CAVOK 03/M00 Q1022=
202002280820 METAR EDTL 280820Z 18009KT CAVOK 04/M00 Q1022=
202002280850 METAR EDTL 280850Z 20009KT CAVOK 05/00 Q1022=
202002280920 METAR EDTL 280920Z 20011KT CAVOK 05/M00 Q1022=
202002280950 METAR EDTL 280950Z 19010KT CAVOK 06/00 Q1022=
202002281020 METAR EDTL 281020Z 18012KT CAVOK 07/M00 Q1022=
202002281120 METAR EDTL 281120Z 20012KT 9999 SCT037 07/M00 Q1021=
202002281150 METAR EDTL 281150Z 20012KT 9999 FEW037 07/M02 Q1021=
202002281220 METAR EDTL 281220Z 20012KT 9999 FEW044 08/M02 Q1020=
202002281320 METAR EDTL 281320Z 21009KT 170V250 CAVOK 09/M02 Q1019=
202002281350 METAR EDTL 281350Z 19009KT 160V240 CAVOK 09/M02 Q1018=
202002281420 METAR EDTL 281420Z 20010KT CAVOK 09/M02 Q1018=
202002281450 METAR EDTL 281450Z 20010KT CAVOK 09/M03 Q1017=
202002281520 METAR EDTL 281520Z 20010KT CAVOK 09/M03 Q1017=
202002281550 METAR EDTL 281550Z 19011KT CAVOK 09/M05 Q1017=
202002281620 METAR EDTL 281620Z 20008KT CAVOK 09/M05 Q1016=
202002281650 METAR EDTL 281650Z 17007KT CAVOK 09/M04 Q1016=
202002281720 METAR EDTL 281720Z 16005KT CAVOK 09/M04 Q1016=
202002281750 METAR EDTL 281750Z 15006KT CAVOK 09/M05 Q1015=
202002281820 METAR EDTL 281820Z 15007KT CAVOK 08/M04 Q1015=
202002281850 METAR EDTL 281850Z 14008KT CAVOK 08/M04 Q1014=
202002281920 METAR EDTL 281920Z 14007KT CAVOK 09/M05 Q1014=
202002291120 METAR EDTL 291120Z 20018KT CAVOK 15/04 Q0998=
202002291150 METAR EDTL 291150Z 20016G27KT 150V220 CAVOK 16/04 Q0998=
202002291220 METAR EDTL 291220Z 20015KT CAVOK 16/04 Q0997=
202002291850 METAR EDTL 291850Z VRB03KT 9999 BKN037 OVC053 09/05 Q1002=
202002291920 METAR EDTL 291920Z 24021G31KT 9999 SHRA FEW003 SCT035 OVC047
202002291950 METAR EDTL 291950Z 23013KT 9999 -RA FEW016 OVC053 08/04 Q1003
202003020650 METAR EDTL 020650Z 28002KT CAVOK 04/01 Q0994=
202003020720 METAR EDTL 020720Z 32001KT CAVOK 04/01 Q0993=
202003020750 METAR EDTL 020750Z VRB01KT CAVOK 05/02 Q0993=
202003020820 METAR EDTL 020820Z VRB01KT CAVOK 05/02 Q0993=
202003020850 METAR EDTL 020850Z 28002KT CAVOK 05/02 Q0992=
202003020920 METAR EDTL 020920Z 32003KT CAVOK 06/03 Q0992=
202003020950 METAR EDTL 020950Z VRB02KT CAVOK 06/03 Q0991=
202003021020 METAR EDTL 021020Z VRB02KT 9999 -DZ BKN032 OVC051 06/04 Q0991=
202003021050 METAR EDTL 021050Z 36005KT 9999 -DZ FEW027 BKN044 OVC057
202003021120 METAR EDTL 021120Z 31006KT 9999 -RA BKN045 06/04 Q0990=
202003021150 METAR EDTL 021150Z 35006KT 9999 -RA FEW011 BKN045 06/05 Q0989=
202003021220 METAR EDTL 021220Z 36010KT 9999 FEW018 BKN042 06/05 Q0988=
202003021250 METAR EDTL 021250Z VRB06KT 9999 FEW015 SCT037 BKN051 06/05
202003021320 METAR EDTL 021320Z VRB02KT 9999 FEW012 SCT043 BKN057 06/05
202003021350 METAR EDTL 021350Z 36004KT 9000 BKN035 06/05 Q0988=
202003021420 METAR EDTL 021420Z 02003KT 9999 BKN032 BKN049 06/06 Q0988=
202003021450 METAR EDTL 021450Z 36006KT 9999 FEW034 BKN053 07/06 Q0988=
202003021520 METAR EDTL 021520Z 35005KT 9999 FEW030 BKN051 07/06 Q0988=
202003021550 METAR EDTL 021550Z 34005KT 9999 FEW041 OVC053 07/06 Q0988=
202003021620 METAR EDTL 021620Z 32004KT 9999 -RA BKN031 07/06 Q0989=
202003021650 METAR EDTL 021650Z 33003KT 9999 BKN037 07/06 Q0989=
202003021720 METAR EDTL 021720Z 28002KT 9999 SCT005 BKN019 BKN033 06/06
202003021750 METAR EDTL 021750Z 29004KT 260V320 9999 SCT005 BKN016 OVC024
202003021820 METAR EDTL 021820Z 26003KT 9999 -RA FEW006 SCT014 BKN041
202003021850 METAR EDTL 021850Z 25003KT 9999 -RA FEW017 BKN026 06/05 Q0992=
202003020650 METAR EDTL 020650Z 28002KT CAVOK 04/01 Q0994=
202003020720 METAR EDTL 020720Z 32001KT CAVOK 04/01 Q0993=
202003020750 METAR EDTL 020750Z VRB01KT CAVOK 05/02 Q0993=
202003020820 METAR EDTL 020820Z VRB01KT CAVOK 05/02 Q0993=
202003020850 METAR EDTL 020850Z 28002KT CAVOK 05/02 Q0992=
202003020920 METAR EDTL 020920Z 32003KT CAVOK 06/03 Q0992=
202003020950 METAR EDTL 020950Z VRB02KT CAVOK 06/03 Q0991=
202003021020 METAR EDTL 021020Z VRB02KT 9999 -DZ BKN032 OVC051 06/04 Q0991=
202003021050 METAR EDTL 021050Z 36005KT 9999 -DZ FEW027 BKN044 OVC057
202003021120 METAR EDTL 021120Z 31006KT 9999 -RA BKN045 06/04 Q0990=
202003021150 METAR EDTL 021150Z 35006KT 9999 -RA FEW011 BKN045 06/05 Q0989=
202003021220 METAR EDTL 021220Z 36010KT 9999 FEW018 BKN042 06/05 Q0988=
202003021250 METAR EDTL 021250Z VRB06KT 9999 FEW015 SCT037 BKN051 06/05
202003021320 METAR EDTL 021320Z VRB02KT 9999 FEW012 SCT043 BKN057 06/05
202003021350 METAR EDTL 021350Z 36004KT 9000 BKN035 06/05 Q0988=
202003021420 METAR EDTL 021420Z 02003KT 9999 BKN032 BKN049 06/06 Q0988=
202003021450 METAR EDTL 021450Z 36006KT 9999 FEW034 BKN053 07/06 Q0988=
202003021520 METAR EDTL 021520Z 35005KT 9999 FEW030 BKN051 07/06 Q0988=
202003021550 METAR EDTL 021550Z 34005KT 9999 FEW041 OVC053 07/06 Q0988=
202003021620 METAR EDTL 021620Z 32004KT 9999 -RA BKN031 07/06 Q0989=
202003021650 METAR EDTL 021650Z 33003KT 9999 BKN037 07/06 Q0989=
202003021720 METAR EDTL 021720Z 28002KT 9999 SCT005 BKN019 BKN033 06/06
202003021750 METAR EDTL 021750Z 29004KT 260V320 9999 SCT005 BKN016 OVC024
202003021820 METAR EDTL 021820Z 26003KT 9999 -RA FEW006 SCT014 BKN041
202003021850 METAR EDTL 021850Z 25003KT 9999 -RA FEW017 BKN026 06/05 Q0992=
202003030650 METAR EDTL 030650Z 22008KT CAVOK 05/01 Q1005=
202003030720 METAR EDTL 030720Z 21007KT CAVOK 05/01 Q1006=
202003030750 METAR EDTL 030750Z 21007KT CAVOK 05/02 Q1006=
202003030820 METAR EDTL 030820Z 21009KT 9999 BKN045 05/02 Q1006=
202003030850 METAR EDTL 030850Z 21010KT 9999 BKN048 05/02 Q1006=
202003030920 METAR EDTL 030920Z 22008KT CAVOK 06/02 Q1006=
202003030950 METAR EDTL 030950Z 20008KT CAVOK 06/01 Q1006=
202003031020 METAR EDTL 031020Z 21008KT 170V240 9999 BKN040 07/M01 Q1006=
202003031050 METAR EDTL 031050Z 23010KT 9999 BKN039 07/M01 Q1006=
202003031120 METAR EDTL 031120Z 21009KT 9999 BKN040 07/M00 Q1005=
202003031150 METAR EDTL 031150Z 23009KT 200V280 9999 BKN038 07/00 Q1005=
202003031220 METAR EDTL 031220Z 22005KT 180V260 9999 BKN038 07/M00 Q1005=
202003031250 METAR EDTL 031250Z 26006KT 9999 BKN040 07/M00 Q1005=
202003031320 METAR EDTL 031320Z 25006KT 220V280 9999 BKN037 07/M00 Q1005=
202003031350 METAR EDTL 031350Z 21006KT CAVOK 08/00 Q1005=
202003031420 METAR EDTL 031420Z 17005KT CAVOK 08/M00 Q1005=
202003031450 METAR EDTL 031450Z 15005KT 9999 VCSH BKN070TCU 08/01 Q1005=
202003031520 METAR EDTL 031520Z 14004KT 110V180 9999 VCSH BKN070TCU 08/M00
202003031550 METAR EDTL 031550Z 21010KT 9999 FEW032 BKN041 05/02 Q1005=
202003031620 METAR EDTL 031620Z 14004KT 110V170 9999 -SHRA FEW028 SCT045TCU
202003031650 METAR EDTL 031650Z 12005KT 9999 VCSH SCT075TCU 06/02 Q1006=
202003031720 METAR EDTL 031720Z 15005KT 9999 VCSH FEW024 SCT061TCU 06/01
202003031750 METAR EDTL 031750Z 12004KT 9999 SCT048 05/02 Q1007=
202003031820 METAR EDTL 031820Z 36006KT 330V060 9999 FEW026 BKN043 05/02
202003031850 METAR EDTL 031850Z 36009KT 9999 FEW027 BKN043 05/02 Q1009=
202003040650 METAR EDTL 040650Z 18009KT CAVOK 03/01 Q1015=
202003040720 METAR EDTL 040720Z 18008KT CAVOK 03/01 Q1015=
202003040750 METAR EDTL 040750Z 20005KT 170V230 CAVOK 04/02 Q1015=
202003040820 METAR EDTL 040820Z 20005KT CAVOK 05/02 Q1015=
202003040850 METAR EDTL 040850Z 20010KT 9999 FEW014 06/03 Q1015=
202003040920 METAR EDTL 040920Z 21009KT 9999 SCT014 06/02 Q1015=
202003040950 METAR EDTL 040950Z 19009KT 9999 FEW015 06/02 Q1015=
202003041020 METAR EDTL 041020Z 21008KT CAVOK 06/02 Q1015=
202003041050 METAR EDTL 041050Z 21007KT CAVOK 07/03 Q1015=
202003041120 METAR EDTL 041120Z 22007KT 160V240 CAVOK 08/01 Q1015=
202003041150 METAR EDTL 041150Z 22005KT 180V260 9999 FEW033 09/02 Q1014=
202003041220 METAR EDTL 041220Z 21005KT 160V270 CAVOK 08/00 Q1014=
202003041250 METAR EDTL 041250Z 24005KT 180V290 CAVOK 09/01 Q1014=
202003041320 METAR EDTL 041320Z VRB04KT 9999 FEW037 SCT170 10/M00 Q1014=
202003041350 METAR EDTL 041350Z 23007KT CAVOK 09/00 Q1013=
202003041420 METAR EDTL 041420Z 24005KT 210V280 9999 SCT046 09/01 Q1013=
202003041450 METAR EDTL 041450Z 28004KT 230V010 9999 FEW044 SCT068 09/M00
202003041520 METAR EDTL 041520Z 00000KT CAVOK 10/00 Q1012=
202003041550 METAR EDTL 041550Z VRB01KT CAVOK 10/M00 Q1012=
202003041620 METAR EDTL 041620Z 00000KT CAVOK 10/M00 Q1012=
202003041650 METAR EDTL 041650Z 26004KT CAVOK 09/M01 Q1012=
202003041720 METAR EDTL 041720Z 28003KT CAVOK 08/M01 Q1012=
202003041750 METAR EDTL 041750Z 31001KT CAVOK 08/M00 Q1012=
202003041820 METAR EDTL 041820Z 11005KT CAVOK 08/00 Q1012=
202003041850 METAR EDTL 041850Z 12004KT CAVOK 07/01 Q1011=
202003050650 METAR EDTL 050650Z VRB02KT 9999 -RA BKN020 07/06 Q1002=
202003050720 METAR EDTL 050720Z 20006KT 9999 -RA SCT033 BKN055 08/06 Q1002=
202003050750 METAR EDTL 050750Z 18007KT 9999 -RA BKN032 08/06 Q1001=
202003050820 METAR EDTL 050820Z 17005KT 9999 FEW038 BKN061 08/06 Q1000=
202003050850 METAR EDTL 050850Z 17005KT 9999 -RA FEW044 OVC059 08/06 Q1000=
202003050920 METAR EDTL 050920Z 15005KT 9999 -RA FEW036 OVC049 08/06 Q0999=
202003050950 METAR EDTL 050950Z 14003KT 9999 -RA FEW039 OVC053 08/06 Q0999=
202003051020 METAR EDTL 051020Z VRB03KT 7000 RA SCT030 BKN045 08/07 Q0998=
202003051050 METAR EDTL 051050Z 13007KT 6000 RA FEW033 OVC053 08/06 Q0997=
202003051120 METAR EDTL 051120Z 13011KT 6000 RA FEW037 OVC057 08/06 Q0996=
202003051150 METAR EDTL 051150Z 14009KT 7000 -RA SCT035 OVC064 08/06 Q0995=
202003051220 METAR EDTL 051220Z 16009KT 9000 -RA BKN028 08/06 Q0994=
202003051250 METAR EDTL 051250Z 14007KT 9000 -RA BKN024 08/07 Q0993=
202003051320 METAR EDTL 051320Z 17004KT 7000 RA SCT008 BKN011 OVC022 08/07
202003051350 METAR EDTL 051350Z 14008KT 8000 RA BKN006 09/08 Q0992=
202003051420 METAR EDTL 051420Z VRB02KT 8000 -RA FEW008 BKN048 09/08 Q0991
202003051450 METAR EDTL 051450Z 19008KT 8000 -RA BKN047 10/08 Q0991=
202003051520 METAR EDTL 051520Z 20011KT 7000 -RA FEW010 BKN048 10/09 Q0990=
202003051550 METAR EDTL 051550Z 20012KT 7000 -RA FEW027 BKN047 11/09 Q0990=
202003051620 METAR EDTL 051620Z 28011KT 240V310 3500 RA BR BKN003 09/08
202003051650 METAR EDTL 051650Z 22011KT 9000 -RA FEW005 BKN030 10/09 Q0991
202003051720 METAR EDTL 051720Z 20009KT 8000 -RA FEW022 SCT045 10/09 Q0991=
202003051750 METAR EDTL 051750Z 19011KT 9000 -RA BKN049 10/09 Q0991=
202003051820 METAR EDTL 051820Z 18011KT 9000 -RA FEW003 SCT027 BKN036
202003051850 METAR EDTL 051850Z 19015KT 9999 -RA FEW039 10/07 Q0992=
202003060650 METAR EDTL 060650Z 21024KT 8000 RA FEW025 OVC040 06/03 Q0996=
202003060750 METAR EDTL 060750Z 20021KT 9999 OVC030 05/03 Q0997=
202003060820 METAR EDTL 060820Z 19020KT 9999 -RA OVC027 05/03 Q0997=
202003060850 METAR EDTL 060850Z 20017KT 9999 BKN029 OVC038 06/03 Q0997=
202003060920 METAR EDTL 060920Z 21018KT 9999 OVC030 06/03 Q0998=
202003060950 METAR EDTL 060950Z 21020KT 9999 OVC029 06/02 Q0998=
202003061020 METAR EDTL 061020Z 21015KT 9999 BKN027 OVC033 06/03 Q0999=
202003061050 METAR EDTL 061050Z 21015KT 9999 OVC025 06/03 Q0999=
202003061120 METAR EDTL 061120Z 21017KT 9999 OVC024 06/03 Q1000=
202003061150 METAR EDTL 061150Z 21015KT 9999 BKN027 06/03 Q1000=
202003061220 METAR EDTL 061220Z 21012KT 9999 BKN026 OVC032 06/03 Q1001=
202003061250 METAR EDTL 061250Z 22011KT 9999 BKN027 07/03 Q1001=
202003061320 METAR EDTL 061320Z 22012KT 9999 BKN031 07/03 Q1001=
202003061350 METAR EDTL 061350Z 24015KT 9999 BKN033 07/04 Q1002=
202003061420 METAR EDTL 061420Z 24013KT 210V270 9999 BKN032 07/03 Q1002=
202003061450 METAR EDTL 061450Z 24014KT 9999 BKN041 07/03 Q1003=
202003061520 METAR EDTL 061520Z 23013KT 9999 FEW025 BKN035 07/02 Q1003=
202003061550 METAR EDTL 061550Z 23013KT 9999 FEW026 BKN032 07/02 Q1004=
202003061620 METAR EDTL 061620Z 23013KT 9999 -RA FEW025 BKN031 07/03 Q1004=
202003061650 METAR EDTL 061650Z 23011KT 9999 -RA BKN028 07/03 Q1005=
202003061720 METAR EDTL 061720Z 23011KT 9999 -RA BKN025 06/03 Q1006=
202003061750 METAR EDTL 061750Z 23010KT 9999 BKN025 06/03 Q1006=
202003061820 METAR EDTL 061820Z 23009KT 9999 BKN026 06/03 Q1007=
202003061850 METAR EDTL 061850Z 22009KT 9999 BKN025 06/04 Q1007=
202003071220 METAR EDTL 071220Z VRB01KT CAVOK 07/01 Q1021=
202003071250 METAR EDTL 071250Z 17004KT CAVOK 07/02 Q1021=
202003071320 METAR EDTL 071320Z VRB03KT CAVOK 08/01 Q1021=
202003071620 METAR EDTL 071620Z VRB03KT CAVOK 08/M01 Q1022=
202003090620 METAR EDTL 090620Z 19007KT 9999 BKN027 06/04 Q1015=
202003090650 METAR EDTL 090650Z 19008KT 9999 BKN027 06/04 Q1015=
202003090720 METAR EDTL 090720Z 20009KT 9999 BKN035 06/05 Q1015=
202003090750 METAR EDTL 090750Z 20007KT 9999 SCT033 06/04 Q1015=
202003090820 METAR EDTL 090820Z 19009KT 9999 FEW033 07/05 Q1016=
202003090850 METAR EDTL 090850Z 19009KT 160V220 CAVOK 08/05 Q1016=
202003090920 METAR EDTL 090920Z 20008KT 9999 BKN025 08/04 Q1016=
202003090950 METAR EDTL 090950Z 22008KT 190V270 9999 VCSH FEW005 BKN023TCU
202003091020 METAR EDTL 091020Z 25008KT 9999 BKN026 10/03 Q1016=
202003091050 METAR EDTL 091050Z 23010KT 9999 VCSH BKN045TCU 10/03 Q1016=
202003091120 METAR EDTL 091120Z 23011KT 9999 VCSH BKN055TCU 10/04 Q1016=
202003091150 METAR EDTL 091150Z 21008KT 170V240 9999 VCSH FEW030 BKN055TCU
202003091220 METAR EDTL 091220Z 32009KT 9000 VCSH SCT003 BKN029TCU 07/05
202003091250 METAR EDTL 091250Z 29003KT 230V040 9999 SCT039 SCT066TCU
202003091320 METAR EDTL 091320Z 14006KT 100V170 9999 FEW020 SCT033 09/05
202003091350 METAR EDTL 091350Z 18003KT 140V230 9999 SCT045 09/04 Q1017=
202003091420 METAR EDTL 091420Z 19004KT 130V270 9999 SCT030 SCT040 09/04
202003091450 METAR EDTL 091450Z 20004KT 170V230 9999 SCT037 SCT059 11/04
202003091520 METAR EDTL 091520Z 24011KT 9999 SCT034 10/04 Q1017=
202003091550 METAR EDTL 091550Z 24008KT 9999 FEW008 SCT035 10/03 Q1018=
202003091620 METAR EDTL 091620Z 24008KT 9999 SCT043 10/03 Q1018=
202003091650 METAR EDTL 091650Z 21008KT 9999 FEW035 08/03 Q1018=
202003091720 METAR EDTL 091720Z 21009KT CAVOK 08/02 Q1019=
202003091750 METAR EDTL 091750Z 20006KT CAVOK 08/02 Q1019=
202003091820 METAR EDTL 091820Z 20006KT CAVOK 07/02 Q1020=
202003091850 METAR EDTL 091850Z 19006KT CAVOK 07/03 Q1020=
202003100650 METAR EDTL 100650Z 20019KT 9999 -RA OVC030 07/03 Q1016=
202003100720 METAR EDTL 100720Z 20020KT 9000 RA OVC026 06/03 Q1016=
202003100750 METAR EDTL 100750Z 20021KT 9000 RA FEW011 BKN036 06/04 Q1016=
202003100820 METAR EDTL 100820Z 19020KT 8000 RA FEW005 BKN035 06/04 Q1016=
202003100850 METAR EDTL 100850Z 20020KT 9999 RA FEW005 BKN034 06/04 Q1015=
202003100920 METAR EDTL 100920Z 20019KT 9999 -RA BKN033 06/04 Q1016 RERA=
202003100950 METAR EDTL 100950Z 20017KT 9999 -RA BKN033 07/04 Q1015=
202003101020 METAR EDTL 101020Z 19018KT 9999 -RA FEW020 BKN031 07/04 Q1015=
202003101050 METAR EDTL 101050Z 19016KT 9999 -RA BKN031 07/05 Q1015=
202003101120 METAR EDTL 101120Z 19016KT 9000 RA FEW004 BKN031 08/05 Q1015=
202003101150 METAR EDTL 101150Z 19016KT 9999 -RA FEW004 BKN030 08/06 Q1015
202003101220 METAR EDTL 101220Z 19017KT 7000 -RA SCT004 BKN030 08/06 Q1015=
202003101250 METAR EDTL 101250Z 18017KT 9000 -RA SCT004 BKN030 08/06 Q1015=
202003101320 METAR EDTL 101320Z 19016KT 9999 -RA FEW004 SCT018 OVC029
202003101350 METAR EDTL 101350Z 19016KT 5000 -RA SCT003 OVC029 08/07 Q1015=
202003101420 METAR EDTL 101420Z 19016KT 9999 FEW004 SCT020 BKN027 08/07
202003101450 METAR EDTL 101450Z 19016KT 9999 -RA SCT004 BKN028 09/07 Q1014=
202003101520 METAR EDTL 101520Z 19015KT 9999 OVC028 09/07 Q1015=
202003101550 METAR EDTL 101550Z 19014KT 9999 OVC027 09/07 Q1015=
202003101620 METAR EDTL 101620Z 19013KT 9999 OVC027 09/07 Q1015=
202003101650 METAR EDTL 101650Z 19017KT 9999 OVC027 09/07 Q1015=
202003101720 METAR EDTL 101720Z 19015KT 9999 OVC027 10/07 Q1015=
202003101750 METAR EDTL 101750Z 19014KT 9999 OVC027 10/07 Q1015=
202003101820 METAR EDTL 101820Z 19014KT 9999 OVC028 10/07 Q1016=
202003101850 METAR EDTL 101850Z 19014KT 9999 OVC028 10/07 Q1016=
202003110720 METAR EDTL 110720Z 19009KT 9999 FEW030 SCT048 BKN061 11/09
202003110750 METAR EDTL 110750Z 21009KT 9999 -DZ FEW006 BKN030 OVC042
202003110820 METAR EDTL 110820Z 23010KT 4100 DZ BR FEW006 BKN026 11/10
202003110850 METAR EDTL 110850Z 20010KT 9999 FEW008 BKN029 12/10 Q1020=
202003110920 METAR EDTL 110920Z 20012KT 9999 SCT038 SCT066 12/10 Q1020=
202003110950 METAR EDTL 110950Z 21011KT 9999 SCT037 BKN044 13/10 Q1020=
202003111020 METAR EDTL 111020Z 21012KT 9999 BKN036 14/10 Q1020=
202003111050 METAR EDTL 111050Z 21013KT 9999 FEW018 BKN036 14/10 Q1020=
202003111120 METAR EDTL 111120Z 21012KT 9999 BKN038 14/10 Q1020=
202003111150 METAR EDTL 111150Z 23011KT 9999 BKN035 15/10 Q1020=
202003111220 METAR EDTL 111220Z 22011KT 9999 FEW034 15/10 Q1020=
202003111250 METAR EDTL 111250Z 22014KT 9999 BKN035 15/10 Q1019=
202003111320 METAR EDTL 111320Z 22012KT 9999 SCT035 BKN041 15/09 Q1019=
202003111350 METAR EDTL 111350Z 22012KT 9999 FEW039 BKN059 16/10 Q1019=
202003111420 METAR EDTL 111420Z 23013KT 9999 FEW035 BKN042 15/09 Q1019=
202003111450 METAR EDTL 111450Z 23013KT 9999 FEW023 SCT036 BKN062 15/10
202003111520 METAR EDTL 111520Z 23010KT 9999 FEW023 BKN055 15/10 Q1019=
202003111550 METAR EDTL 111550Z 23007KT 9999 FEW037 BKN046 15/10 Q1019=
202003111620 METAR EDTL 111620Z 23005KT 9999 FEW037 BKN047 15/10 Q1019=
202003111650 METAR EDTL 111650Z 20008KT 9999 FEW040 BKN059 15/10 Q1019=
202003111720 METAR EDTL 111720Z 20009KT 9999 SCT045 BKN057 15/10 Q1019=
202003111750 METAR EDTL 111750Z 20008KT 9999 SCT045 BKN061 14/10 Q1019=
202003111820 METAR EDTL 111820Z 20007KT 9999 SCT047 BKN059 14/10 Q1019=
202003111850 METAR EDTL 111850Z 19007KT 9999 FEW047 BKN064 14/10 Q1019=
202003120650 METAR EDTL 120650Z 21004KT 9999 BKN037 13/09 Q1016=
202003120720 METAR EDTL 120720Z 19008KT 9999 SCT036 SCT044 13/09 Q1016=
202003120750 METAR EDTL 120750Z 17011KT 9999 SCT035 13/09 Q1016=
202003120820 METAR EDTL 120820Z 18013KT 9999 FEW037 SCT051 14/09 Q1016=
202003120850 METAR EDTL 120850Z 19017KT 9999 BKN049 14/10 Q1016=
202003120920 METAR EDTL 120920Z 19015KT 9999 BKN048 14/09 Q1016=
202003120950 METAR EDTL 120950Z 20016KT 9999 BKN049 15/09 Q1016=
202003121020 METAR EDTL 121020Z 19019KT 9999 BKN047 15/09 Q1016=
202003121050 METAR EDTL 121050Z 20017KT 9999 BKN048 15/09 Q1016=
202003121120 METAR EDTL 121120Z 20017KT 9999 BKN043 14/09 Q1016=
202003121150 METAR EDTL 121150Z 20015KT 9999 FEW021 BKN038 14/09 Q1016=
202003121220 METAR EDTL 121220Z 21013KT 9999 VCSH SCT004 OVC046 14/09
202003121250 METAR EDTL 121250Z 20011KT 9999 VCSH FEW011 BKN047 15/09
202003121320 METAR EDTL 121320Z 20013KT 9999 -DZ FEW004 BKN046 15/09 Q1015=
202003121350 METAR EDTL 121350Z 33009KT 300V010 9999 -DZ FEW004 BKN041
202003121420 METAR EDTL 121420Z 34009KT 9000 -DZ FEW004 BKN045 11/10 Q1015=
202003121450 METAR EDTL 121450Z 07004KT 9999 BKN039 OVC055 11/10 Q1015=
202003121520 METAR EDTL 121520Z VRB01KT 7000 -RA FEW002 BKN042 11/10 Q1015=
202003121550 METAR EDTL 121550Z 07003KT 030V110 9999 BKN048 11/10 Q1015=
202003121620 METAR EDTL 121620Z 10003KT 030V140 9999 BKN048 11/10 Q1015=
202003121650 METAR EDTL 121650Z 23005KT 170V270 9999 FEW003 SCT036 BKN049
202003121720 METAR EDTL 121720Z 18004KT 9999 SCT047 BKN064 12/09 Q1015=
202003121750 METAR EDTL 121750Z VRB02KT 9999 SCT049 BKN180 10/08 Q1016=
202003121820 METAR EDTL 121820Z 23008KT 200V280 9999 BKN048 12/08 Q1016=
202003121850 METAR EDTL 121850Z 31016KT 250V340 9999 FEW028 OVC037 12/07
202003130650 METAR EDTL 130650Z 23008KT CAVOK 06/01 Q1022=
202003130720 METAR EDTL 130720Z 25011KT CAVOK 07/00 Q1023=
202003130750 METAR EDTL 130750Z 24009KT CAVOK 07/M00 Q1023=
202003130820 METAR EDTL 130820Z 23011KT 210V270 CAVOK 08/M00 Q1023=
202003130850 METAR EDTL 130850Z 24013KT CAVOK 08/M01 Q1023=
202003130920 METAR EDTL 130920Z 26014KT CAVOK 09/M00 Q1023=
202003130950 METAR EDTL 130950Z 26012KT CAVOK 10/M00 Q1023=
202003131020 METAR EDTL 131020Z 25013KT CAVOK 10/M01 Q1023=
202003131050 METAR EDTL 131050Z 24010KT 210V280 CAVOK 11/M00 Q1023=
202003131120 METAR EDTL 131120Z 23011KT CAVOK 11/M00 Q1023=
202003131150 METAR EDTL 131150Z 28011KT 240V300 CAVOK 11/M01 Q1023=
202003131220 METAR EDTL 131220Z 27009KT CAVOK 11/M00 Q1023=
202003131250 METAR EDTL 131250Z 25012KT CAVOK 12/M00 Q1022=
202003131320 METAR EDTL 131320Z 25008KT 180V310 CAVOK 12/M01 Q1022=
202003131350 METAR EDTL 131350Z 26007G22KT 210V340 CAVOK 11/M02 Q1022=
202003131420 METAR EDTL 131420Z 26008KT 230V330 CAVOK 11/M01 Q1022=
202003131450 METAR EDTL 131450Z 32007KT 290V010 CAVOK 11/M02 Q1022=
202003131520 METAR EDTL 131520Z 32004KT 260V010 CAVOK 12/M00 Q1022=
202003131550 METAR EDTL 131550Z 33007KT 000V360 CAVOK 12/M01 Q1021=
202003131620 METAR EDTL 131620Z 32006KT 290V360 CAVOK 11/M01 Q1021=
202003131650 METAR EDTL 131650Z 27008KT CAVOK 11/M01 Q1021=
202003131720 METAR EDTL 131720Z 29005KT CAVOK 10/M01 Q1021=
202003131750 METAR EDTL 131750Z 32004KT CAVOK 10/M02 Q1021=
202003131820 METAR EDTL 131820Z 34001KT CAVOK 09/M01 Q1022=
202003131850 METAR EDTL 131850Z 00000KT CAVOK 07/M01 Q1022=
202003160650 METAR EDTL 160650Z 24007KT CAVOK 05/03 Q1019=
202003160720 METAR EDTL 160720Z 15004KT 120V200 CAVOK 07/03 Q1019=
202003160750 METAR EDTL 160750Z 18005KT CAVOK 08/03 Q1020=
202003160820 METAR EDTL 160820Z 20004KT 170V240 CAVOK 09/04 Q1020=
202003160850 METAR EDTL 160850Z 21004KT 160V250 CAVOK 11/04 Q1020=
202003160920 METAR EDTL 160920Z VRB02KT CAVOK 13/06 Q1020=
202003160950 METAR EDTL 160950Z 00000KT CAVOK 14/06 Q1020=
202003161020 METAR EDTL 161020Z 18005KT 140V220 CAVOK 16/05 Q1020=
202003161050 METAR EDTL 161050Z 20011KT CAVOK 17/03 Q1020=
202003161120 METAR EDTL 161120Z 19010KT 160V230 CAVOK 18/03 Q1020=
202003161150 METAR EDTL 161150Z 19009KT 160V220 CAVOK 18/04 Q1020=
202003161220 METAR EDTL 161220Z 21009KT 170V240 CAVOK 18/04 Q1020=
202003161250 METAR EDTL 161250Z 22007KT CAVOK 18/04 Q1020=
202003161320 METAR EDTL 161320Z 21006KT 170V250 CAVOK 18/02 Q1020=
202003161350 METAR EDTL 161350Z 20006KT 170V250 CAVOK 19/03 Q1020=
202003161420 METAR EDTL 161420Z 19005KT CAVOK 19/05 Q1020=
202003161450 METAR EDTL 161450Z 23007KT 180V270 CAVOK 19/03 Q1020=
202003161520 METAR EDTL 161520Z VRB02KT CAVOK 19/04 Q1021=
202003161550 METAR EDTL 161550Z 26005KT 220V290 CAVOK 18/02 Q1021=
202003161620 METAR EDTL 161620Z 29007KT CAVOK 17/04 Q1021=
202003161650 METAR EDTL 161650Z 32005KT CAVOK 17/04 Q1021=
202003161720 METAR EDTL 161720Z 00000KT CAVOK 17/03 Q1022=
202003161750 METAR EDTL 161750Z 13003KT CAVOK 16/03 Q1022=
202003161820 METAR EDTL 161820Z 21002KT CAVOK 15/04 Q1023=
202003161850 METAR EDTL 161850Z VRB01KT CAVOK 14/03 Q1023=
202003170620 METAR EDTL 170620Z VRB02KT CAVOK 10/07 Q1029=
202003170650 METAR EDTL 170650Z 13001KT CAVOK 10/06 Q1029=
202003170720 METAR EDTL 170720Z 14001KT CAVOK 11/07 Q1030=
202003170750 METAR EDTL 170750Z 00000KT CAVOK 11/08 Q1030=
202003170820 METAR EDTL 170820Z 00000KT CAVOK 12/06 Q1030=
202003170850 METAR EDTL 170850Z VRB02KT CAVOK 12/08 Q1031=
202003170920 METAR EDTL 170920Z 21005KT CAVOK 13/07 Q1031=
202003170950 METAR EDTL 170950Z 20005KT CAVOK 14/06 Q1031=
202003171020 METAR EDTL 171020Z 20005KT 160V230 CAVOK 15/06 Q1031=
202003171050 METAR EDTL 171050Z 21004KT 160V240 CAVOK 15/06 Q1031=
202003171120 METAR EDTL 171120Z 21005KT CAVOK 15/07 Q1031=
202003171150 METAR EDTL 171150Z 22005KT 160V240 CAVOK 16/07 Q1031=
202003171220 METAR EDTL 171220Z 25004KT 200V320 CAVOK 16/07 Q1030=
202003171250 METAR EDTL 171250Z 26004KT 210V330 CAVOK 16/07 Q1030=
202003171320 METAR EDTL 171320Z VRB03KT CAVOK 17/08 Q1030=
202003171350 METAR EDTL 171350Z VRB03KT CAVOK 17/07 Q1030=
202003171420 METAR EDTL 171420Z VRB03KT CAVOK 17/07 Q1030=
202003171450 METAR EDTL 171450Z 36003KT 320V030 CAVOK 17/07 Q1030=
202003171520 METAR EDTL 171520Z VRB02KT CAVOK 17/08 Q1029=
202003171550 METAR EDTL 171550Z 34004KT 300V030 CAVOK 17/08 Q1029=
202003171620 METAR EDTL 171620Z 00000KT CAVOK 16/07 Q1029=
202003171650 METAR EDTL 171650Z 34001KT CAVOK 16/07 Q1029=
202003171720 METAR EDTL 171720Z 34001KT CAVOK 16/07 Q1029=
202003171750 METAR EDTL 171750Z 35002KT CAVOK 15/07 Q1029=
202003171820 METAR EDTL 171820Z 10003KT CAVOK 14/08 Q1030=
202003171850 METAR EDTL 171850Z 10004KT CAVOK 12/07 Q1030=
202003180620 METAR EDTL 180620Z 14002KT CAVOK 06/05 Q1030=
202003180650 METAR EDTL 180650Z 00000KT CAVOK 07/06 Q1030=
202003180720 METAR EDTL 180720Z 00000KT CAVOK 08/07 Q1030=
202003180750 METAR EDTL 180750Z VRB01KT CAVOK 10/08 Q1030=
202003180820 METAR EDTL 180820Z VRB01KT CAVOK 11/08 Q1030=
202003180850 METAR EDTL 180850Z VRB02KT CAVOK 13/09 Q1029=
202003180920 METAR EDTL 180920Z VRB02KT CAVOK 13/08 Q1029=
202003180950 METAR EDTL 180950Z VRB02KT CAVOK 14/09 Q1029=
202003181020 METAR EDTL 181020Z VRB03KT CAVOK 14/09 Q1029=
202003181050 METAR EDTL 181050Z VRB04KT CAVOK 15/09 Q1029=
202003181120 METAR EDTL 181120Z 34004KT 290V020 CAVOK 16/10 Q1028=
202003181150 METAR EDTL 181150Z 01003KT 300V090 CAVOK 17/09 Q1028=
202003181220 METAR EDTL 181220Z 36004KT 270V040 CAVOK 17/10 Q1027=
202003181250 METAR EDTL 181250Z 35006KT CAVOK 17/09 Q1027=
202003181320 METAR EDTL 181320Z 34004KT 200V020 CAVOK 18/08 Q1027=
202003181350 METAR EDTL 181350Z 02006KT 320V050 CAVOK 19/09 Q1026=
202003181420 METAR EDTL 181420Z 34005KT CAVOK 19/09 Q1026=
202003181450 METAR EDTL 181450Z 02005KT CAVOK 18/07 Q1026=
202003181520 METAR EDTL 181520Z 02006KT 330V050 CAVOK 19/07 Q1025=
202003181550 METAR EDTL 181550Z 01006KT CAVOK 18/08 Q1025=
202003181620 METAR EDTL 181620Z 35006KT CAVOK 18/08 Q1025=
202003181650 METAR EDTL 181650Z 01006KT CAVOK 17/09 Q1025=
202003181720 METAR EDTL 181720Z 36005KT CAVOK 16/08 Q1025=
202003181750 METAR EDTL 181750Z 33005KT CAVOK 15/07 Q1025=
202003181820 METAR EDTL 181820Z 34004KT CAVOK 15/07 Q1025=
202003181850 METAR EDTL 181850Z VRB02KT CAVOK 14/08 Q1025=
202003190650 METAR EDTL 190650Z 00000KT CAVOK 06/06 Q1025=
202003190720 METAR EDTL 190720Z VRB02KT CAVOK 09/07 Q1025=
202003190750 METAR EDTL 190750Z VRB02KT CAVOK 10/08 Q1025=
202003190820 METAR EDTL 190820Z VRB02KT CAVOK 11/09 Q1025=
202003190850 METAR EDTL 190850Z VRB03KT CAVOK 12/09 Q1025=
202003190920 METAR EDTL 190920Z VRB02KT CAVOK 13/08 Q1025=
202003190950 METAR EDTL 190950Z VRB02KT CAVOK 13/09 Q1025=
202003191020 METAR EDTL 191020Z VRB02KT CAVOK 14/09 Q1025=
202003191050 METAR EDTL 191050Z 36004KT 330V040 CAVOK 15/09 Q1024=
202003191120 METAR EDTL 191120Z 32004KT 280V040 CAVOK 16/09 Q1024=
202003191150 METAR EDTL 191150Z 35004KT 220V040 CAVOK 16/09 Q1024=
202003191220 METAR EDTL 191220Z 35005KT 310V040 CAVOK 17/09 Q1023=
202003191250 METAR EDTL 191250Z 35005KT 310V030 CAVOK 17/09 Q1023=
202003191320 METAR EDTL 191320Z 35004KT 310V040 CAVOK 18/09 Q1023=
202003191350 METAR EDTL 191350Z 36004KT 310V060 CAVOK 18/10 Q1022=
202003191420 METAR EDTL 191420Z 02005KT 330V050 CAVOK 18/10 Q1022=
202003191450 METAR EDTL 191450Z 01005KT 340V050 CAVOK 19/10 Q1022=
202003191520 METAR EDTL 191520Z 35005KT 320V040 CAVOK 19/09 Q1021=
202003191550 METAR EDTL 191550Z 35004KT 330V040 CAVOK 19/09 Q1021=
202003191620 METAR EDTL 191620Z 01005KT CAVOK 18/09 Q1021=
202003191650 METAR EDTL 191650Z 02005KT CAVOK 17/10 Q1021=
202003191720 METAR EDTL 191720Z 36005KT CAVOK 16/09 Q1021=
202003191750 METAR EDTL 191750Z 35004KT CAVOK 16/08 Q1021=
202003191820 METAR EDTL 191820Z 35003KT CAVOK 15/09 Q1021=
202003191850 METAR EDTL 191850Z 07002KT CAVOK 15/09 Q1021=
202003210720 METAR EDTL 210720Z 35006KT 9999 OVC019 07/03 Q1019=
202003210750 METAR EDTL 210750Z 02007KT 9999 OVC019 07/03 Q1019=
202003210820 METAR EDTL 210820Z 01008KT 9999 OVC019 07/04 Q1019=
202003221520 METAR EDTL 221520Z 05012KT 030V090 CAVOK 10/M04 Q1024=
202003221550 METAR EDTL 221550Z 05011KT 030V090 CAVOK 10/M04 Q1024=
202003221620 METAR EDTL 221620Z 07012KT CAVOK 09/M04 Q1024=
202003221650 METAR EDTL 221650Z 06012KT CAVOK 09/M04 Q1025=
202003221720 METAR EDTL 221720Z 07012KT 040V100 CAVOK 08/M05 Q1025=
202003250750 METAR EDTL 250750Z 03005KT 350V060 CAVOK 02/M06 Q1024=
202003250820 METAR EDTL 250820Z 01007KT CAVOK 03/M06 Q1024=
202003250850 METAR EDTL 250850Z 01008KT 340V040 CAVOK 04/M07 Q1023=
202003250920 METAR EDTL 250920Z 01009KT CAVOK 05/M06 Q1023=
202003250950 METAR EDTL 250950Z 01012KT CAVOK 06/M06 Q1022=
202003251020 METAR EDTL 251020Z 01011KT 330V050 CAVOK 07/M05 Q1022=
202003251050 METAR EDTL 251050Z 02012KT CAVOK 07/M06 Q1022=
202003251120 METAR EDTL 251120Z 01017KT CAVOK 08/M06 Q1021=
202003251150 METAR EDTL 251150Z 01013KT 340V040 CAVOK 09/M06 Q1020=
202003251220 METAR EDTL 251220Z 01013KT CAVOK 09/M05 Q1020=
202003251250 METAR EDTL 251250Z 35018KT CAVOK 09/M06 Q1019=
202003251320 METAR EDTL 251320Z 04012KT 010V080 9999 NSC 10/M08 Q1019=
202003251350 METAR EDTL 251350Z 04013KT 360V060 9999 NSC 10/M08 Q1019=
202003251420 METAR EDTL 251420Z 03014G27KT 360V060 9999 NSC 10/M09 Q1018=
202003251450 METAR EDTL 251450Z 05013KT 020V100 CAVOK 10/M08 Q1018=
202003251520 METAR EDTL 251520Z 07012KT 040V110 CAVOK 10/M07 Q1018=
202003251550 METAR EDTL 251550Z 08014KT 040V100 CAVOK 10/M08 Q1018=
202003260650 METAR EDTL 260650Z VRB01KT CAVOK 00/M05 Q1017=
202003260720 METAR EDTL 260720Z VRB03KT CAVOK 02/M05 Q1017=
202003260750 METAR EDTL 260750Z 36003KT 330V050 CAVOK 02/M05 Q1017=
202003260820 METAR EDTL 260820Z 03004KT 350V080 CAVOK 03/M05 Q1017=
202003260850 METAR EDTL 260850Z 01003KT 310V100 CAVOK 04/M05 Q1017=
202003260920 METAR EDTL 260920Z 01006KT 330V070 CAVOK 04/M06 Q1017=
202003260950 METAR EDTL 260950Z 03007KT 320V090 CAVOK 05/M05 Q1017=
202003261020 METAR EDTL 261020Z 36008KT 320V070 CAVOK 06/M04 Q1017=
202003261050 METAR EDTL 261050Z 01008KT 330V040 CAVOK 06/M04 Q1017=
202003261120 METAR EDTL 261120Z 01009KT CAVOK 08/M03 Q1017=
202003261150 METAR EDTL 261150Z 36010KT CAVOK 07/M04 Q1017=
202003261220 METAR EDTL 261220Z 36011KT 330V030 CAVOK 08/M03 Q1017=
202003261250 METAR EDTL 261250Z 01010KT 320V040 CAVOK 08/M03 Q1016=
202003261320 METAR EDTL 261320Z 36011KT CAVOK 08/M03 Q1016=
202003261350 METAR EDTL 261350Z 36009KT CAVOK 09/M03 Q1016=
202003261420 METAR EDTL 261420Z 02008KT 360V060 CAVOK 10/M04 Q1016=
202003261450 METAR EDTL 261450Z 01010KT 310V050 CAVOK 11/M04 Q1015=
202003261520 METAR EDTL 261520Z 05011KT 020V090 CAVOK 10/M06 Q1015=
202003261550 METAR EDTL 261550Z 06009KT 030V090 CAVOK 10/M05 Q1015=
202003291220 METAR EDTL 291220Z 01013KT 9999 -RA FEW009 BKN021 OVC200
202003291250 METAR EDTL 291250Z 02014KT 9999 -RA FEW012 SCT022 OVC032
202003291320 METAR EDTL 291320Z 04011KT 9999 -RA FEW024 SCT035 OVC045
202003291350 METAR EDTL 291350Z 03012KT 9999 -RA OVC030 04/02 Q1022=
202003291420 METAR EDTL 291420Z 02009KT 9999 -RA OVC033 04/02 Q1022=
202003291450 METAR EDTL 291450Z 01010KT 340V050 9999 -RA SCT017 OVC025
202003310720 METAR EDTL 310720Z VRB03KT CAVOK 00/M04 Q1026=
202003310750 METAR EDTL 310750Z 01006KT 330V040 CAVOK 02/M04 Q1026=
202003310820 METAR EDTL 310820Z 36007KT 320V030 CAVOK 04/M05 Q1026=
202003310850 METAR EDTL 310850Z 01007KT CAVOK 05/M06 Q1026=
202003310920 METAR EDTL 310920Z 36007KT CAVOK 07/M06 Q1026=
202003310950 METAR EDTL 310950Z 36008KT 320V040 CAVOK 08/M04 Q1026=
202003311020 METAR EDTL 311020Z 01010KT CAVOK 08/M04 Q1025=
202003311050 METAR EDTL 311050Z 02010KT 9999 FEW048 09/M03 Q1025=
202003311120 METAR EDTL 311120Z 03009G20KT 350V070 CAVOK 09/M04 Q1025=
202003311150 METAR EDTL 311150Z 01011KT 340V050 CAVOK 10/M04 Q1025=
202003311220 METAR EDTL 311220Z 36011KT 320V030 CAVOK 10/M04 Q1025=
202003311250 METAR EDTL 311250Z 04008KT 360V090 CAVOK 10/M07 Q1024=
202003311320 METAR EDTL 311320Z 03011KT 350V080 CAVOK 10/M05 Q1024=
202003311350 METAR EDTL 311350Z 02013KT 350V050 CAVOK 10/M04 Q1024=
202003311420 METAR EDTL 311420Z 01017KT CAVOK 10/M04 Q1024=
202003311450 METAR EDTL 311450Z 36015KT CAVOK 10/M05 Q1024=
202004010650 METAR EDTL 010650Z 36004KT CAVOK M00/M04 Q1022=
202004010720 METAR EDTL 010720Z 01004KT CAVOK 01/M04 Q1022=
202004010750 METAR EDTL 010750Z 01006KT CAVOK 02/M04 Q1022=
202004010820 METAR EDTL 010820Z 01005KT 330V040 CAVOK 04/M03 Q1022=
202004010850 METAR EDTL 010850Z 34005KT CAVOK 05/M02 Q1021=
202004010920 METAR EDTL 010920Z 35006KT 320V030 CAVOK 06/M04 Q1021=
202004010950 METAR EDTL 010950Z 36007KT 320V040 CAVOK 07/M04 Q1021=
202004011050 METAR EDTL 011050Z 35006KT 290V070 CAVOK 08/M03 Q1020=
202004011120 METAR EDTL 011120Z 01007KT 330V050 CAVOK 09/M04 Q1020=
202004011150 METAR EDTL 011150Z 35008KT 310V050 CAVOK 10/M02 Q1019=
202004011220 METAR EDTL 011220Z 34007G17KT 280V030 CAVOK 10/M02 Q1018=
202004011250 METAR EDTL 011250Z 33007KT 280V010 CAVOK 11/M03 Q1018=
202004011320 METAR EDTL 011320Z 34007KT 300V040 CAVOK 11/M04 Q1018=
202004011350 METAR EDTL 011350Z 03006KT 350V080 CAVOK 11/M03 Q1017=
202004011420 METAR EDTL 011420Z 02007KT 320V050 CAVOK 12/M03 Q1017=
202004011450 METAR EDTL 011450Z 02008KT 330V060 CAVOK 12/M03 Q1017=
202004020620 METAR EDTL 020620Z 00000KT CAVOK M01/M04 Q1015=
202004020650 METAR EDTL 020650Z 00000KT CAVOK 01/M01 Q1015=
202004020720 METAR EDTL 020720Z VRB02KT CAVOK 03/M02 Q1015=
202004020750 METAR EDTL 020750Z 23004KT 190V250 CAVOK 04/M02 Q1014=
202004020820 METAR EDTL 020820Z 26003KT 200V330 CAVOK 05/M05 Q1014=
202004020850 METAR EDTL 020850Z VRB02KT CAVOK 06/M04 Q1014=
202004020920 METAR EDTL 020920Z VRB03KT CAVOK 08/M03 Q1014=
202004020950 METAR EDTL 020950Z VRB02KT CAVOK 09/M03 Q1014=
202004021020 METAR EDTL 021020Z VRB03KT CAVOK 10/M03 Q1014=
202004021050 METAR EDTL 021050Z VRB02KT CAVOK 10/M02 Q1014=
202004021120 METAR EDTL 021120Z VRB03KT CAVOK 11/M02 Q1013=
202004021150 METAR EDTL 021150Z VRB02KT CAVOK 12/M04 Q1013=
202004021220 METAR EDTL 021220Z VRB02KT CAVOK 12/M04 Q1013=
202004021250 METAR EDTL 021250Z VRB03KT CAVOK 13/M04 Q1012=
202004021320 METAR EDTL 021320Z VRB04KT CAVOK 13/M04 Q1012=
202004021350 METAR EDTL 021350Z 01005KT 320V060 CAVOK 14/M04 Q1012=
202004021420 METAR EDTL 021420Z 35004KT 290V070 CAVOK 14/M03 Q1011=
202004021450 METAR EDTL 021450Z VRB04KT CAVOK 14/M04 Q1011=
202004161950 METAR EDTL 161950Z 08003KT CAVOK 16/06 Q1015=
202004162020 METAR EDTL 162020Z 13003KT CAVOK 14/07 Q1016=
202004270650 METAR EDTL 270650Z 21006KT 160V230 CAVOK 15/11 Q1010=
202004270720 METAR EDTL 270720Z 22005KT 9999 FEW024 16/11 Q1010=
202004271520 METAR EDTL 271520Z 22005KT 170V290 CAVOK 23/05 Q1007=
202004271550 METAR EDTL 271550Z VRB02KT CAVOK 24/05 Q1007=
202005060350 METAR EDTL 060350Z 35003KT CAVOK 06/01 Q1021=
202005060420 METAR EDTL 060420Z 35003KT CAVOK 06/02 Q1021=
202005060450 METAR EDTL 060450Z 33004KT CAVOK 06/02 Q1021=
202005060520 METAR EDTL 060520Z 32004KT CAVOK 06/02 Q1021=
202005060550 METAR EDTL 060550Z 34006KT CAVOK 07/02 Q1021=
202005060620 METAR EDTL 060620Z 35004KT 310V020 CAVOK 09/03 Q1021=
202005060650 METAR EDTL 060650Z 35006KT CAVOK 09/02 Q1022=
202005060720 METAR EDTL 060720Z 34004KT 310V020 CAVOK 10/02 Q1022=
202005060750 METAR EDTL 060750Z 34005KT CAVOK 10/03 Q1022=
202005060820 METAR EDTL 060820Z 01005KT 340V060 CAVOK 12/03 Q1022=
202005060850 METAR EDTL 060850Z VRB05KT CAVOK 13/03 Q1022=
202005071250 METAR EDTL 071250Z 01007KT 330V050 CAVOK 21/04 Q1022=
202005071320 METAR EDTL 071320Z 04006KT 350V070 CAVOK 21/04 Q1022=
202005071350 METAR EDTL 071350Z 03006KT 340V100 CAVOK 22/05 Q1021=
202005071420 METAR EDTL 071420Z 35006KT 280V050 CAVOK 22/05 Q1021=
202005071450 METAR EDTL 071450Z 02006KT 350V080 CAVOK 22/04 Q1020=
202005071520 METAR EDTL 071520Z 01006KT 340V040 CAVOK 22/04 Q1020=
202005071550 METAR EDTL 071550Z 02006KT 350V060 CAVOK 22/04 Q1020=
202005071620 METAR EDTL 071620Z 02006KT 340V060 CAVOK 22/04 Q1020=
202005071650 METAR EDTL 071650Z 03007KT CAVOK 22/06 Q1019=
202005071720 METAR EDTL 071720Z 02007KT CAVOK 21/06 Q1020=
202005071750 METAR EDTL 071750Z 03005KT CAVOK 21/05 Q1019=
202005071820 METAR EDTL 071820Z 03006KT CAVOK 20/05 Q1019=
202005071850 METAR EDTL 071850Z 35002KT CAVOK 19/05 Q1020=
202005071920 METAR EDTL 071920Z 05002KT CAVOK 19/05 Q1020=
202005080320 METAR EDTL 080320Z 23005KT CAVOK 08/05 Q1019=
202005080350 METAR EDTL 080350Z 32002KT CAVOK 07/05 Q1018=
202005080420 METAR EDTL 080420Z VRB01KT CAVOK 07/06 Q1019=
202005080450 METAR EDTL 080450Z 00000KT CAVOK 11/06 Q1019=
202005080520 METAR EDTL 080520Z VRB01KT CAVOK 11/07 Q1019=
202005080550 METAR EDTL 080550Z 00000KT CAVOK 12/08 Q1019=
202005080620 METAR EDTL 080620Z VRB01KT CAVOK 14/08 Q1019=
202005080650 METAR EDTL 080650Z VRB01KT CAVOK 16/07 Q1019=
202005080720 METAR EDTL 080720Z VRB02KT CAVOK 16/06 Q1019=
202005080750 METAR EDTL 080750Z VRB02KT CAVOK 17/06 Q1019=
202005081050 METAR EDTL 081050Z VRB03KT CAVOK 23/09 Q1017=
202005081120 METAR EDTL 081120Z VRB03KT CAVOK 24/09 Q1017=
202005081150 METAR EDTL 081150Z VRB01KT CAVOK 25/09 Q1016=
202005081220 METAR EDTL 081220Z VRB03KT CAVOK 25/09 Q1016=
202005081250 METAR EDTL 081250Z VRB04KT CAVOK 25/10 Q1016=
202005081320 METAR EDTL 081320Z 35004KT 290V080 CAVOK 26/09 Q1015=
202005081350 METAR EDTL 081350Z VRB02KT CAVOK 26/11 Q1015=
202005081420 METAR EDTL 081420Z VRB03KT CAVOK 26/10 Q1015=
202005081450 METAR EDTL 081450Z VRB03KT CAVOK 25/09 Q1014=
202005091650 METAR EDTL 091650Z 02010KT CAVOK 22/12 Q1009=
202005091720 METAR EDTL 091720Z 02010KT CAVOK 22/11 Q1009=
202005091750 METAR EDTL 091750Z 02008KT CAVOK 21/11 Q1009=
202005111150 METAR EDTL 111150Z 01019KT 7000 -RA FEW009 OVC011 05/04 Q1004=
202005120620 METAR EDTL 120620Z 02007KT 9999 FEW003 04/04 Q1018=
202005120650 METAR EDTL 120650Z 02007KT 350V050 9999 FEW005 06/04 Q1018=
202005120720 METAR EDTL 120720Z 02008KT 9999 FEW016 07/03 Q1018=
202005120750 METAR EDTL 120750Z 02009KT 9999 FEW020 08/03 Q1018=
202005120820 METAR EDTL 120820Z 03008KT 340V060 9999 FEW028 09/02 Q1018=
202005120850 METAR EDTL 120850Z 36009KT 320V040 9999 FEW040 09/02 Q1018=
202005121950 METAR EDTL 121950Z 34005KT CAVOK 10/03 Q1013=
202005122020 METAR EDTL 122020Z VRB02KT CAVOK 09/03 Q1013=
202005122050 METAR EDTL 122050Z 01002KT CAVOK 08/03 Q1013=
202005130520 METAR EDTL 130520Z 03002KT CAVOK 07/05 Q1012=
202005130550 METAR EDTL 130550Z VRB02KT CAVOK 08/05 Q1012=
202005130620 METAR EDTL 130620Z 01004KT CAVOK 08/05 Q1012=
202005130650 METAR EDTL 130650Z 01006KT CAVOK 08/05 Q1012=
202005130720 METAR EDTL 130720Z 01005KT CAVOK 08/05 Q1011=
202005130750 METAR EDTL 130750Z 01007KT CAVOK 09/05 Q1011=
202005130820 METAR EDTL 130820Z 01007KT CAVOK 09/05 Q1010=
202005130850 METAR EDTL 130850Z 35004KT 300V020 CAVOK 10/05 Q1011=
202005131420 METAR EDTL 131420Z 02007KT 9999 FEW003 OVC036 11/08 Q1008=
202005131450 METAR EDTL 131450Z 35004KT 320V030 9999 FEW003 OVC036 11/09
202005140650 METAR EDTL 140650Z 02010KT 9999 OVC059 08/06 Q1015=
202005140750 METAR EDTL 140750Z 02010KT CAVOK 08/06 Q1014=
202005140820 METAR EDTL 140820Z 03009KT 9999 SCT038 OVC057 09/06 Q1015=
202005140850 METAR EDTL 140850Z 02008KT 9999 BKN039 OVC057 09/07 Q1015=
202005140920 METAR EDTL 140920Z 03007KT 9999 OVC034 10/07 Q1015=
202005140950 METAR EDTL 140950Z 03007KT 360V070 9999 FEW029 SCT045 OVC061
202005141020 METAR EDTL 141020Z 02008KT 350V050 9999 SCT017 BKN035 OVC061
202005141050 METAR EDTL 141050Z 36009KT 9999 SCT018 OVC045 11/07 Q1015=
202005141120 METAR EDTL 141120Z 04007KT 360V080 9999 FEW020 OVC044 12/08
202005141150 METAR EDTL 141150Z 02007KT 9999 BKN028 OVC037 12/08 Q1014=
202005141220 METAR EDTL 141220Z 04006KT 360V070 9999 BKN026 OVC034 12/07
202005141250 METAR EDTL 141250Z 05004KT 010V090 9999 BKN032 OVC044 13/07
202005141320 METAR EDTL 141320Z 04003KT 010V090 9999 BKN053 13/08 Q1014=
202005141350 METAR EDTL 141350Z 05004KT 320V100 CAVOK 14/07 Q1013=
202005141420 METAR EDTL 141420Z 06005KT 340V120 CAVOK 15/07 Q1013=
202005141450 METAR EDTL 141450Z 08007KT 030V110 9999 BKN043 BKN053 OVC066
202005150620 METAR EDTL 150620Z 03009KT CAVOK 10/05 Q1014=
202005150650 METAR EDTL 150650Z 03010KT CAVOK 10/05 Q1015=
202005150720 METAR EDTL 150720Z 02008KT CAVOK 10/05 Q1015=
202005150750 METAR EDTL 150750Z 03008KT 340V060 CAVOK 11/06 Q1015=
202005150820 METAR EDTL 150820Z 01007KT 340V070 CAVOK 11/06 Q1016=
202005150850 METAR EDTL 150850Z 02008KT CAVOK 12/06 Q1016=
202005150920 METAR EDTL 150920Z 36007KT CAVOK 12/06 Q1017=
202005150950 METAR EDTL 150950Z 35006KT 310V040 CAVOK 13/07 Q1017=
202005151020 METAR EDTL 151020Z 02006KT 310V080 CAVOK 14/07 Q1017=
202005151050 METAR EDTL 151050Z 36005KT 290V060 CAVOK 14/08 Q1017=
202005151120 METAR EDTL 151120Z 02005KT 310V060 CAVOK 15/08 Q1017=
202005151150 METAR EDTL 151150Z 01004KT 320V070 CAVOK 16/08 Q1018=
202005151220 METAR EDTL 151220Z VRB04KT CAVOK 17/08 Q1018=
202005151250 METAR EDTL 151250Z VRB03KT CAVOK 16/07 Q1018=
202005151320 METAR EDTL 151320Z 02005KT CAVOK 16/06 Q1018=
202005151350 METAR EDTL 151350Z 03006KT 350V080 CAVOK 16/05 Q1018=
202005151420 METAR EDTL 151420Z 03004KT 350V060 CAVOK 17/05 Q1018=
202005151450 METAR EDTL 151450Z 36005KT 290V060 CAVOK 17/06 Q1018=
202005152220 METAR EDTL 152220Z 13003KT CAVOK 11/06 Q1021=
202005152250 METAR EDTL 152250Z VRB02KT CAVOK 10/05 Q1021=
202005160020 METAR EDTL 160020Z VRB03KT CAVOK 07/05 Q1021=
202005160050 METAR EDTL 160050Z 01006KT CAVOK 07/06 Q1021=
202005161720 METAR EDTL 161720Z 02007KT CAVOK 19/06 Q1018=
202005161750 METAR EDTL 161750Z 01006KT CAVOK 18/06 Q1019=
202005161820 METAR EDTL 161820Z 02005KT CAVOK 17/07 Q1018=
202005161850 METAR EDTL 161850Z 01005KT CAVOK 16/07 Q1019=
202005180650 METAR EDTL 180650Z 34003KT 300V020 CAVOK 13/08 Q1024=
202005180720 METAR EDTL 180720Z VRB02KT CAVOK 14/08 Q1024=
202005180750 METAR EDTL 180750Z VRB03KT CAVOK 16/09 Q1025=
202005180820 METAR EDTL 180820Z 33003KT 280V030 CAVOK 16/09 Q1024=
202005180850 METAR EDTL 180850Z 31003KT 240V010 CAVOK 18/08 Q1025=
202005180920 METAR EDTL 180920Z 35004KT 290V030 CAVOK 19/08 Q1024=
202005180950 METAR EDTL 180950Z 34004KT 280V060 CAVOK 20/09 Q1024=
202005181020 METAR EDTL 181020Z 34005KT 290V050 CAVOK 20/08 Q1024=
202005181050 METAR EDTL 181050Z 01005KT 310V060 CAVOK 21/08 Q1024=
202005181120 METAR EDTL 181120Z 32006KT 290V350 CAVOK 22/07 Q1024=
202005181150 METAR EDTL 181150Z 02005KT 330V090 CAVOK 22/07 Q1023=
202005181220 METAR EDTL 181220Z VRB06KT CAVOK 22/07 Q1023=
202005181250 METAR EDTL 181250Z 35006KT 300V040 CAVOK 22/07 Q1023=
202005181320 METAR EDTL 181320Z VRB03KT CAVOK 23/07 Q1022=
202005181350 METAR EDTL 181350Z 32006KT 290V020 CAVOK 23/06 Q1022=
202005181420 METAR EDTL 181420Z 32006KT 000V360 CAVOK 24/04 Q1022=
202005181450 METAR EDTL 181450Z 36006KT 320V040 CAVOK 23/05 Q1022=
202005190650 METAR EDTL 190650Z 01004KT 320V050 CAVOK 16/10 Q1022=
202005190720 METAR EDTL 190720Z VRB03KT CAVOK 17/10 Q1022=
202005190750 METAR EDTL 190750Z 34005KT 260V030 CAVOK 18/11 Q1022=
202005190820 METAR EDTL 190820Z 36006KT 320V040 CAVOK 19/11 Q1021=
202005190850 METAR EDTL 190850Z 01005KT 310V060 CAVOK 20/12 Q1021=
202005190920 METAR EDTL 190920Z 01005KT 330V070 CAVOK 20/12 Q1021=
202005190950 METAR EDTL 190950Z 01005KT 320V080 CAVOK 22/12 Q1021=
202005191020 METAR EDTL 191020Z 34007KT 290V010 CAVOK 23/13 Q1021=
202005191050 METAR EDTL 191050Z 35008KT 320V030 CAVOK 24/12 Q1020=
202005191150 METAR EDTL 191150Z 36008KT 330V050 CAVOK 24/10 Q1020=
202005191220 METAR EDTL 191220Z 36010KT 330V030 CAVOK 25/09 Q1020=
202005191250 METAR EDTL 191250Z 03010KT 360V070 CAVOK 25/10 Q1019=
202005191320 METAR EDTL 191320Z 01010KT 330V050 CAVOK 25/08 Q1019=
202005191350 METAR EDTL 191350Z 02010KT 350V050 CAVOK 26/07 Q1019=
202005191420 METAR EDTL 191420Z 02011KT CAVOK 26/04 Q1019=
202005191450 METAR EDTL 191450Z 01012KT 330V040 CAVOK 26/07 Q1018=
202005200650 METAR EDTL 200650Z 36005KT 330V030 CAVOK 17/11 Q1020=
202005200720 METAR EDTL 200720Z 36004KT 310V050 CAVOK 18/11 Q1020=
202005200750 METAR EDTL 200750Z 01005KT 330V120 CAVOK 19/11 Q1020=
202005200820 METAR EDTL 200820Z 01005KT 320V060 CAVOK 20/11 Q1020=
202005200850 METAR EDTL 200850Z 02006KT 350V060 CAVOK 21/12 Q1020=
202005200920 METAR EDTL 200920Z 02008KT CAVOK 21/11 Q1020=
202005200950 METAR EDTL 200950Z 01006KT 330V070 CAVOK 22/12 Q1020=
202005201020 METAR EDTL 201020Z 36005KT 300V100 CAVOK 23/11 Q1020=
202005201050 METAR EDTL 201050Z 34006KT 310V010 CAVOK 23/11 Q1020=
202005201120 METAR EDTL 201120Z 04005KT 330V120 CAVOK 24/10 Q1020=
202005201150 METAR EDTL 201150Z 04006KT 320V110 CAVOK 24/12 Q1020=
202005201220 METAR EDTL 201220Z 36006KT 320V050 CAVOK 24/12 Q1019=
202005201250 METAR EDTL 201250Z 35009KT 310V030 CAVOK 24/10 Q1019=
202005201320 METAR EDTL 201320Z 02007KT 310V070 CAVOK 25/10 Q1019=
202005201350 METAR EDTL 201350Z 01005KT 310V100 CAVOK 25/10 Q1019=
202005201420 METAR EDTL 201420Z 04007KT 010V090 CAVOK 25/10 Q1019=
202005201450 METAR EDTL 201450Z 03008KT 360V070 CAVOK 24/10 Q1019=
202005210650 METAR EDTL 210650Z 02004KT 340V060 CAVOK 16/12 Q1021=
202005210720 METAR EDTL 210720Z 35003KT 300V060 CAVOK 18/13 Q1021=
202005210750 METAR EDTL 210750Z 36003KT 290V050 CAVOK 19/12 Q1021=
202005210820 METAR EDTL 210820Z 34004KT 270V020 CAVOK 20/13 Q1021=
202005210850 METAR EDTL 210850Z 36004KT 260V070 CAVOK 20/13 Q1021=
202005210920 METAR EDTL 210920Z 01005KT 320V080 CAVOK 22/13 Q1021=
202005210950 METAR EDTL 210950Z 02004KT 310V110 CAVOK 23/13 Q1021=
202005211020 METAR EDTL 211020Z 36005KT 310V050 CAVOK 24/12 Q1021=
202005211050 METAR EDTL 211050Z 03006KT 350V070 CAVOK 24/13 Q1021=
202005211120 METAR EDTL 211120Z 35006KT 290V070 CAVOK 24/12 Q1021=
202005211220 METAR EDTL 211220Z VRB03KT CAVOK 25/12 Q1020=
202005211250 METAR EDTL 211250Z 35005KT 270V030 CAVOK 26/13 Q1020=
202005211320 METAR EDTL 211320Z VRB04KT CAVOK 26/12 Q1020=
202005211350 METAR EDTL 211350Z 01005KT 310V070 CAVOK 26/12 Q1020=
202005211420 METAR EDTL 211420Z VRB05KT CAVOK 27/12 Q1020=
202005211450 METAR EDTL 211450Z 02005KT 290V060 CAVOK 27/13 Q1020=
202005220650 METAR EDTL 220650Z 20005KT CAVOK 19/12 Q1021=
202005220720 METAR EDTL 220720Z 19006KT CAVOK 20/13 Q1021=
202005220750 METAR EDTL 220750Z 16005KT 130V190 CAVOK 21/13 Q1021=
202005220820 METAR EDTL 220820Z 17005KT 130V200 CAVOK 22/13 Q1021=
202005220850 METAR EDTL 220850Z 23006KT 200V260 CAVOK 22/13 Q1022=
202005220920 METAR EDTL 220920Z 22004KT 190V270 CAVOK 23/14 Q1022=
202005220950 METAR EDTL 220950Z 22005KT 170V250 CAVOK 23/15 Q1022=
202005221020 METAR EDTL 221020Z 21006KT 160V250 CAVOK 25/14 Q1022=
202005221050 METAR EDTL 221050Z 22006KT 170V260 CAVOK 25/14 Q1021=
202005221120 METAR EDTL 221120Z 21007KT 180V240 CAVOK 26/14 Q1021=
202005221150 METAR EDTL 221150Z 21008KT 160V250 CAVOK 27/14 Q1021=
202005221220 METAR EDTL 221220Z 20005KT 160V230 CAVOK 27/13 Q1021=
202005221250 METAR EDTL 221250Z 21007KT 170V250 CAVOK 27/13 Q1021=
202005221320 METAR EDTL 221320Z 23005KT 200V260 CAVOK 26/14 Q1021=
202005221350 METAR EDTL 221350Z 21004KT 180V240 CAVOK 26/14 Q1020=
202005221420 METAR EDTL 221420Z 17007KT 130V200 CAVOK 27/12 Q1020=
202005221450 METAR EDTL 221450Z 22005KT CAVOK 26/14 Q1020=
202005230650 METAR EDTL 230650Z 34008KT 310V010 9999 -RA FEW010 BKN023
202005230720 METAR EDTL 230720Z 03004KT 9999 -RA BKN024 17/14 Q1022=
202005230750 METAR EDTL 230750Z 35005KT 9999 FEW010 BKN024 17/13 Q1022=
202005231650 METAR EDTL 231650Z 21005KT 9999 FEW012 SCT080 12/11 Q1030=
202005231720 METAR EDTL 231720Z 20006KT 9999 FEW015 12/10 Q1030=
202005250620 METAR EDTL 250620Z VRB01KT CAVOK 14/09 Q1033=
202005250720 METAR EDTL 250720Z 32004KT 270V020 CAVOK 15/10 Q1033=
202005250750 METAR EDTL 250750Z 01005KT 320V050 CAVOK 15/10 Q1033=
202005250820 METAR EDTL 250820Z 01005KT 340V040 CAVOK 16/11 Q1033=
202005250850 METAR EDTL 250850Z 36004KT 310V050 CAVOK 16/10 Q1033=
202005250920 METAR EDTL 250920Z 03005KT 330V100 9999 SCT029 18/10 Q1033=
202005250950 METAR EDTL 250950Z VRB04KT 9999 FEW031 SCT059 18/11 Q1033=
202005251050 METAR EDTL 251050Z 03006KT 340V080 CAVOK 19/10 Q1033=
202005251120 METAR EDTL 251120Z 04007KT 350V080 9999 SCT041 18/10 Q1033=
202005251150 METAR EDTL 251150Z 36007KT 310V030 CAVOK 19/09 Q1033=
202005251220 METAR EDTL 251220Z 02007KT 330V060 CAVOK 19/08 Q1032=
202005251250 METAR EDTL 251250Z 36008KT 320V030 CAVOK 19/08 Q1032=
202005251320 METAR EDTL 251320Z 36008KT CAVOK 19/09 Q1032=
202005251350 METAR EDTL 251350Z 02009KT 340V040 CAVOK 19/09 Q1032=
202005251420 METAR EDTL 251420Z 01009KT 310V040 CAVOK 19/09 Q1032=
202005251450 METAR EDTL 251450Z 36006KT 310V060 CAVOK 20/10 Q1032=
202005260650 METAR EDTL 260650Z 35005KT 310V040 CAVOK 13/10 Q1033=
202005260720 METAR EDTL 260720Z 36005KT 330V040 CAVOK 14/10 Q1033=
202005260750 METAR EDTL 260750Z 36006KT 330V040 CAVOK 16/10 Q1033=
202005260820 METAR EDTL 260820Z 36005KT 290V080 CAVOK 17/10 Q1033=
202005260850 METAR EDTL 260850Z 36006KT 320V040 CAVOK 17/10 Q1033=
202005260920 METAR EDTL 260920Z 01009KT 330V060 CAVOK 18/09 Q1033=
202005260950 METAR EDTL 260950Z 36007KT 310V050 CAVOK 19/08 Q1033=
202005261020 METAR EDTL 261020Z 36009KT 330V050 CAVOK 19/08 Q1033=
202005261050 METAR EDTL 261050Z 35010KT 310V010 CAVOK 20/08 Q1033=
202005261120 METAR EDTL 261120Z 34010KT 320V020 CAVOK 20/09 Q1032=
202005261150 METAR EDTL 261150Z 36011KT 320V030 CAVOK 20/08 Q1032=
202005261220 METAR EDTL 261220Z 36010KT 310V030 CAVOK 20/07 Q1032=
202005261250 METAR EDTL 261250Z 02012KT 350V060 CAVOK 21/05 Q1032=
202005261320 METAR EDTL 261320Z 01011KT 340V040 CAVOK 21/06 Q1032=
202005261350 METAR EDTL 261350Z 04011KT CAVOK 21/08 Q1032=
202005261420 METAR EDTL 261420Z 36012KT CAVOK 22/08 Q1032=
202005261450 METAR EDTL 261450Z 01011KT 330V040 CAVOK 21/07 Q1032=
202005270650 METAR EDTL 270650Z 34004KT 280V030 CAVOK 13/09 Q1033=
202005270720 METAR EDTL 270720Z 01005KT 340V040 CAVOK 14/09 Q1032=
202005270750 METAR EDTL 270750Z 02004KT 330V070 CAVOK 16/09 Q1032=
202005270820 METAR EDTL 270820Z 01006KT 320V050 CAVOK 17/10 Q1032=
202005270850 METAR EDTL 270850Z 02007KT 340V060 CAVOK 19/09 Q1032=
202005270920 METAR EDTL 270920Z 36008KT 330V030 CAVOK 19/09 Q1032=
202005270950 METAR EDTL 270950Z 02008KT 330V050 CAVOK 20/09 Q1032=
202005271020 METAR EDTL 271020Z 35008KT 310V030 CAVOK 21/08 Q1032=
202005271050 METAR EDTL 271050Z 35009KT 270V040 CAVOK 21/09 Q1031=
202005271120 METAR EDTL 271120Z 35007KT 290V070 CAVOK 22/08 Q1031=
202005271150 METAR EDTL 271150Z 01010KT 330V050 CAVOK 22/07 Q1031=
202005271220 METAR EDTL 271220Z 36010KT 330V040 CAVOK 22/08 Q1031=
202005271250 METAR EDTL 271250Z 01008KT 330V060 CAVOK 23/08 Q1030=
202005271320 METAR EDTL 271320Z 33011KT 310V010 CAVOK 23/07 Q1030=
202005271350 METAR EDTL 271350Z 35011KT 330V030 CAVOK 23/07 Q1030=
202005271420 METAR EDTL 271420Z 34011KT 320V020 CAVOK 23/06 Q1030=
202005271450 METAR EDTL 271450Z 36009KT 310V040 CAVOK 24/08 Q1030=
202005280650 METAR EDTL 280650Z 01004KT 340V040 CAVOK 16/09 Q1029=
202005280720 METAR EDTL 280720Z 01011KT CAVOK 17/10 Q1029=
202005280750 METAR EDTL 280750Z 36009KT 330V060 CAVOK 18/11 Q1029=
202005280820 METAR EDTL 280820Z 02009KT CAVOK 19/11 Q1029=
202005280850 METAR EDTL 280850Z 01009KT 330V030 CAVOK 19/11 Q1029=
202005280920 METAR EDTL 280920Z 03008KT 350V070 CAVOK 20/12 Q1028=
202005280950 METAR EDTL 280950Z 01009KT 330V050 CAVOK 20/12 Q1028=
202005281020 METAR EDTL 281020Z 02011KT 340V050 CAVOK 21/10 Q1028=
202005281050 METAR EDTL 281050Z 36012KT CAVOK 21/11 Q1028=
202005281120 METAR EDTL 281120Z 01012G23KT 330V050 CAVOK 22/10 Q1028=
202005281150 METAR EDTL 281150Z 01012KT 330V060 CAVOK 22/11 Q1027=
202005281220 METAR EDTL 281220Z 01013KT 330V040 CAVOK 23/11 Q1027=
202005281250 METAR EDTL 281250Z 02014KT CAVOK 23/12 Q1027=
202005281320 METAR EDTL 281320Z 02015KT CAVOK 22/10 Q1027=
202005281350 METAR EDTL 281350Z 01014KT 340V040 CAVOK 23/11 Q1026=
202005281420 METAR EDTL 281420Z 01015KT 340V040 CAVOK 23/09 Q1026=
202005281450 METAR EDTL 281450Z 02013KT 340V050 CAVOK 23/09 Q1026=
202005290650 METAR EDTL 290650Z 02008KT CAVOK 15/05 Q1026=
202005290720 METAR EDTL 290720Z 02009KT CAVOK 16/06 Q1026=
202005290750 METAR EDTL 290750Z 02010KT CAVOK 17/05 Q1025=
202005290820 METAR EDTL 290820Z 02009KT 340V080 CAVOK 17/06 Q1025=
202005290850 METAR EDTL 290850Z 02008KT 340V060 CAVOK 19/06 Q1025=
202005290920 METAR EDTL 290920Z 09011KT 050V120 CAVOK 19/05 Q1025=
202005290950 METAR EDTL 290950Z 08008KT 030V120 CAVOK 20/06 Q1024=
202005291020 METAR EDTL 291020Z 09008KT 050V130 CAVOK 20/04 Q1024=
202005291050 METAR EDTL 291050Z 06010KT 030V120 CAVOK 21/05 Q1024=
202005291120 METAR EDTL 291120Z 08008KT 040V120 CAVOK 21/04 Q1024=
202005291150 METAR EDTL 291150Z 08008KT 020V110 CAVOK 21/05 Q1023=
202005291220 METAR EDTL 291220Z 10011KT 060V140 CAVOK 21/06 Q1023=
202005291250 METAR EDTL 291250Z 08010KT 030V130 CAVOK 22/05 Q1023=
202005291320 METAR EDTL 291320Z 08010KT 040V110 CAVOK 21/04 Q1022=
202005291350 METAR EDTL 291350Z 06008KT 020V110 CAVOK 21/04 Q1022=
202005291420 METAR EDTL 291420Z 08010KT 040V130 CAVOK 22/04 Q1022=
202005291450 METAR EDTL 291450Z 08010KT 020V110 CAVOK 22/04 Q1021=
202005292120 METAR EDTL 292120Z VRB02KT CAVOK 15/05 Q1021=
202005292150 METAR EDTL 292150Z 04004KT CAVOK 13/06 Q1021=
202005292220 METAR EDTL 292220Z VRB02KT CAVOK 14/06 Q1021=
202005311150 METAR EDTL 311150Z 36011KT 320V040 CAVOK 21/07 Q1018=
202005311220 METAR EDTL 311220Z 34010G22KT 310V030 CAVOK 21/08 Q1018=
202005311250 METAR EDTL 311250Z 36008KT 320V100 CAVOK 22/07 Q1018=
202005311320 METAR EDTL 311320Z 36007KT 290V070 CAVOK 22/07 Q1018=
202005311350 METAR EDTL 311350Z 35009KT 300V040 CAVOK 22/05 Q1018=
202006010620 METAR EDTL 010620Z 02005KT 350V070 CAVOK 16/07 Q1019=
202006010650 METAR EDTL 010650Z 01006KT 340V040 CAVOK 16/07 Q1019=
202006010720 METAR EDTL 010720Z 36008KT CAVOK 18/08 Q1019=
202006010750 METAR EDTL 010750Z 02007KT 350V060 CAVOK 19/08 Q1019=
202006010820 METAR EDTL 010820Z 03006KT 350V080 CAVOK 20/08 Q1019=
202006010850 METAR EDTL 010850Z 36008KT 330V040 CAVOK 21/09 Q1019=
202006010920 METAR EDTL 010920Z 01009KT 330V030 CAVOK 22/10 Q1019=
202006010950 METAR EDTL 010950Z 02007KT 330V060 CAVOK 22/10 Q1019=
202006011020 METAR EDTL 011020Z 01007KT 320V050 CAVOK 23/10 Q1019=
202006011050 METAR EDTL 011050Z 01006KT 270V070 CAVOK 24/10 Q1018=
202006011120 METAR EDTL 011120Z 35006KT 300V040 CAVOK 24/10 Q1018=
202006011150 METAR EDTL 011150Z 01008KT 330V050 CAVOK 26/10 Q1018=
202006011220 METAR EDTL 011220Z 02008KT 320V090 CAVOK 26/10 Q1018=
202006011250 METAR EDTL 011250Z 06006KT 320V120 CAVOK 26/09 Q1017=
202006011320 METAR EDTL 011320Z VRB05KT CAVOK 27/08 Q1017=
202006011350 METAR EDTL 011350Z 08006KT 020V130 CAVOK 27/09 Q1017=
202006011420 METAR EDTL 011420Z VRB04KT CAVOK 26/07 Q1017=
202006011450 METAR EDTL 011450Z 07007KT 010V120 CAVOK 27/06 Q1017=
202006011520 METAR EDTL 011520Z VRB03KT CAVOK 27/06 Q1016=
202006011550 METAR EDTL 011550Z 04007KT 350V110 CAVOK 27/06 Q1016=
202006020620 METAR EDTL 020620Z VRB02KT CAVOK 17/09 Q1018=
202006020650 METAR EDTL 020650Z VRB03KT CAVOK 17/09 Q1018=
202006020720 METAR EDTL 020720Z 33004KT 000V360 CAVOK 19/09 Q1018=
202006020750 METAR EDTL 020750Z 01004KT 290V080 CAVOK 21/10 Q1018=
202006020820 METAR EDTL 020820Z 36005KT 320V060 CAVOK 21/10 Q1017=
202006020850 METAR EDTL 020850Z 36005KT 310V040 CAVOK 22/10 Q1017=
202006020920 METAR EDTL 020920Z 36006KT 310V030 CAVOK 23/10 Q1017=
202006020950 METAR EDTL 020950Z 01006KT 330V050 CAVOK 25/12 Q1017=
202006021020 METAR EDTL 021020Z 01006KT 310V060 CAVOK 25/11 Q1016=
202006021050 METAR EDTL 021050Z 02009KT 340V050 CAVOK 26/09 Q1016=
202006021120 METAR EDTL 021120Z 01008KT 330V060 CAVOK 26/10 Q1016=
202006021150 METAR EDTL 021150Z 01009KT 330V050 CAVOK 26/10 Q1015=
202006021220 METAR EDTL 021220Z 02008KT 330V080 CAVOK 26/09 Q1015=
202006021250 METAR EDTL 021250Z 04008KT 350V090 CAVOK 27/09 Q1015=
202006021320 METAR EDTL 021320Z 02008KT 340V070 CAVOK 27/09 Q1014=
202006021350 METAR EDTL 021350Z VRB08KT CAVOK 27/09 Q1014=
202006021420 METAR EDTL 021420Z 36005KT 290V050 CAVOK 27/09 Q1014=
202006021450 METAR EDTL 021450Z 01005KT 290V090 CAVOK 28/10 Q1013=
202006030620 METAR EDTL 030620Z 23004KT 180V270 CAVOK 19/11 Q1008=
202006030650 METAR EDTL 030650Z 19006KT 160V220 CAVOK 20/12 Q1008=
202006030720 METAR EDTL 030720Z 17006KT CAVOK 22/12 Q1007=
202006030750 METAR EDTL 030750Z 20005KT 170V240 CAVOK 23/12 Q1007=
202006030820 METAR EDTL 030820Z 21007KT 180V250 CAVOK 24/11 Q1007=
202006030850 METAR EDTL 030850Z 21008KT 180V240 CAVOK 24/12 Q1007=
202006030920 METAR EDTL 030920Z 22005KT 170V260 CAVOK 25/11 Q1006=
202006030950 METAR EDTL 030950Z 23004KT 190V280 CAVOK 26/12 Q1006=
202006031020 METAR EDTL 031020Z VRB03KT 9999 VCSH NSC 25/11 Q1006=
202006031050 METAR EDTL 031050Z 23014KT 9999 VCSH NSC 22/10 Q1006=
202006031120 METAR EDTL 031120Z 16011KT 140V200 CAVOK 26/08 Q1005=
202006031150 METAR EDTL 031150Z 16011KT CAVOK 24/09 Q1004=
202006031220 METAR EDTL 031220Z 17009KT 150V210 CAVOK 27/08 Q1004=
202006031250 METAR EDTL 031250Z 19010KT CAVOK 25/06 Q1004=
202006031320 METAR EDTL 031320Z 22007KT CAVOK 26/10 Q1003=
202006031350 METAR EDTL 031350Z VRB03KT CAVOK 26/09 Q1003=
202006031420 METAR EDTL 031420Z VRB03KT CAVOK 27/09 Q1003=
202006031450 METAR EDTL 031450Z VRB02KT CAVOK 28/09 Q1002=
202006031820 METAR EDTL 031820Z 09005KT 060V120 CAVOK 19/13 Q1002=
202006031850 METAR EDTL 031850Z 18008KT CAVOK 18/14 Q1002=
202006040650 METAR EDTL 040650Z 20010KT 9999 -DZ SCT035 BKN074 OVC090
202006040720 METAR EDTL 040720Z 21010KT 9999 -DZ BKN012 OVC070 16/15 Q0998=
202006040750 METAR EDTL 040750Z 19009KT 9999 BKN010 OVC013 16/14 Q0998=
202006040820 METAR EDTL 040820Z 20011KT 9999 SCT011 OVC076 16/14 Q0998=
202006040850 METAR EDTL 040850Z 20007KT 9999 SCT013 BKN019 OVC072 17/14
202006040920 METAR EDTL 040920Z 20010KT 9999 BKN014 BKN100 18/14 Q0998=
202006040950 METAR EDTL 040950Z 20009KT 160V230 9999 FEW016 SCT019 BKN053
202006041020 METAR EDTL 041020Z 19009KT 160V230 9999 SCT015 BKN049 BKN061
202006041050 METAR EDTL 041050Z 22008KT 180V260 9999 VCSH SCT002 BKN016
202006041120 METAR EDTL 041120Z 30005KT 000V360 9999 FEW005 BKN036 16/14
202006041150 METAR EDTL 041150Z 30004KT 9999 FEW043 SCT057 BKN082 17/15
202006041220 METAR EDTL 041220Z 09003KT 050V120 9999 -RA FEW045 SCT072
202006041250 METAR EDTL 041250Z 10005KT 070V130 7000 VCSH FEW016 BKN062
202006041320 METAR EDTL 041320Z 12003KT 9999 VCSH BKN048 BKN200 18/16
202006041350 METAR EDTL 041350Z VRB02KT 9999 SCT044 BKN062 18/15 Q0996=
202006041420 METAR EDTL 041420Z 16005KT 120V230 9999 SHRA FEW004 BKN040CB
202006041450 METAR EDTL 041450Z 20006KT CAVOK 16/13 Q0996=
202006041520 METAR EDTL 041520Z 21008KT CAVOK 18/12 Q0996=
202006050650 METAR EDTL 050650Z 18003KT 9999 -RA OVC048 12/10 Q1001=
202006050720 METAR EDTL 050720Z 19005KT 9999 BKN042 OVC055 12/10 Q1001=
202006050750 METAR EDTL 050750Z 20006KT 9999 FEW030 BKN048 12/10 Q1001=
202006050820 METAR EDTL 050820Z 20006KT 9999 SCT049 OVC062 12/11 Q1001=
202006050850 METAR EDTL 050850Z 18007KT 9999 FEW025 BKN046 12/11 Q1001=
202006050920 METAR EDTL 050920Z 18007KT 9999 BKN049 OVC084 12/11 Q1001=
202006050950 METAR EDTL 050950Z 18006KT 9999 BKN046 13/11 Q1001=
202006051020 METAR EDTL 051020Z 27005KT 9999 VCSH FEW003 SCT012 BKN017
202006051050 METAR EDTL 051050Z 23009KT 9999 SHRA FEW019 OVC057 13/10
202006051120 METAR EDTL 051120Z 22010KT 9999 BKN047 OVC110 14/09 Q1001=
202006051150 METAR EDTL 051150Z 22014KT 9999 FEW048 OVC100 15/08 Q1001=
202006051220 METAR EDTL 051220Z 21015KT 9999 OVC047 15/08 Q1001=
202006051250 METAR EDTL 051250Z 21014KT 160V230 9999 OVC046 15/09 Q1000=
202006051320 METAR EDTL 051320Z 21019KT 9999 OVC047 15/09 Q1001=
202006051350 METAR EDTL 051350Z 21019KT 9999 OVC042 15/09 Q1001=
202006051420 METAR EDTL 051420Z 21015KT 9999 OVC045 15/09 Q1001=
202006051450 METAR EDTL 051450Z 21019G30KT 9999 FEW033 BKN047 OVC055 15/09
202006051520 METAR EDTL 051520Z 21019KT 9999 FEW022 OVC048 16/09 Q1001=
202006051550 METAR EDTL 051550Z 21018KT 9999 FEW030 OVC053 16/09 Q1001=
202006051650 METAR EDTL 051650Z 21019KT 9999 FEW038 BKN055 OVC066 15/10
202006051720 METAR EDTL 051720Z 21019KT 9999 FEW019 BKN051 OVC072 15/10
202006051750 METAR EDTL 051750Z 21019KT 9999 FEW033 OVC047 15/10 Q1001=
202006052150 METAR EDTL 052150Z 25002KT 9999 -RA FEW016 BKN030 OVC037
202006061250 METAR EDTL 061250Z 16005KT 9999 FEW027 OVC046 13/12 Q1006=
202006061320 METAR EDTL 061320Z 15006KT 9999 FEW014 OVC044 14/12 Q1006=
202006061350 METAR EDTL 061350Z 16005KT 140V200 9999 -RA FEW014 BKN040
202006061420 METAR EDTL 061420Z 15008KT 9999 FEW016 BKN036 OVC049 14/13
202006061450 METAR EDTL 061450Z 18007KT 140V200 9999 FEW013 SCT036 OVC062
202006080650 METAR EDTL 080650Z 33003KT 300V010 CAVOK 13/11 Q1013=
202006080720 METAR EDTL 080720Z VRB02KT CAVOK 13/10 Q1013=
202006080750 METAR EDTL 080750Z VRB03KT CAVOK 14/10 Q1013=
202006080820 METAR EDTL 080820Z VRB03KT CAVOK 15/10 Q1013=
202006080850 METAR EDTL 080850Z 35005KT 300V050 CAVOK 16/11 Q1013=
202006080920 METAR EDTL 080920Z 01006KT 310V050 CAVOK 17/10 Q1013=
202006080950 METAR EDTL 080950Z 01007KT 310V060 CAVOK 18/10 Q1013=
202006081020 METAR EDTL 081020Z 03007KT 350V080 CAVOK 19/11 Q1013=
202006081050 METAR EDTL 081050Z 02008KT 340V060 CAVOK 19/09 Q1013=
202006081120 METAR EDTL 081120Z 02009KT 350V060 9999 SCT041 18/09 Q1013=
202006081150 METAR EDTL 081150Z 05010KT 020V100 CAVOK 19/08 Q1012=
202006081220 METAR EDTL 081220Z 04008KT 350V130 CAVOK 20/08 Q1012=
202006081250 METAR EDTL 081250Z 02008KT 330V050 CAVOK 20/08 Q1012=
202006081320 METAR EDTL 081320Z 01007KT 330V060 CAVOK 21/08 Q1012=
202006081350 METAR EDTL 081350Z 35008KT 310V040 CAVOK 20/06 Q1012=
202006081420 METAR EDTL 081420Z 35008KT 320V040 CAVOK 20/07 Q1012=
202006081450 METAR EDTL 081450Z 01007KT 320V050 CAVOK 20/07 Q1012=
202006090650 METAR EDTL 090650Z VRB03KT CAVOK 14/10 Q1014=
202006090720 METAR EDTL 090720Z 07003KT 030V090 CAVOK 14/10 Q1014=
202006090750 METAR EDTL 090750Z VRB03KT CAVOK 14/12 Q1015=
202006090820 METAR EDTL 090820Z 35003KT 9999 -DZ SCT027 BKN055 14/11 Q1015=
202006090850 METAR EDTL 090850Z 36005KT 9999 -DZ SCT047 BKN210 15/12 Q1015=
202006090920 METAR EDTL 090920Z 02007KT 9999 FEW042 OVC076 15/11 Q1015=
202006090950 METAR EDTL 090950Z 02009KT 9999 FEW015 OVC062 15/11 Q1015=
202006091020 METAR EDTL 091020Z 02008KT 9999 SCT014 OVC066 15/11 Q1015=
202006091050 METAR EDTL 091050Z 01009KT 9999 -DZ FEW016 OVC049 15/11 Q1015=
202006091120 METAR EDTL 091120Z 02008KT 9999 -DZ FEW018 OVC044 15/11 Q1015=
202006091150 METAR EDTL 091150Z 01010KT 9999 FEW020 OVC040 15/11 Q1015=
202006091220 METAR EDTL 091220Z 02007KT 350V060 9999 BKN037 15/11 Q1015=
202006091250 METAR EDTL 091250Z 02010KT 9999 FEW015 OVC036 15/11 Q1015=
202006091320 METAR EDTL 091320Z 01008KT 9999 -DZ OVC039 14/12 Q1015=
202006091350 METAR EDTL 091350Z 02008KT 8000 -DZ FEW017 OVC041 14/12 Q1015=
202006091420 METAR EDTL 091420Z 02009KT 9999 FEW016 OVC039 15/12 Q1014=
202006091450 METAR EDTL 091450Z 03008KT 9999 FEW015 OVC038 15/12 Q1014=
202006091850 METAR EDTL 091850Z 00000KT 9999 OVC040 15/12 Q1014=
202006091920 METAR EDTL 091920Z 35002KT 9999 BKN044 OVC059 15/13 Q1014=
202006091950 METAR EDTL 091950Z 00000KT CAVOK 15/13 Q1015=
202006092020 METAR EDTL 092020Z 32003KT CAVOK 14/13 Q1015=
202006092050 METAR EDTL 092050Z 29002KT 8000 FEW019 OVC062 14/13 Q1015=
202006100650 METAR EDTL 100650Z 02007KT 360V060 9999 SCT014 BKN036 15/12
202006100720 METAR EDTL 100720Z 01008KT 9999 FEW016 SCT021 BKN037 15/12
202006100750 METAR EDTL 100750Z 36008KT 9999 BKN016 OVC092 15/12 Q1014=
202006100820 METAR EDTL 100820Z 35007KT 9999 SCT016 OVC034 15/12 Q1014=
202006100850 METAR EDTL 100850Z 35007KT 9999 SCT018 OVC028 15/12 Q1014=
202006100920 METAR EDTL 100920Z 36009KT 9999 BKN019 OVC027 16/12 Q1014=
202006100950 METAR EDTL 100950Z 36008KT 9999 BKN018 OVC024 16/12 Q1014=
202006101020 METAR EDTL 101020Z 01008KT 8000 -DZ FEW016 SCT021 BKN029
202006101050 METAR EDTL 101050Z 02008KT 5000 -DZ BR BKN020 16/14 Q1013=
202006101120 METAR EDTL 101120Z 01006KT 9999 FEW018 BKN036 OVC170 15/13
202006101150 METAR EDTL 101150Z 02007KT 350V060 9999 BKN018 OVC023 16/13
202006101220 METAR EDTL 101220Z 02007KT 350V060 9999 OVC019 16/13 Q1013=
202006101250 METAR EDTL 101250Z 01006KT 340V060 9999 SCT018 OVC038 17/13
202006101320 METAR EDTL 101320Z 04006KT 010V080 9999 FEW016 BKN034 17/12
202006101350 METAR EDTL 101350Z 04006KT 010V080 9999 FEW016 BKN024 OVC094
202006101420 METAR EDTL 101420Z 04006KT 9999 SCT019 OVC043 16/12 Q1013=
202006101450 METAR EDTL 101450Z 05006KT 010V090 9999 FEW020 SCT035 BKN051
202006101520 METAR EDTL 101520Z 05007KT 010V090 9999 FEW017 SCT053 BKN100
202006101550 METAR EDTL 101550Z 03006KT 360V070 9999 FEW020 SCT055 BKN100
202006101620 METAR EDTL 101620Z 03007KT 360V070 9999 FEW021 SCT037 OVC055
202006110650 METAR EDTL 110650Z VRB03KT 9000 SCT010 BKN110 15/14 Q1010=
202006110720 METAR EDTL 110720Z 01005KT 340V050 9999 FEW011 SCT035 BKN110
202006110750 METAR EDTL 110750Z 03005KT 330V090 9999 FEW014 BKN035 16/12
202006110820 METAR EDTL 110820Z 01005KT 340V040 9999 BKN034 BKN110 17/12
202006110850 METAR EDTL 110850Z 36004KT 290V110 CAVOK 18/12 Q1009=
202006110920 METAR EDTL 110920Z 36004KT 310V070 9999 SCT028 17/12 Q1009=
202006110950 METAR EDTL 110950Z 33005KT 260V070 CAVOK 18/11 Q1009=
202006111020 METAR EDTL 111020Z 02004KT 330V080 9999 FEW029 SCT037 BKN057
202006111050 METAR EDTL 111050Z VRB03KT 9999 SCT029 OVC061 18/11 Q1009=
202006111120 METAR EDTL 111120Z VRB03KT 9999 SCT030 BKN037 17/11 Q1009=
202006111150 METAR EDTL 111150Z 05003KT 320V120 9999 FEW028 SCT040 OVC051
202006111220 METAR EDTL 111220Z 03003KT CAVOK 17/12 Q1009=
202006111250 METAR EDTL 111250Z 04005KT CAVOK 18/13 Q1009=
202006111320 METAR EDTL 111320Z 02006KT 360V080 CAVOK 19/13 Q1009=
202006111350 METAR EDTL 111350Z 02007KT 350V070 CAVOK 20/13 Q1008=
202006111420 METAR EDTL 111420Z 01007KT 330V050 CAVOK 20/13 Q1008=
202006111450 METAR EDTL 111450Z 01007KT 320V050 CAVOK 20/12 Q1008=
202006120650 METAR EDTL 120650Z 02005KT CAVOK 16/13 Q1006=
202006120720 METAR EDTL 120720Z 02004KT 340V070 CAVOK 18/14 Q1006=
202006120750 METAR EDTL 120750Z 01005KT 320V040 CAVOK 19/14 Q1006=
202006120820 METAR EDTL 120820Z 35004KT 310V040 CAVOK 20/14 Q1006=
202006120850 METAR EDTL 120850Z 01007KT 330V060 CAVOK 21/15 Q1005=
202006120920 METAR EDTL 120920Z 02006KT 330V060 CAVOK 22/16 Q1005=
202006120950 METAR EDTL 120950Z 01006KT 340V050 CAVOK 23/16 Q1005=
202006121020 METAR EDTL 121020Z 36008KT 310V040 CAVOK 23/15 Q1005=
202006121050 METAR EDTL 121050Z 35007KT 310V060 CAVOK 24/16 Q1004=
202006121120 METAR EDTL 121120Z 36008KT 330V040 CAVOK 25/16 Q1004=
202006121150 METAR EDTL 121150Z 02008KT 320V060 CAVOK 26/16 Q1004=
202006121220 METAR EDTL 121220Z 01008KT 340V040 CAVOK 27/15 Q1003=
202006121250 METAR EDTL 121250Z 02009KT 340V060 CAVOK 27/14 Q1003=
202006121320 METAR EDTL 121320Z 36010KT 330V050 CAVOK 27/15 Q1003=
202006121350 METAR EDTL 121350Z 02011KT CAVOK 27/15 Q1003=
202006121420 METAR EDTL 121420Z 36009KT 330V040 CAVOK 28/15 Q1003=
202006121450 METAR EDTL 121450Z 03007KT 340V090 CAVOK 28/14 Q1002=
202006121520 METAR EDTL 121520Z 36008KT CAVOK 28/14 Q1003=
202006121550 METAR EDTL 121550Z 34009KT 310V010 CAVOK 28/12 Q1002=
202006131550 METAR EDTL 131550Z 02007KT 360V060 CAVOK 25/12 Q1010=
202006131620 METAR EDTL 131620Z 36007KT CAVOK 23/12 Q1010=
202006131650 METAR EDTL 131650Z 35006KT 310V030 CAVOK 23/13 Q1010=
202006131720 METAR EDTL 131720Z 31008KT CAVOK 23/12 Q1010=
202006131750 METAR EDTL 131750Z 31010KT CAVOK 22/13 Q1011=
202006131820 METAR EDTL 131820Z 24008KT 190V310 CAVOK 20/13 Q1012=
202006131850 METAR EDTL 131850Z 19013KT CAVOK 18/14 Q1013=
202006151220 METAR EDTL 151220Z VRB03KT CAVOK 23/13 Q1018=
202006151250 METAR EDTL 151250Z 30004KT 230V010 CAVOK 22/12 Q1018=
202006151320 METAR EDTL 151320Z 32004KT 230V030 CAVOK 21/11 Q1018=
202006151350 METAR EDTL 151350Z VRB03KT CAVOK 21/12 Q1018=
202006151420 METAR EDTL 151420Z VRB01KT CAVOK 22/12 Q1017=
202006151450 METAR EDTL 151450Z 16003KT 060V220 CAVOK 22/14 Q1017=
202006161720 METAR EDTL 161720Z VRB03KT 9999 VCSH BKN037 BKN046 OVC100
202006161750 METAR EDTL 161750Z VRB02KT 9999 VCSH SCT042 BKN098 21/13
202006161820 METAR EDTL 161820Z 03005KT 9999 SCT042 BKN091 20/14 Q1013=
202006170650 METAR EDTL 170650Z 34003KT 320V040 CAVOK 16/15 Q1012=
202006170720 METAR EDTL 170720Z VRB03KT 9999 BKN008 OVC068 17/15 Q1012=
202006170750 METAR EDTL 170750Z VRB03KT 9999 SCT008 BKN010 OVC066 17/15
202006170820 METAR EDTL 170820Z VRB02KT 7000 -DZ FEW009 SCT047 BKN066
202006170850 METAR EDTL 170850Z 00000KT 7000 -RA FEW012 SCT038 BKN051
202006170920 METAR EDTL 170920Z 00000KT 7000 -RA FEW008 SCT013 OVC041
202006170950 METAR EDTL 170950Z VRB02KT 9999 -RA FEW009 SCT015 BKN031
202006171020 METAR EDTL 171020Z 02004KT 340V070 9999 SCT011 BKN034 18/16
202006171050 METAR EDTL 171050Z 35004KT 310V030 9999 SCT010 BKN074 BKN220
202006171120 METAR EDTL 171120Z 32004KT 000V360 9999 BKN013 BKN074 18/16
202006171150 METAR EDTL 171150Z 31003KT 280V010 6000 -RA SCT015 OVC029
202006171220 METAR EDTL 171220Z 20009KT 6000 RA SCT003 BKN011 OVC027 16/15
202006171250 METAR EDTL 171250Z 21011KT 2500 RA OVC002 16/15 Q1011=
202006171320 METAR EDTL 171320Z 19010KT 6000 -RA SCT002 BKN005 BKN007
202006171350 METAR EDTL 171350Z 21008KT 7000 -RA SCT003 BKN007 OVC010
202006171420 METAR EDTL 171420Z 21011KT 7000 -RA BKN003 OVC029 16/15 Q1012=
202006171450 METAR EDTL 171450Z 20010KT 7000 -RA SCT002 BKN008 BKN026
202006180520 METAR EDTL 180520Z VRB01KT CAVOK 13/12 Q1014=
202006180550 METAR EDTL 180550Z 20005KT CAVOK 15/13 Q1014=
202006190650 METAR EDTL 190650Z 22006KT CAVOK 16/13 Q1017=
202006190720 METAR EDTL 190720Z 22006KT CAVOK 17/13 Q1018=
202006190750 METAR EDTL 190750Z 21007KT 180V240 CAVOK 17/13 Q1018=
202006190820 METAR EDTL 190820Z 22005KT 200V260 CAVOK 17/13 Q1018=
202006190850 METAR EDTL 190850Z 23005KT CAVOK 18/13 Q1018=
202006190920 METAR EDTL 190920Z VRB03KT CAVOK 18/12 Q1018=
202006190950 METAR EDTL 190950Z VRB02KT CAVOK 19/12 Q1018=
202006191020 METAR EDTL 191020Z VRB03KT CAVOK 19/13 Q1018=
202006191050 METAR EDTL 191050Z VRB03KT CAVOK 19/13 Q1018=
202006191120 METAR EDTL 191120Z 19004KT 150V230 CAVOK 19/12 Q1018=
202006191150 METAR EDTL 191150Z 21004KT 110V260 9999 FEW042 BKN170 20/13
202006191220 METAR EDTL 191220Z 20004KT 160V270 9999 SCT035 BKN046 19/12
202006191250 METAR EDTL 191250Z 21006KT CAVOK 20/13 Q1018=
202006191320 METAR EDTL 191320Z 20005KT 160V250 9999 FEW047 BKN090 20/14
202006191350 METAR EDTL 191350Z 17006KT 150V220 9999 FEW042 BKN098 19/12
202006191420 METAR EDTL 191420Z 18005KT 140V220 CAVOK 20/12 Q1018=
202006191450 METAR EDTL 191450Z 20004KT 150V240 CAVOK 21/11 Q1018=
202006240520 METAR EDTL 240520Z VRB03KT CAVOK 17/12 Q1021=
202006240550 METAR EDTL 240550Z VRB02KT CAVOK 17/12 Q1021=
202006240620 METAR EDTL 240620Z VRB03KT CAVOK 18/13 Q1021=
202006241520 METAR EDTL 241520Z 02013KT CAVOK 29/10 Q1018=
202006241550 METAR EDTL 241550Z 01013KT CAVOK 29/10 Q1018=
202006251420 METAR EDTL 251420Z 36009KT 330V050 CAVOK 28/14 Q1015=
202006251450 METAR EDTL 251450Z 01008KT 350V070 CAVOK 29/14 Q1015=
202006251520 METAR EDTL 251520Z 01008KT CAVOK 28/14 Q1015=
202006251550 METAR EDTL 251550Z 01009KT 340V040 CAVOK 28/14 Q1015=
202006260820 METAR EDTL 260820Z 22012KT CAVOK 22/16 Q1014=
202006261220 METAR EDTL 261220Z 18008KT 150V220 CAVOK 28/18 Q1013=
202006261250 METAR EDTL 261250Z 19008KT 150V230 CAVOK 29/17 Q1013=
202006261320 METAR EDTL 261320Z 21011KT 9999 VCTS NSC 27/17 Q1013=
202006261350 METAR EDTL 261350Z 19008KT 160V230 9999 VCTS NSC 26/18 Q1013=
202006261420 METAR EDTL 261420Z 24010KT CAVOK 24/17 Q1014=
202006261450 METAR EDTL 261450Z 22008KT CAVOK 25/17 Q1013=
202006261550 METAR EDTL 261550Z 34012KT CAVOK 22/18 Q1014=
202006261620 METAR EDTL 261620Z 07007KT 030V100 CAVOK 22/17 Q1013=
202006261650 METAR EDTL 261650Z 08006KT 050V120 CAVOK 23/16 Q1013=
202006270620 METAR EDTL 270620Z 19005KT CAVOK 22/18 Q1014=
202006270650 METAR EDTL 270650Z 17012KT CAVOK 23/16 Q1013=
202006271650 METAR EDTL 271650Z 20011KT CAVOK 28/15 Q1012=
202006281220 METAR EDTL 281220Z 23014KT CAVOK 28/13 Q1015=
202006281250 METAR EDTL 281250Z 22011KT 190V250 CAVOK 27/12 Q1015=
202006281320 METAR EDTL 281320Z 26007KT 210V310 CAVOK 28/13 Q1015=
202006281350 METAR EDTL 281350Z 29007KT 260V320 CAVOK 28/14 Q1015=
202006281420 METAR EDTL 281420Z 32012KT CAVOK 25/14 Q1016=
202006281450 METAR EDTL 281450Z 33013KT CAVOK 24/13 Q1016=
202006290520 METAR EDTL 290520Z 19004KT CAVOK 16/15 Q1015=
202006290550 METAR EDTL 290550Z 18006KT 9999 FEW044 16/15 Q1015=
202006290620 METAR EDTL 290620Z 20007KT 9999 FEW011 BKN072 BKN160 17/15
202006290650 METAR EDTL 290650Z 21007KT 9999 FEW012 BKN074 OVC140 17/15
202006290720 METAR EDTL 290720Z 21005KT 190V250 9999 BKN014 OVC078 17/15
202006290750 METAR EDTL 290750Z 18005KT 9999 FEW013 SCT043 BKN066 18/15
202006290820 METAR EDTL 290820Z 19007KT 9999 SCT082 BKN220 18/15 Q1016=
202006290850 METAR EDTL 290850Z 22006KT 9999 FEW019 OVC076 19/15 Q1016=
202006290920 METAR EDTL 290920Z 21006KT 150V230 9999 SCT020 OVC074 19/15
202006290950 METAR EDTL 290950Z 22006KT 9999 FEW021 BKN076 20/15 Q1016=
202006291020 METAR EDTL 291020Z 21006KT 160V250 9999 FEW022 OVC072 20/14
202006291050 METAR EDTL 291050Z 19005KT 130V250 9999 SCT031 BKN072 OVC094
202006291120 METAR EDTL 291120Z 23007KT 150V280 9999 FEW033 OVC072 22/15
202006291150 METAR EDTL 291150Z 21009KT 9999 SCT034 BKN074 21/14 Q1015=
202006291220 METAR EDTL 291220Z 19009KT 160V220 9999 SCT040 OVC078 21/14
202006291250 METAR EDTL 291250Z 20010KT 9999 FEW045 SCT230 22/16 Q1015=
202006291320 METAR EDTL 291320Z 19010KT 150V210 9999 FEW045 22/14 Q1015=
202006291350 METAR EDTL 291350Z 19008KT 160V220 9999 SHRA FEW049 BKN100
202006291420 METAR EDTL 291420Z 21009KT 180V240 9999 FEW043 BKN082 21/15
202006291450 METAR EDTL 291450Z 23008KT 9999 FEW048 21/15 Q1014=
202006300650 METAR EDTL 300650Z 20006KT 160V230 CAVOK 16/13 Q1016=
202007010550 METAR EDTL 010550Z VRB03KT CAVOK 19/15 Q1012=
202007010620 METAR EDTL 010620Z 20003KT 170V240 CAVOK 20/15 Q1012=
202007010650 METAR EDTL 010650Z 19004KT 140V250 CAVOK 21/16 Q1011=
202007010720 METAR EDTL 010720Z 20007KT CAVOK 22/16 Q1011=
202007010750 METAR EDTL 010750Z 20007KT 150V240 CAVOK 24/16 Q1011=
202007010820 METAR EDTL 010820Z 18005KT 140V230 CAVOK 25/16 Q1011=
202007010850 METAR EDTL 010850Z 20006KT 150V270 CAVOK 26/15 Q1011=
202007010920 METAR EDTL 010920Z 21006KT 150V250 CAVOK 26/15 Q1011=
202007010950 METAR EDTL 010950Z 22006KT 170V270 CAVOK 27/17 Q1010=
202007011020 METAR EDTL 011020Z 20006KT 120V240 CAVOK 27/16 Q1010=
202007011050 METAR EDTL 011050Z 21006KT 140V280 CAVOK 28/17 Q1010=
202007011120 METAR EDTL 011120Z 24008KT 190V310 CAVOK 29/16 Q1010=
202007011150 METAR EDTL 011150Z 25008KT 200V320 CAVOK 28/16 Q1010=
202007011220 METAR EDTL 011220Z 24006KT 210V290 CAVOK 31/18 Q1009=
202007011250 METAR EDTL 011250Z 25007KT 190V300 CAVOK 29/17 Q1009=
202007011320 METAR EDTL 011320Z 23008KT 160V270 CAVOK 29/17 Q1009=
202007011350 METAR EDTL 011350Z 24007KT 180V300 CAVOK 31/17 Q1009=
202007011420 METAR EDTL 011420Z 24006KT 200V310 CAVOK 30/17 Q1008=
202007011450 METAR EDTL 011450Z 24005KT 210V300 CAVOK 31/16 Q1008=
202007011520 METAR EDTL 011520Z 23008KT 200V270 CAVOK 30/17 Q1008=
202007011550 METAR EDTL 011550Z 22010KT CAVOK 30/17 Q1008=
202007011620 METAR EDTL 011620Z 23009KT CAVOK 31/17 Q1008=
202007011650 METAR EDTL 011650Z 29007KT 260V320 CAVOK 29/17 Q1008=
202007011720 METAR EDTL 011720Z 26005KT CAVOK 28/16 Q1008=
202007011750 METAR EDTL 011750Z 27006KT CAVOK 27/16 Q1009=
202007010550 METAR EDTL 010550Z VRB03KT CAVOK 19/15 Q1012=
202007010620 METAR EDTL 010620Z 20003KT 170V240 CAVOK 20/15 Q1012=
202007010650 METAR EDTL 010650Z 19004KT 140V250 CAVOK 21/16 Q1011=
202007010720 METAR EDTL 010720Z 20007KT CAVOK 22/16 Q1011=
202007010750 METAR EDTL 010750Z 20007KT 150V240 CAVOK 24/16 Q1011=
202007010820 METAR EDTL 010820Z 18005KT 140V230 CAVOK 25/16 Q1011=
202007010850 METAR EDTL 010850Z 20006KT 150V270 CAVOK 26/15 Q1011=
202007010920 METAR EDTL 010920Z 21006KT 150V250 CAVOK 26/15 Q1011=
202007010950 METAR EDTL 010950Z 22006KT 170V270 CAVOK 27/17 Q1010=
202007011020 METAR EDTL 011020Z 20006KT 120V240 CAVOK 27/16 Q1010=
202007011050 METAR EDTL 011050Z 21006KT 140V280 CAVOK 28/17 Q1010=
202007011120 METAR EDTL 011120Z 24008KT 190V310 CAVOK 29/16 Q1010=
202007011150 METAR EDTL 011150Z 25008KT 200V320 CAVOK 28/16 Q1010=
202007011220 METAR EDTL 011220Z 24006KT 210V290 CAVOK 31/18 Q1009=
202007011250 METAR EDTL 011250Z 25007KT 190V300 CAVOK 29/17 Q1009=
202007011320 METAR EDTL 011320Z 23008KT 160V270 CAVOK 29/17 Q1009=
202007011350 METAR EDTL 011350Z 24007KT 180V300 CAVOK 31/17 Q1009=
202007011420 METAR EDTL 011420Z 24006KT 200V310 CAVOK 30/17 Q1008=
202007011450 METAR EDTL 011450Z 24005KT 210V300 CAVOK 31/16 Q1008=
202007011520 METAR EDTL 011520Z 23008KT 200V270 CAVOK 30/17 Q1008=
202007011550 METAR EDTL 011550Z 22010KT CAVOK 30/17 Q1008=
202007011620 METAR EDTL 011620Z 23009KT CAVOK 31/17 Q1008=
202007011650 METAR EDTL 011650Z 29007KT 260V320 CAVOK 29/17 Q1008=
202007011720 METAR EDTL 011720Z 26005KT CAVOK 28/16 Q1008=
202007011750 METAR EDTL 011750Z 27006KT CAVOK 27/16 Q1009=
202007020550 METAR EDTL 020550Z 12002KT 9999 OVC043 19/17 Q1013=
202007020620 METAR EDTL 020620Z 13003KT 9999 BKN043 19/17 Q1013=
202007020650 METAR EDTL 020650Z 17005KT 9999 FEW033 BKN046 OVC064 19/17
202007020720 METAR EDTL 020720Z 16004KT 9999 FEW049 BKN074 19/17 Q1013=
202007020750 METAR EDTL 020750Z VRB02KT 9999 BKN049 20/17 Q1013=
202007020820 METAR EDTL 020820Z VRB02KT 9999 OVC044 20/17 Q1013=
202007020850 METAR EDTL 020850Z 24006KT 6000 VCSH FEW003 SCT016 BKN029
202007020920 METAR EDTL 020920Z VRB01KT 9999 FEW016 SCT023 OVC055 20/18
202007020950 METAR EDTL 020950Z VRB03KT 9999 SCT009 BKN017 BKN044 20/17
202007021020 METAR EDTL 021020Z 35005KT 310V040 9999 SCT014 BKN024 OVC061
202007021050 METAR EDTL 021050Z VRB03KT 9999 OVC046 20/17 Q1014=
202007021120 METAR EDTL 021120Z VRB01KT 9999 OVC042 20/17 Q1014=
202007021150 METAR EDTL 021150Z VRB03KT 9999 FEW024 SCT032 OVC040 21/16
202007021220 METAR EDTL 021220Z 29008KT 9999 FEW039 BKN048 21/14 Q1014=
202007021250 METAR EDTL 021250Z 26006KT 220V280 9999 BKN046 21/15 Q1014=
202007021320 METAR EDTL 021320Z 21005KT 150V250 CAVOK 23/15 Q1014=
202007021350 METAR EDTL 021350Z 19005KT 150V230 CAVOK 22/15 Q1014=
202007021420 METAR EDTL 021420Z 19007KT 150V220 CAVOK 23/15 Q1014=
202007021450 METAR EDTL 021450Z 25006KT 190V290 CAVOK 23/15 Q1014=
202007021520 METAR EDTL 021520Z 24008KT 210V280 CAVOK 24/15 Q1013=
202007021550 METAR EDTL 021550Z 26009KT CAVOK 25/11 Q1013=
202007021620 METAR EDTL 021620Z 28010KT CAVOK 24/10 Q1014=
202007021650 METAR EDTL 021650Z 31009KT CAVOK 24/10 Q1014=
202007021720 METAR EDTL 021720Z 27009KT CAVOK 23/10 Q1014=
202007021750 METAR EDTL 021750Z 26007KT CAVOK 22/10 Q1014=
202007021820 METAR EDTL 021820Z 25006KT CAVOK 21/10 Q1014=
202007030550 METAR EDTL 030550Z VRB01KT CAVOK 18/12 Q1019=
202007030620 METAR EDTL 030620Z 05005KT 020V090 CAVOK 19/11 Q1019=
202007030650 METAR EDTL 030650Z 03005KT 350V070 CAVOK 19/12 Q1020=
202007030720 METAR EDTL 030720Z 04005KT 350V110 CAVOK 19/11 Q1020=
202007030750 METAR EDTL 030750Z 03006KT 360V100 CAVOK 20/12 Q1020=
202007030820 METAR EDTL 030820Z VRB05KT CAVOK 20/12 Q1020=
202007030850 METAR EDTL 030850Z VRB02KT 9999 SCT036 20/11 Q1020=
202007030920 METAR EDTL 030920Z 36006KT 320V080 9999 SCT041 21/11 Q1020=
202007030950 METAR EDTL 030950Z 29005KT 250V330 9999 SCT046 21/11 Q1020=
202007031020 METAR EDTL 031020Z VRB03KT 9999 SCT048 22/10 Q1020=
202007031050 METAR EDTL 031050Z 31006KT CAVOK 21/11 Q1020=
202007031120 METAR EDTL 031120Z VRB02KT CAVOK 22/10 Q1020=
202007031150 METAR EDTL 031150Z VRB03KT CAVOK 22/09 Q1020=
202007031220 METAR EDTL 031220Z VRB03KT CAVOK 22/09 Q1020=
202007031250 METAR EDTL 031250Z 32006KT 240V360 CAVOK 24/09 Q1019=
202007031320 METAR EDTL 031320Z 35006KT 320V050 CAVOK 24/10 Q1019=
202007031350 METAR EDTL 031350Z 32007KT 270V020 CAVOK 24/10 Q1019=
202007031420 METAR EDTL 031420Z 32007KT 280V360 CAVOK 24/09 Q1019=
202007031450 METAR EDTL 031450Z VRB04KT CAVOK 24/09 Q1019=
202007031520 METAR EDTL 031520Z 34005KT 270V030 CAVOK 24/08 Q1019=
202007031550 METAR EDTL 031550Z 31005KT 260V360 CAVOK 24/08 Q1019=
202007031620 METAR EDTL 031620Z 33005KT 300V010 CAVOK 24/09 Q1019=
202007031650 METAR EDTL 031650Z VRB06KT CAVOK 24/09 Q1019=
202007031720 METAR EDTL 031720Z 01004KT 330V060 CAVOK 23/09 Q1019=
202007031750 METAR EDTL 031750Z 33004KT CAVOK 23/09 Q1019=
202007041250 METAR EDTL 041250Z 20011KT 160V230 9999 FEW061 26/11 Q1019=
202007041320 METAR EDTL 041320Z 23011KT 190V260 9999 NSC 26/11 Q1019=
202007041350 METAR EDTL 041350Z 25010KT 180V280 CAVOK 27/11 Q1019=
202007041420 METAR EDTL 041420Z 20007KT 150V230 CAVOK 26/10 Q1019=
202007041450 METAR EDTL 041450Z 21010KT 160V260 CAVOK 27/11 Q1018=
202007050850 METAR EDTL 050850Z 19012KT 160V230 9999 BKN044 24/16 Q1018=
202007050920 METAR EDTL 050920Z 20013KT 150V220 9999 BKN046 24/17 Q1018=
202007050950 METAR EDTL 050950Z 19011KT 150V220 9999 BKN046 26/17 Q1018=
202007051020 METAR EDTL 051020Z 19013KT 9999 BKN042 25/16 Q1018=
202007051050 METAR EDTL 051050Z 20013KT 9999 BKN049 26/16 Q1018=
202007051120 METAR EDTL 051120Z 20011KT 160V230 9999 BKN049 25/16 Q1018=
202007051150 METAR EDTL 051150Z 20013KT 9999 BKN045 26/16 Q1017=
202007051220 METAR EDTL 051220Z 21013KT 9999 BKN048 27/16 Q1017=
202007051250 METAR EDTL 051250Z 22013KT 9999 BKN046 27/16 Q1017=
202007051320 METAR EDTL 051320Z 22009KT 180V240 9999 BKN048 28/17 Q1017=
202007051350 METAR EDTL 051350Z 23012KT 190V260 9999 BKN049 28/16 Q1016=
202007051420 METAR EDTL 051420Z 21014KT 170V240 9999 SCT048 28/16 Q1016=
202007051450 METAR EDTL 051450Z 20010KT 150V240 9999 SCT049 29/16 Q1016=
202007051520 METAR EDTL 051520Z 21011KT CAVOK 29/16 Q1016=
202007051550 METAR EDTL 051550Z 22012KT 190V250 CAVOK 29/16 Q1016=
202007051620 METAR EDTL 051620Z 22011KT 180V250 CAVOK 29/16 Q1015=
202007051650 METAR EDTL 051650Z 21011KT CAVOK 29/16 Q1015=
202007051720 METAR EDTL 051720Z 20013KT 160V230 CAVOK 28/16 Q1015=
202007060550 METAR EDTL 060550Z 36008KT 9999 SCT037 16/13 Q1017=
202007060620 METAR EDTL 060620Z 01009KT 9999 SCT028 BKN032 OVC039 16/13
202007060650 METAR EDTL 060650Z 02008KT 350V060 9999 SCT032 16/10 Q1018=
202007060720 METAR EDTL 060720Z 02009KT 9999 SCT044 16/09 Q1018=
202007060750 METAR EDTL 060750Z 01004KT 330V100 9999 FEW037 SCT045 17/09
202007060820 METAR EDTL 060820Z 05006KT 020V090 9999 SCT036 18/10 Q1018=
202007060850 METAR EDTL 060850Z 11007KT 050V150 9999 SCT037 18/09 Q1018=
202007060920 METAR EDTL 060920Z 09005KT 030V140 9999 SCT042 19/09 Q1018=
202007060950 METAR EDTL 060950Z VRB03KT 9999 BKN045 20/10 Q1018=
202007061020 METAR EDTL 061020Z VRB03KT 9999 FEW049 21/10 Q1018=
202007061050 METAR EDTL 061050Z VRB05KT 9999 FEW059 20/09 Q1018=
202007061120 METAR EDTL 061120Z 01007KT 320V080 CAVOK 21/09 Q1018=
202007061150 METAR EDTL 061150Z 31007KT 280V350 CAVOK 20/07 Q1018=
202007061220 METAR EDTL 061220Z VRB04KT CAVOK 21/07 Q1019=
202007061250 METAR EDTL 061250Z 33011KT 300V010 CAVOK 21/07 Q1019=
202007061320 METAR EDTL 061320Z 31011KT 270V340 CAVOK 22/07 Q1019=
202007061350 METAR EDTL 061350Z 32013KT CAVOK 22/06 Q1019=
202007061420 METAR EDTL 061420Z 32011KT CAVOK 21/05 Q1019=
202007061450 METAR EDTL 061450Z 32012KT CAVOK 20/05 Q1019=
202007061520 METAR EDTL 061520Z 30009KT CAVOK 21/06 Q1019=
202007061550 METAR EDTL 061550Z 30012KT 280V340 CAVOK 22/06 Q1020=
202007061620 METAR EDTL 061620Z 31012KT CAVOK 22/06 Q1020=
202007061650 METAR EDTL 061650Z 32010KT CAVOK 21/06 Q1020=
202007061720 METAR EDTL 061720Z 32010KT CAVOK 20/06 Q1020=
202007061750 METAR EDTL 061750Z 31009KT CAVOK 20/06 Q1021=
202007070550 METAR EDTL 070550Z 00000KT CAVOK 14/10 Q1022=
202007070620 METAR EDTL 070620Z VRB01KT CAVOK 15/09 Q1022=
202007070650 METAR EDTL 070650Z VRB02KT CAVOK 15/09 Q1021=
202007070720 METAR EDTL 070720Z VRB02KT CAVOK 16/09 Q1021=
202007070750 METAR EDTL 070750Z 32004KT 260V020 CAVOK 17/09 Q1021=
202007070820 METAR EDTL 070820Z 02004KT 290V090 CAVOK 18/09 Q1021=
202007070850 METAR EDTL 070850Z 35004KT 260V070 CAVOK 19/09 Q1021=
202007070920 METAR EDTL 070920Z VRB04KT CAVOK 19/09 Q1021=
202007070950 METAR EDTL 070950Z VRB04KT CAVOK 20/08 Q1021=
202007071020 METAR EDTL 071020Z VRB04KT CAVOK 21/07 Q1020=
202007071050 METAR EDTL 071050Z 32006KT 260V030 CAVOK 21/05 Q1020=
202007071120 METAR EDTL 071120Z 33007KT 240V020 CAVOK 21/06 Q1020=
202007071150 METAR EDTL 071150Z VRB05KT CAVOK 22/05 Q1020=
202007071220 METAR EDTL 071220Z 24007KT 180V290 CAVOK 22/05 Q1020=
202007071250 METAR EDTL 071250Z 31005KT 240V050 CAVOK 22/05 Q1020=
202007071320 METAR EDTL 071320Z VRB05KT CAVOK 23/05 Q1020=
202007071350 METAR EDTL 071350Z VRB03KT CAVOK 23/05 Q1019=
202007071420 METAR EDTL 071420Z 05006KT 350V130 CAVOK 24/06 Q1019=
202007071450 METAR EDTL 071450Z VRB05KT CAVOK 23/06 Q1019=
202007071520 METAR EDTL 071520Z 03006KT 330V120 CAVOK 24/06 Q1019=
202007071550 METAR EDTL 071550Z 08004KT 010V130 CAVOK 24/08 Q1018=
202007071620 METAR EDTL 071620Z VRB03KT CAVOK 23/06 Q1018=
202007071650 METAR EDTL 071650Z 08004KT 010V130 CAVOK 23/07 Q1018=
202007071720 METAR EDTL 071720Z 02004KT 350V070 CAVOK 23/06 Q1018=
202007071750 METAR EDTL 071750Z 05003KT 350V110 CAVOK 23/07 Q1018=
202007080450 METAR EDTL 080450Z 21004KT CAVOK 13/08 Q1018=
202007080550 METAR EDTL 080550Z 16004KT 130V190 CAVOK 16/09 Q1018=
202007080620 METAR EDTL 080620Z 19004KT 150V220 CAVOK 17/10 Q1018=
202007080650 METAR EDTL 080650Z 19007KT CAVOK 19/10 Q1018=
202007080720 METAR EDTL 080720Z 20007KT 160V230 CAVOK 20/11 Q1018=
202007080750 METAR EDTL 080750Z 21008KT CAVOK 21/10 Q1018=
202007080820 METAR EDTL 080820Z 19008KT 160V230 CAVOK 22/10 Q1018=
202007080850 METAR EDTL 080850Z 21009KT 170V250 CAVOK 23/10 Q1018=
202007080920 METAR EDTL 080920Z 19008KT 160V240 CAVOK 23/09 Q1018=
202007080950 METAR EDTL 080950Z 22006KT 150V300 CAVOK 24/08 Q1018=
202007081020 METAR EDTL 081020Z 22004KT 130V280 CAVOK 25/09 Q1018=
202007081050 METAR EDTL 081050Z VRB06KT CAVOK 26/09 Q1017=
202007081120 METAR EDTL 081120Z 23006KT 130V300 CAVOK 26/10 Q1017=
202007081150 METAR EDTL 081150Z VRB06KT CAVOK 25/09 Q1017=
202007081220 METAR EDTL 081220Z 20007KT 160V230 CAVOK 25/10 Q1017=
202007081250 METAR EDTL 081250Z 19008KT 150V230 CAVOK 27/10 Q1017=
202007081320 METAR EDTL 081320Z 20009KT 150V250 CAVOK 26/10 Q1017=
202007081350 METAR EDTL 081350Z 22008KT 170V270 CAVOK 28/11 Q1017=
202007081420 METAR EDTL 081420Z 21008KT 170V250 CAVOK 28/10 Q1017=
202007081450 METAR EDTL 081450Z 21010KT CAVOK 27/11 Q1017=
202007081520 METAR EDTL 081520Z 27008KT CAVOK 28/11 Q1017=
202007081550 METAR EDTL 081550Z 26009KT CAVOK 27/11 Q1017=
202007081620 METAR EDTL 081620Z 27010KT CAVOK 26/10 Q1017=
202007081650 METAR EDTL 081650Z 26006KT 240V310 CAVOK 26/11 Q1016=
202007081720 METAR EDTL 081720Z 25006KT CAVOK 26/11 Q1016=
202007081750 METAR EDTL 081750Z 23004KT CAVOK 25/13 Q1017=
202007090550 METAR EDTL 090550Z 16003KT CAVOK 18/13 Q1017=
202007090620 METAR EDTL 090620Z 19003KT CAVOK 18/13 Q1017=
202007090650 METAR EDTL 090650Z 19006KT CAVOK 20/14 Q1017=
202007090720 METAR EDTL 090720Z 21006KT 180V240 CAVOK 21/14 Q1017=
202007090750 METAR EDTL 090750Z VRB05KT CAVOK 22/13 Q1017=
202007090820 METAR EDTL 090820Z 20007KT 160V230 CAVOK 23/14 Q1017=
202007090850 METAR EDTL 090850Z 21008KT 160V240 CAVOK 25/14 Q1017=
202007090920 METAR EDTL 090920Z 20007KT 170V240 CAVOK 26/14 Q1017=
202007090950 METAR EDTL 090950Z 19008KT 100V240 CAVOK 28/13 Q1016=
202007091020 METAR EDTL 091020Z 21009KT 160V240 CAVOK 29/13 Q1016=
202007091050 METAR EDTL 091050Z 22009KT 180V270 CAVOK 29/13 Q1016=
202007091120 METAR EDTL 091120Z 22008KT 170V260 CAVOK 29/12 Q1016=
202007091150 METAR EDTL 091150Z 23006KT 160V280 CAVOK 30/13 Q1016=
202007091220 METAR EDTL 091220Z 26007KT 200V300 CAVOK 30/12 Q1015=
202007091250 METAR EDTL 091250Z 20007G18KT 140V270 CAVOK 31/13 Q1015=
202007091320 METAR EDTL 091320Z 23010KT 170V290 CAVOK 31/13 Q1015=
202007091350 METAR EDTL 091350Z 24009KT 190V290 CAVOK 32/12 Q1014=
202007091420 METAR EDTL 091420Z 25008KT 210V300 CAVOK 31/12 Q1014=
202007091450 METAR EDTL 091450Z 25010KT 190V290 CAVOK 31/11 Q1014=
202007091520 METAR EDTL 091520Z 28004KT 200V350 CAVOK 32/12 Q1014=
202007091550 METAR EDTL 091550Z 27008KT 230V320 CAVOK 31/11 Q1014=
202007091620 METAR EDTL 091620Z 27008KT 230V300 CAVOK 31/12 Q1013=
202007091650 METAR EDTL 091650Z 27009KT CAVOK 31/12 Q1013=
202007091720 METAR EDTL 091720Z 25008KT CAVOK 31/12 Q1013=
202007091750 METAR EDTL 091750Z 25006KT 210V280 CAVOK 30/13 Q1013=
202007100550 METAR EDTL 100550Z 22005KT CAVOK 22/14 Q1012=
202007100620 METAR EDTL 100620Z 21006KT CAVOK 23/13 Q1012=
202007100650 METAR EDTL 100650Z 20006KT 160V230 CAVOK 24/14 Q1012=
202007100720 METAR EDTL 100720Z 22008KT 180V250 CAVOK 25/14 Q1013=
202007100750 METAR EDTL 100750Z 24009KT 200V270 CAVOK 26/14 Q1013=
202007100820 METAR EDTL 100820Z 26008KT 220V300 CAVOK 27/15 Q1013=
202007100850 METAR EDTL 100850Z 28010KT 250V310 CAVOK 28/14 Q1013=
202007100920 METAR EDTL 100920Z 26011KT CAVOK 28/14 Q1013=
202007100950 METAR EDTL 100950Z 25008KT 200V330 CAVOK 28/14 Q1013=
202007101020 METAR EDTL 101020Z 27010KT 240V300 CAVOK 29/13 Q1013=
202007101050 METAR EDTL 101050Z 27010KT 240V320 CAVOK 30/11 Q1013=
202007101120 METAR EDTL 101120Z 28013KT 240V320 CAVOK 29/12 Q1013=
202007101150 METAR EDTL 101150Z 33016KT CAVOK 28/14 Q1013=
202007101220 METAR EDTL 101220Z 29014KT 260V330 CAVOK 28/14 Q1014=
202007101250 METAR EDTL 101250Z 29015KT CAVOK 28/13 Q1014=
202007101320 METAR EDTL 101320Z 29014KT CAVOK 27/12 Q1014=
202007101350 METAR EDTL 101350Z 33009KT CAVOK 26/14 Q1014=
202007101420 METAR EDTL 101420Z 29010KT 250V350 CAVOK 27/14 Q1014=
202007101450 METAR EDTL 101450Z 31011KT 280V340 CAVOK 26/13 Q1014=
202007101520 METAR EDTL 101520Z 35011KT CAVOK 25/14 Q1014=
202007101550 METAR EDTL 101550Z 01011KT CAVOK 23/14 Q1015=
202007101620 METAR EDTL 101620Z 01010KT CAVOK 24/13 Q1015=
202007101650 METAR EDTL 101650Z 35009KT 320V020 CAVOK 24/13 Q1015=
202007101720 METAR EDTL 101720Z 35008KT CAVOK 24/12 Q1015=
202007101750 METAR EDTL 101750Z 33007KT 310V010 CAVOK 23/13 Q1016=
202007120450 METAR EDTL 120450Z 01002KT CAVOK 11/08 Q1025=
202007120520 METAR EDTL 120520Z 00000KT CAVOK 12/09 Q1025=
202007120550 METAR EDTL 120550Z VRB02KT CAVOK 13/09 Q1025=
202007120820 METAR EDTL 120820Z 01005KT 340V060 CAVOK 20/09 Q1025=
202007120850 METAR EDTL 120850Z 01007KT 310V080 CAVOK 21/09 Q1025=
202007120920 METAR EDTL 120920Z 02006KT 330V090 CAVOK 22/09 Q1024=
202007121250 METAR EDTL 121250Z 02010KT 340V060 CAVOK 25/06 Q1024=
202007121320 METAR EDTL 121320Z 01011KT CAVOK 25/06 Q1023=
202007130550 METAR EDTL 130550Z 02004KT CAVOK 15/09 Q1023=
202007130620 METAR EDTL 130620Z VRB03KT CAVOK 16/09 Q1023=
202007130650 METAR EDTL 130650Z 02003KT 350V080 CAVOK 17/10 Q1023=
202007130720 METAR EDTL 130720Z 36004KT 330V050 CAVOK 18/09 Q1022=
202007130750 METAR EDTL 130750Z 01006KT 330V050 CAVOK 19/10 Q1022=
202007130820 METAR EDTL 130820Z 36005KT 330V050 CAVOK 20/10 Q1022=
202007130850 METAR EDTL 130850Z 01006KT 330V040 CAVOK 22/10 Q1022=
202007130920 METAR EDTL 130920Z 02008KT CAVOK 23/09 Q1022=
202007130950 METAR EDTL 130950Z 36007KT CAVOK 23/09 Q1021=
202007131020 METAR EDTL 131020Z 01006KT 320V070 CAVOK 24/09 Q1021=
202007131050 METAR EDTL 131050Z 36009KT 320V050 CAVOK 25/10 Q1021=
202007131120 METAR EDTL 131120Z VRB07KT CAVOK 25/08 Q1021=
202007131150 METAR EDTL 131150Z 35009KT 300V050 CAVOK 25/09 Q1020=
202007131220 METAR EDTL 131220Z 35008KT 310V040 CAVOK 26/08 Q1020=
202007131250 METAR EDTL 131250Z 36009KT 310V060 CAVOK 27/08 Q1020=
202007131320 METAR EDTL 131320Z 01008KT 340V060 CAVOK 26/07 Q1019=
202007131350 METAR EDTL 131350Z 34010KT 300V020 CAVOK 27/08 Q1019=
202007131420 METAR EDTL 131420Z 36010KT 330V040 CAVOK 27/08 Q1019=
202007131450 METAR EDTL 131450Z 36008KT 320V060 CAVOK 27/07 Q1018=
202007131520 METAR EDTL 131520Z 35009KT 310V020 CAVOK 27/07 Q1018=
202007131550 METAR EDTL 131550Z 36010KT CAVOK 27/07 Q1018=
202007131620 METAR EDTL 131620Z 02009KT 340V040 CAVOK 26/06 Q1018=
202007131650 METAR EDTL 131650Z 35008KT 310V020 CAVOK 27/07 Q1018=
202007131720 METAR EDTL 131720Z 02009KT CAVOK 27/07 Q1018=
202007131750 METAR EDTL 131750Z 01008KT CAVOK 26/07 Q1018=
202007140550 METAR EDTL 140550Z VRB02KT CAVOK 18/09 Q1016=
202007140620 METAR EDTL 140620Z 25005KT 220V290 CAVOK 18/10 Q1016=
202007140650 METAR EDTL 140650Z 21004KT 170V240 CAVOK 20/10 Q1016=
202007140720 METAR EDTL 140720Z 20006KT 150V240 CAVOK 20/10 Q1016=
202007140750 METAR EDTL 140750Z 20007KT 150V240 CAVOK 21/09 Q1016=
202007140820 METAR EDTL 140820Z 21006KT 180V240 CAVOK 22/09 Q1016=
202007140850 METAR EDTL 140850Z 20004KT 130V260 CAVOK 22/09 Q1016=
202007140920 METAR EDTL 140920Z VRB04KT CAVOK 24/10 Q1016=
202007140950 METAR EDTL 140950Z VRB04KT CAVOK 25/09 Q1015=
202007141020 METAR EDTL 141020Z VRB03KT CAVOK 26/09 Q1015=
202007141050 METAR EDTL 141050Z VRB04KT CAVOK 27/08 Q1015=
202007141120 METAR EDTL 141120Z 02005KT 330V130 CAVOK 27/07 Q1014=
202007141150 METAR EDTL 141150Z VRB03KT CAVOK 26/05 Q1014=
202007141220 METAR EDTL 141220Z VRB05KT CAVOK 27/05 Q1014=
202007141250 METAR EDTL 141250Z VRB05KT CAVOK 27/06 Q1014=
202007141320 METAR EDTL 141320Z 29005KT 220V030 CAVOK 27/06 Q1014=
202007141350 METAR EDTL 141350Z 33004KT 290V040 CAVOK 27/06 Q1013=
202007141420 METAR EDTL 141420Z 29005KT 240V360 CAVOK 27/07 Q1013=
202007141450 METAR EDTL 141450Z 35005KT 300V040 CAVOK 27/07 Q1013=
202007141520 METAR EDTL 141520Z VRB03KT CAVOK 27/07 Q1013=
202007141550 METAR EDTL 141550Z VRB02KT CAVOK 27/08 Q1013=
202007141620 METAR EDTL 141620Z 27004KT 210V310 CAVOK 27/08 Q1013=
202007141650 METAR EDTL 141650Z 21006KT CAVOK 26/10 Q1013=
202007141720 METAR EDTL 141720Z 24004KT 200V270 CAVOK 26/08 Q1012=
202007141750 METAR EDTL 141750Z 24004KT CAVOK 26/10 Q1012=
202007150520 METAR EDTL 150520Z VRB01KT 9999 -RA FEW043 BKN082 16/14 Q1014=
202007150550 METAR EDTL 150550Z 23003KT 9999 -RA FEW039 BKN080 16/14 Q1014=
202007150620 METAR EDTL 150620Z 22002KT 9999 FEW016 BKN076 15/14 Q1014=
202007150720 METAR EDTL 150720Z VRB02KT 9999 FEW044 BKN082 16/14 Q1014=
202007150750 METAR EDTL 150750Z VRB03KT 9999 NSC 16/15 Q1014=
202007150820 METAR EDTL 150820Z VRB03KT 9999 -RA FEW016 BKN076 16/15 Q1015=
202007150850 METAR EDTL 150850Z VRB03KT 9999 -RA OVC076 16/14 Q1015=
202007150920 METAR EDTL 150920Z 16003KT 130V190 9999 -RA FEW018 BKN064
202007150950 METAR EDTL 150950Z VRB02KT 9999 -RA FEW037 OVC061 17/15 Q1015=
202007151020 METAR EDTL 151020Z 16004KT 130V190 9999 -RA FEW011 OVC061
202007151050 METAR EDTL 151050Z 18005KT 150V210 9999 -RA FEW047 BKN068
202007151120 METAR EDTL 151120Z 19006KT 9999 FEW014 SCT051 BKN078 18/16
202007151150 METAR EDTL 151150Z 20007KT 160V230 9999 SCT015 BKN082 OVC210
202007151220 METAR EDTL 151220Z 20009KT 9999 SCT015 18/15 Q1015=
202007151250 METAR EDTL 151250Z 19008KT 150V240 9999 SCT019 20/15 Q1015=
202007151320 METAR EDTL 151320Z 20008KT 160V240 9999 VCSH FEW020 SCT095TCU
202007151350 METAR EDTL 151350Z 21007KT 170V240 9999 VCSH FEW025 SCT095TCU
202007151420 METAR EDTL 151420Z 31008KT 220V020 8000 VCSH BKN029TCU 20/14
202007151450 METAR EDTL 151450Z VRB02KT 6000 -SHRA FEW002 BKN023TCU 16/15
202007151520 METAR EDTL 151520Z 15004KT 120V180 9999 -SHRA BKN068TCU 17/16
202007151550 METAR EDTL 151550Z 13005KT 9999 VCSH BKN060TCU 17/16 Q1015=
202007151620 METAR EDTL 151620Z 14004KT 9999 VCSH SCT070TCU 18/15 Q1015=
202007151650 METAR EDTL 151650Z 13003KT 060V170 CAVOK 18/15 Q1015=
202007151720 METAR EDTL 151720Z VRB03KT CAVOK 18/15 Q1015=
202007151750 METAR EDTL 151750Z 15005KT 120V180 CAVOK 19/15 Q1016=
202007160550 METAR EDTL 160550Z 20003KT 9000 BKN044 16/15 Q1018=
202007160620 METAR EDTL 160620Z 19004KT 9999 BKN041 16/15 Q1018=
202007160650 METAR EDTL 160650Z 19004KT 9999 SCT041 BKN053 16/15 Q1018=
202007160720 METAR EDTL 160720Z 21005KT 9999 BKN036 16/15 Q1019=
202007160750 METAR EDTL 160750Z 21006KT 9999 FEW035 BKN048 16/15 Q1019=
202007160820 METAR EDTL 160820Z 20004KT 9999 OVC039 17/15 Q1019=
202007160850 METAR EDTL 160850Z 20006KT 9999 BKN037 17/15 Q1019=
202007160920 METAR EDTL 160920Z 20005KT 9999 BKN035 17/15 Q1019=
202007161020 METAR EDTL 161020Z 22004KT 170V250 5000 SCT011 BKN019 17/15
202007161050 METAR EDTL 161050Z 23005KT 8000 BKN035 17/14 Q1019=
202007161120 METAR EDTL 161120Z 22005KT 9000 SCT039 BKN047 17/14 Q1019=
202007161150 METAR EDTL 161150Z 21004KT 180V240 7000 SCT033 BKN047 17/14
202007161220 METAR EDTL 161220Z 19003KT 150V220 7000 OVC034 17/15 Q1019=
202007161250 METAR EDTL 161250Z VRB03KT 8000 BKN027 OVC039 17/15 Q1019=
202007161320 METAR EDTL 161320Z 20004KT 170V230 9000 SCT012 BKN020 OVC024
202007161350 METAR EDTL 161350Z 36006KT 250V050 9999 BKN010 BKN014 OVC018
202007161420 METAR EDTL 161420Z 03004KT 9999 SCT007 BKN017 OVC032 16/15
202007161450 METAR EDTL 161450Z 03005KT 4000 -RA SCT003 BKN028 OVC032
202007161520 METAR EDTL 161520Z VRB02KT 6000 FEW003 SCT024 OVC031 16/15
202007161550 METAR EDTL 161550Z VRB03KT 9999 FEW028 BKN048 16/15 Q1019=
202007161620 METAR EDTL 161620Z 14003KT 9999 OVC049 16/15 Q1019=
202007161650 METAR EDTL 161650Z VRB03KT 9999 OVC048 16/15 Q1019=
202007161720 METAR EDTL 161720Z 17003KT 9999 OVC041 16/15 Q1019=
202007161750 METAR EDTL 161750Z 18003KT 9999 OVC037 16/15 Q1019=
202007161820 METAR EDTL 161820Z 16002KT 9999 OVC030 16/15 Q1019=
202007161850 METAR EDTL 161850Z 13002KT 9000 OVC036 16/15 Q1019=
202007161950 METAR EDTL 161950Z 20003KT 7000 OVC020 16/15 Q1020=
202007162020 METAR EDTL 162020Z VRB02KT 7000 FEW002 BKN022 OVC032 16/15
202007170520 METAR EDTL 170520Z VRB02KT 9999 OVC023 15/14 Q1020=
202007170550 METAR EDTL 170550Z 36003KT 330V040 9999 OVC022 15/14 Q1020=
202007170620 METAR EDTL 170620Z 34004KT 300V010 9999 OVC021 16/14 Q1020=
202007170650 METAR EDTL 170650Z 34005KT 9999 FEW010 OVC021 16/14 Q1020=
202007170720 METAR EDTL 170720Z 33005KT 9999 BKN013 OVC019 16/15 Q1020=
202007170750 METAR EDTL 170750Z 34005KT 310V020 9999 OVC014 16/14 Q1020=
202007170820 METAR EDTL 170820Z 36007KT 320V030 9999 FEW011 OVC016 16/14
202007170850 METAR EDTL 170850Z 35005KT 300V030 9999 SCT011 OVC021 17/14
202007170920 METAR EDTL 170920Z 01005KT 300V050 9999 SCT012 BKN030 BKN038
202007170950 METAR EDTL 170950Z 02005KT 340V080 9999 FEW012 SCT015 BKN030
202007171020 METAR EDTL 171020Z 01006KT 9999 BKN016 BKN022 OVC027 18/14
202007171050 METAR EDTL 171050Z 36005KT 300V040 9999 SCT018 BKN032 OVC049
202007171120 METAR EDTL 171120Z 33005KT 270V020 9999 FEW021 SCT048 OVC064
202007171150 METAR EDTL 171150Z 01004KT 330V070 9999 FEW040 OVC074 20/13
202007171220 METAR EDTL 171220Z 02004KT 300V110 9999 FEW027 SCT041 BKN086
202007171250 METAR EDTL 171250Z 35007KT 320V030 9999 FEW027 SCT090 21/13
202007171320 METAR EDTL 171320Z 04005KT 320V110 9999 FEW033 SCT090 22/14
202007171350 METAR EDTL 171350Z 35005KT 300V030 9999 FEW039 SCT090 22/13
202007171420 METAR EDTL 171420Z 02005KT 340V070 9999 FEW044 23/13 Q1020=
202007171450 METAR EDTL 171450Z 03004KT 310V100 9999 SCT045 23/13 Q1020=
202007171520 METAR EDTL 171520Z 03005KT 330V130 9999 SCT046 24/12 Q1020=
202007171550 METAR EDTL 171550Z 06005KT 360V120 9999 BKN044 23/12 Q1019=
202007171620 METAR EDTL 171620Z 07003KT 010V100 9999 SCT044 BKN090 22/13
202007171650 METAR EDTL 171650Z 09004KT 030V140 9999 SCT047 BKN092 24/14
202007171720 METAR EDTL 171720Z 08003KT 050V120 9999 SCT048 OVC082 22/13
202007171750 METAR EDTL 171750Z 12003KT 9999 FEW048 BKN090 22/13 Q1019=
202007200550 METAR EDTL 200550Z VRB02KT 9999 NSC 19/13 Q1016=
202007200620 METAR EDTL 200620Z 00000KT CAVOK 21/13 Q1016=
202007200650 METAR EDTL 200650Z 00000KT CAVOK 20/13 Q1016=
202007200720 METAR EDTL 200720Z 23004KT CAVOK 20/14 Q1016=
202007200750 METAR EDTL 200750Z 22005KT CAVOK 21/14 Q1016=
202007200820 METAR EDTL 200820Z 22003KT 170V300 CAVOK 23/14 Q1016=
202007200850 METAR EDTL 200850Z VRB02KT CAVOK 24/14 Q1016=
202007200920 METAR EDTL 200920Z 20004KT 120V260 CAVOK 26/14 Q1016=
202007200950 METAR EDTL 200950Z 22004KT 160V290 CAVOK 27/14 Q1017=
202007201020 METAR EDTL 201020Z VRB04KT CAVOK 29/14 Q1016=
202007201050 METAR EDTL 201050Z 18004KT 100V270 CAVOK 29/13 Q1016=
202007201120 METAR EDTL 201120Z 20005KT 130V280 CAVOK 30/11 Q1016=
202007201150 METAR EDTL 201150Z 21006KT 130V280 CAVOK 30/09 Q1016=
202007201220 METAR EDTL 201220Z VRB03KT CAVOK 30/09 Q1016=
202007201250 METAR EDTL 201250Z 15006KT 110V210 CAVOK 32/12 Q1016=
202007201320 METAR EDTL 201320Z 16006KT 100V210 CAVOK 31/10 Q1015=
202007201350 METAR EDTL 201350Z 17006KT 130V210 CAVOK 32/10 Q1015=
202007201420 METAR EDTL 201420Z VRB04KT CAVOK 30/11 Q1015=
202007201450 METAR EDTL 201450Z 34003KT 290V030 CAVOK 31/10 Q1015=
202007201520 METAR EDTL 201520Z 36006KT CAVOK 31/10 Q1015=
202007201550 METAR EDTL 201550Z 01006KT 330V040 CAVOK 30/11 Q1015=
202007201620 METAR EDTL 201620Z 02006KT 350V050 CAVOK 30/12 Q1015=
202007201650 METAR EDTL 201650Z 02010KT CAVOK 29/13 Q1015=
202007201720 METAR EDTL 201720Z 04006KT 020V080 CAVOK 28/13 Q1015=
202007201750 METAR EDTL 201750Z 04005KT CAVOK 28/13 Q1015=
202007210550 METAR EDTL 210550Z 01005KT 340V040 CAVOK 18/12 Q1020=
202007210620 METAR EDTL 210620Z 01006KT CAVOK 19/13 Q1021=
202007210650 METAR EDTL 210650Z 01007KT CAVOK 18/12 Q1021=
202007210720 METAR EDTL 210720Z 36006KT 330V040 CAVOK 18/12 Q1021=
202007210750 METAR EDTL 210750Z 02004KT 310V080 CAVOK 19/13 Q1021=
202007210820 METAR EDTL 210820Z 36004KT 300V080 CAVOK 20/13 Q1021=
202007210850 METAR EDTL 210850Z 03004KT 310V090 CAVOK 20/13 Q1021=
202007210920 METAR EDTL 210920Z 36005KT 280V040 CAVOK 21/13 Q1021=
202007210950 METAR EDTL 210950Z VRB03KT CAVOK 22/14 Q1021=
202007211020 METAR EDTL 211020Z VRB04KT CAVOK 23/14 Q1021=
202007211050 METAR EDTL 211050Z VRB04KT CAVOK 24/14 Q1021=
202007211120 METAR EDTL 211120Z 02005KT 270V090 CAVOK 25/16 Q1021=
202007211150 METAR EDTL 211150Z VRB05KT CAVOK 25/14 Q1021=
202007211220 METAR EDTL 211220Z 02007KT 330V050 CAVOK 26/15 Q1021=
202007211250 METAR EDTL 211250Z 03007KT 340V070 CAVOK 26/14 Q1021=
202007211320 METAR EDTL 211320Z 36007KT 310V100 CAVOK 27/14 Q1020=
202007211350 METAR EDTL 211350Z 01008KT 330V070 CAVOK 27/14 Q1020=
202007211420 METAR EDTL 211420Z 02007KT 330V080 CAVOK 28/14 Q1020=
202007211450 METAR EDTL 211450Z 02007KT 340V060 CAVOK 27/12 Q1020=
202007211520 METAR EDTL 211520Z 02008KT CAVOK 27/12 Q1020=
202007211550 METAR EDTL 211550Z 36006KT 330V050 CAVOK 27/12 Q1020=
202007211620 METAR EDTL 211620Z 04006KT 360V100 CAVOK 27/12 Q1019=
202007211650 METAR EDTL 211650Z 02009KT CAVOK 26/11 Q1019=
202007211720 METAR EDTL 211720Z 03007KT CAVOK 26/11 Q1019=
202007211750 METAR EDTL 211750Z 04006KT 010V090 CAVOK 26/11 Q1019=
202007220520 METAR EDTL 220520Z 35004KT CAVOK 16/09 Q1021=
202007220550 METAR EDTL 220550Z 01005KT 350V050 CAVOK 16/09 Q1021=
202007220620 METAR EDTL 220620Z 02005KT CAVOK 17/08 Q1021=
202007220650 METAR EDTL 220650Z 01004KT 320V060 CAVOK 17/09 Q1021=
202007220720 METAR EDTL 220720Z VRB02KT CAVOK 19/10 Q1021=
202007220750 METAR EDTL 220750Z VRB03KT CAVOK 19/10 Q1021=
202007220820 METAR EDTL 220820Z VRB04KT CAVOK 20/10 Q1021=
202007220850 METAR EDTL 220850Z 33004KT 290V090 CAVOK 21/11 Q1021=
202007220920 METAR EDTL 220920Z 02006KT 340V070 CAVOK 22/11 Q1021=
202007220950 METAR EDTL 220950Z 03004KT 330V110 CAVOK 23/10 Q1021=
202007221020 METAR EDTL 221020Z 02004KT 280V070 CAVOK 25/11 Q1020=
202007221050 METAR EDTL 221050Z 34005KT 250V030 CAVOK 25/11 Q1020=
202007221120 METAR EDTL 221120Z 04005KT 330V120 CAVOK 25/11 Q1020=
202007221150 METAR EDTL 221150Z 01004KT 310V090 CAVOK 26/11 Q1019=
202007221220 METAR EDTL 221220Z VRB05KT CAVOK 27/12 Q1019=
202007221250 METAR EDTL 221250Z 34005KT 250V060 CAVOK 27/13 Q1019=
202007221320 METAR EDTL 221320Z 02005KT 330V080 CAVOK 28/13 Q1018=
202007221350 METAR EDTL 221350Z 06006KT 010V110 CAVOK 28/13 Q1018=
202007221420 METAR EDTL 221420Z 03006KT 320V100 CAVOK 28/12 Q1018=
202007221450 METAR EDTL 221450Z VRB05KT CAVOK 29/12 Q1017=
202007221520 METAR EDTL 221520Z 01007KT 310V060 CAVOK 28/11 Q1017=
202007221550 METAR EDTL 221550Z 02006KT 360V070 CAVOK 28/11 Q1017=
202007221620 METAR EDTL 221620Z 01009KT CAVOK 28/11 Q1017=
202007221650 METAR EDTL 221650Z 03007KT 350V060 CAVOK 28/11 Q1017=
202007221720 METAR EDTL 221720Z 03005KT 350V060 CAVOK 27/11 Q1016=
202007221750 METAR EDTL 221750Z 04003KT 020V110 CAVOK 27/11 Q1016=
202007221820 METAR EDTL 221820Z VRB02KT CAVOK 27/10 Q1016=
202007230550 METAR EDTL 230550Z 02003KT CAVOK 16/10 Q1018=
202007230620 METAR EDTL 230620Z 01005KT CAVOK 17/10 Q1017=
202007230720 METAR EDTL 230720Z 01004KT 330V050 CAVOK 18/10 Q1018=
202007230750 METAR EDTL 230750Z 02005KT 310V060 CAVOK 20/11 Q1018=
202007230820 METAR EDTL 230820Z 02003KT 260V080 CAVOK 20/10 Q1018=
202007230850 METAR EDTL 230850Z VRB03KT CAVOK 21/11 Q1017=
202007230920 METAR EDTL 230920Z VRB03KT CAVOK 22/10 Q1017=
202007230950 METAR EDTL 230950Z 03005KT 330V110 CAVOK 22/10 Q1017=
202007231020 METAR EDTL 231020Z 36003KT 290V090 CAVOK 24/10 Q1017=
202007231050 METAR EDTL 231050Z 01004KT 290V100 CAVOK 24/11 Q1017=
202007231120 METAR EDTL 231120Z 02004KT 290V100 CAVOK 25/10 Q1016=
202007231150 METAR EDTL 231150Z VRB04KT CAVOK 26/09 Q1016=
202007231220 METAR EDTL 231220Z VRB04KT CAVOK 26/08 Q1016=
202007231250 METAR EDTL 231250Z VRB03KT CAVOK 27/08 Q1015=
202007231320 METAR EDTL 231320Z VRB04KT CAVOK 27/09 Q1015=
202007231350 METAR EDTL 231350Z 31007KT 260V340 CAVOK 27/09 Q1015=
202007231420 METAR EDTL 231420Z VRB03KT CAVOK 27/09 Q1015=
202007231450 METAR EDTL 231450Z 31004KT 240V010 CAVOK 27/09 Q1014=
202007231520 METAR EDTL 231520Z VRB04KT CAVOK 28/10 Q1014=
202007231550 METAR EDTL 231550Z VRB03KT CAVOK 28/09 Q1014=
202007231620 METAR EDTL 231620Z 05003KT 360V120 CAVOK 27/09 Q1014=
202007231650 METAR EDTL 231650Z 08003KT 030V140 CAVOK 27/09 Q1013=
202007231720 METAR EDTL 231720Z 10003KT CAVOK 27/09 Q1013=
202007231750 METAR EDTL 231750Z 11003KT CAVOK 27/08 Q1013=
202007231820 METAR EDTL 231820Z 11003KT CAVOK 27/08 Q1013=
202007240550 METAR EDTL 240550Z VRB02KT CAVOK 18/13 Q1013=
202007240620 METAR EDTL 240620Z VRB02KT CAVOK 18/13 Q1013=
202007240650 METAR EDTL 240650Z VRB02KT CAVOK 20/12 Q1013=
202007240720 METAR EDTL 240720Z 23004KT 180V250 CAVOK 21/12 Q1013=
202007240750 METAR EDTL 240750Z 22005KT 170V260 CAVOK 21/12 Q1013=
202007240820 METAR EDTL 240820Z 21005KT 180V250 CAVOK 22/12 Q1014=
202007240850 METAR EDTL 240850Z 20004KT 110V230 CAVOK 23/12 Q1014=
202007240920 METAR EDTL 240920Z VRB01KT CAVOK 23/11 Q1014=
202007240950 METAR EDTL 240950Z VRB01KT CAVOK 24/12 Q1014=
202007241020 METAR EDTL 241020Z VRB01KT CAVOK 25/12 Q1014=
202007241050 METAR EDTL 241050Z VRB03KT CAVOK 26/10 Q1014=
202007241120 METAR EDTL 241120Z VRB02KT CAVOK 26/08 Q1013=
202007241150 METAR EDTL 241150Z VRB02KT CAVOK 27/11 Q1013=
202007241220 METAR EDTL 241220Z VRB03KT CAVOK 28/09 Q1013=
202007241250 METAR EDTL 241250Z VRB03KT CAVOK 28/10 Q1013=
202007241320 METAR EDTL 241320Z VRB03KT CAVOK 26/10 Q1013=
202007241350 METAR EDTL 241350Z 31007KT CAVOK 26/10 Q1013=
202007241420 METAR EDTL 241420Z 25012KT CAVOK 24/12 Q1013=
202007241450 METAR EDTL 241450Z 23009KT CAVOK 25/11 Q1013=
202007241520 METAR EDTL 241520Z 22009KT CAVOK 25/12 Q1013=
202007241550 METAR EDTL 241550Z 22011KT CAVOK 24/13 Q1013=
202007241620 METAR EDTL 241620Z 24009KT CAVOK 24/13 Q1013=
202007241650 METAR EDTL 241650Z 23007KT CAVOK 25/12 Q1013=
202007241720 METAR EDTL 241720Z 20006KT 190V250 CAVOK 23/12 Q1013=
202007241750 METAR EDTL 241750Z 18006KT CAVOK 23/13 Q1013=
202007250650 METAR EDTL 250650Z 18004KT 130V240 CAVOK 21/14 Q1015=
202007250720 METAR EDTL 250720Z 23007KT CAVOK 22/14 Q1015=
202007250750 METAR EDTL 250750Z 24003KT 140V290 CAVOK 23/15 Q1015=
202007250820 METAR EDTL 250820Z VRB03KT CAVOK 24/15 Q1015=
202007250850 METAR EDTL 250850Z VRB03KT CAVOK 24/14 Q1015=
202007250920 METAR EDTL 250920Z 19003KT 120V280 CAVOK 25/13 Q1015=
202007250950 METAR EDTL 250950Z VRB04KT CAVOK 25/12 Q1015=
202007270520 METAR EDTL 270520Z 19002KT CAVOK 17/14 Q1017=
202007270550 METAR EDTL 270550Z 18003KT CAVOK 18/15 Q1017=
202007270620 METAR EDTL 270620Z 20003KT 160V230 CAVOK 19/15 Q1017=
202007270650 METAR EDTL 270650Z VRB03KT CAVOK 21/15 Q1017=
202007270720 METAR EDTL 270720Z 18004KT 150V230 CAVOK 21/15 Q1017=
202007270750 METAR EDTL 270750Z 21005KT 160V240 CAVOK 22/15 Q1017=
202007270820 METAR EDTL 270820Z 19003KT 120V260 CAVOK 23/16 Q1017=
202007270850 METAR EDTL 270850Z VRB03KT CAVOK 24/17 Q1017=
202007270920 METAR EDTL 270920Z 20007KT CAVOK 26/15 Q1016=
202007270950 METAR EDTL 270950Z 20009KT 160V230 CAVOK 27/15 Q1016=
202007271020 METAR EDTL 271020Z 20005KT 140V260 CAVOK 28/13 Q1016=
202007271050 METAR EDTL 271050Z 21005KT 150V280 CAVOK 29/14 Q1015=
202007271120 METAR EDTL 271120Z 18007KT 120V230 CAVOK 29/13 Q1015=
202007271150 METAR EDTL 271150Z 19007KT 120V230 CAVOK 30/14 Q1014=
202007271220 METAR EDTL 271220Z VRB07KT CAVOK 30/13 Q1014=
202007271250 METAR EDTL 271250Z 18006KT 130V260 CAVOK 31/13 Q1013=
202007271320 METAR EDTL 271320Z 21009KT 170V240 CAVOK 32/13 Q1013=
202007271350 METAR EDTL 271350Z 21008KT 170V230 CAVOK 32/12 Q1013=
202007271420 METAR EDTL 271420Z 20010KT 140V230 CAVOK 33/13 Q1012=
202007271450 METAR EDTL 271450Z 18011KT 150V220 CAVOK 33/12 Q1012=
202007271520 METAR EDTL 271520Z 19010KT CAVOK 33/11 Q1011=
202007271550 METAR EDTL 271550Z 22012KT 180V250 CAVOK 33/12 Q1011=
202007271620 METAR EDTL 271620Z 20010KT 160V220 CAVOK 33/13 Q1011=
202007271650 METAR EDTL 271650Z 22011KT CAVOK 33/13 Q1011=
202007271720 METAR EDTL 271720Z 21009KT CAVOK 32/13 Q1010=
202007271750 METAR EDTL 271750Z 21009KT CAVOK 32/14 Q1010=
202007280550 METAR EDTL 280550Z 18004KT 150V240 CAVOK 24/14 Q1014=
202007280620 METAR EDTL 280620Z 20004KT 160V240 CAVOK 24/14 Q1014=
202007280650 METAR EDTL 280650Z 19005KT 140V230 CAVOK 25/15 Q1014=
202007280720 METAR EDTL 280720Z 26005KT 200V330 CAVOK 25/15 Q1014=
202007280750 METAR EDTL 280750Z 27007KT 220V310 CAVOK 26/15 Q1014=
202007280820 METAR EDTL 280820Z VRB05KT 9999 FEW046 26/15 Q1014=
202007280850 METAR EDTL 280850Z 28005KT 210V020 9999 FEW049 27/15 Q1014=
202007280920 METAR EDTL 280920Z VRB04KT CAVOK 28/15 Q1014=
202007280950 METAR EDTL 280950Z 32010KT 280V350 CAVOK 28/15 Q1014=
202007281020 METAR EDTL 281020Z 27007KT 230V340 CAVOK 28/16 Q1014=
202007281050 METAR EDTL 281050Z 27006KT 230V030 CAVOK 28/16 Q1014=
202007281120 METAR EDTL 281120Z 33011KT 270V360 CAVOK 28/16 Q1014=
202007281150 METAR EDTL 281150Z 26013KT 230V300 CAVOK 28/16 Q1014=
202007281220 METAR EDTL 281220Z 28012KT 250V310 CAVOK 27/15 Q1014=
202007281250 METAR EDTL 281250Z 27017KT 230V300 CAVOK 29/16 Q1013=
202007281320 METAR EDTL 281320Z 28014KT 250V310 CAVOK 29/15 Q1013=
202007281350 METAR EDTL 281350Z 27015KT CAVOK 30/15 Q1013=
202007281420 METAR EDTL 281420Z 28011KT 240V310 CAVOK 30/15 Q1013=
202007281450 METAR EDTL 281450Z 28013KT 240V320 CAVOK 29/14 Q1013=
202007281520 METAR EDTL 281520Z 27011KT CAVOK 29/14 Q1014=
202007281550 METAR EDTL 281550Z 26011KT CAVOK 28/14 Q1014=
202007281620 METAR EDTL 281620Z 26011KT CAVOK 28/14 Q1014=
202007281650 METAR EDTL 281650Z 27008KT CAVOK 28/13 Q1014=
202007281720 METAR EDTL 281720Z 31009KT 280V350 CAVOK 28/12 Q1014=
202007281750 METAR EDTL 281750Z 33012KT CAVOK 28/14 Q1015=
202007290550 METAR EDTL 290550Z VRB02KT CAVOK 17/12 Q1020=
202007290620 METAR EDTL 290620Z VRB01KT CAVOK 18/11 Q1020=
202007290650 METAR EDTL 290650Z VRB02KT CAVOK 19/11 Q1020=
202007290720 METAR EDTL 290720Z VRB03KT CAVOK 20/10 Q1021=
202007290750 METAR EDTL 290750Z 03004KT 340V110 CAVOK 21/11 Q1021=
202007290820 METAR EDTL 290820Z VRB03KT CAVOK 22/09 Q1021=
202007290850 METAR EDTL 290850Z 03004KT 330V150 CAVOK 23/10 Q1021=
202007290920 METAR EDTL 290920Z VRB02KT CAVOK 23/10 Q1021=
202007290950 METAR EDTL 290950Z VRB03KT CAVOK 23/09 Q1020=
202007291020 METAR EDTL 291020Z VRB04KT CAVOK 25/09 Q1020=
202007291050 METAR EDTL 291050Z VRB05KT CAVOK 25/10 Q1020=
202007291120 METAR EDTL 291120Z 02006KT 340V140 CAVOK 25/09 Q1020=
202007291150 METAR EDTL 291150Z 07004KT 010V180 CAVOK 26/09 Q1020=
202007291220 METAR EDTL 291220Z VRB05KT CAVOK 27/09 Q1019=
202007291250 METAR EDTL 291250Z 31005KT 210V360 CAVOK 27/09 Q1019=
202007291320 METAR EDTL 291320Z VRB05KT CAVOK 27/09 Q1019=
202007291350 METAR EDTL 291350Z 12005KT 040V180 CAVOK 27/09 Q1019=
202007291420 METAR EDTL 291420Z 10005KT 360V150 CAVOK 27/09 Q1019=
202007291450 METAR EDTL 291450Z 07005KT 010V130 CAVOK 28/09 Q1018=
202007291520 METAR EDTL 291520Z 07005KT 360V130 CAVOK 28/09 Q1018=
202007291550 METAR EDTL 291550Z 05005KT 020V100 CAVOK 28/08 Q1018=
202007291620 METAR EDTL 291620Z 03005KT 350V070 CAVOK 27/08 Q1018=
202007291650 METAR EDTL 291650Z 01006KT CAVOK 27/08 Q1018=
202007291720 METAR EDTL 291720Z 03005KT 360V100 CAVOK 27/08 Q1018=
202007291750 METAR EDTL 291750Z 02005KT CAVOK 26/08 Q1018=
202007300550 METAR EDTL 300550Z 29003KT CAVOK 16/11 Q1020=
202007300620 METAR EDTL 300620Z VRB02KT CAVOK 17/11 Q1020=
202007300650 METAR EDTL 300650Z VRB03KT CAVOK 18/11 Q1020=
202007300720 METAR EDTL 300720Z VRB03KT CAVOK 19/11 Q1020=
202007300750 METAR EDTL 300750Z VRB02KT CAVOK 20/10 Q1020=
202007300820 METAR EDTL 300820Z VRB02KT CAVOK 22/10 Q1020=
202007300850 METAR EDTL 300850Z 32003KT 280V030 CAVOK 23/10 Q1020=
202007300920 METAR EDTL 300920Z VRB04KT CAVOK 25/10 Q1020=
202007300950 METAR EDTL 300950Z VRB03KT CAVOK 26/10 Q1020=
202007301020 METAR EDTL 301020Z 04005KT 350V110 CAVOK 27/11 Q1020=
202007301050 METAR EDTL 301050Z 01006KT 340V100 CAVOK 28/10 Q1019=
202007301120 METAR EDTL 301120Z 34006KT 280V090 CAVOK 28/10 Q1019=
202007301150 METAR EDTL 301150Z 02006KT 310V090 CAVOK 30/10 Q1019=
202007301220 METAR EDTL 301220Z VRB06KT CAVOK 30/09 Q1019=
202007301250 METAR EDTL 301250Z 36006KT 280V080 CAVOK 30/09 Q1018=
202007301320 METAR EDTL 301320Z 04006KT 010V110 CAVOK 30/08 Q1018=
202007301350 METAR EDTL 301350Z VRB03KT CAVOK 32/09 Q1018=
202007301420 METAR EDTL 301420Z VRB04KT CAVOK 31/08 Q1017=
202007301450 METAR EDTL 301450Z 03005KT 340V100 CAVOK 31/07 Q1017=
202007301520 METAR EDTL 301520Z 03006KT 350V090 CAVOK 32/06 Q1017=
202007301550 METAR EDTL 301550Z 03006KT 350V060 CAVOK 32/06 Q1017=
202007301620 METAR EDTL 301620Z 36006KT 330V030 CAVOK 32/05 Q1016=
202007301650 METAR EDTL 301650Z 01007KT CAVOK 31/06 Q1016=
202007301720 METAR EDTL 301720Z 36007KT CAVOK 31/07 Q1016=
202007301750 METAR EDTL 301750Z 36007KT CAVOK 30/06 Q1016=
202007310550 METAR EDTL 310550Z 13002KT CAVOK 19/11 Q1018=
202007310620 METAR EDTL 310620Z VRB02KT CAVOK 21/10 Q1017=
202007310650 METAR EDTL 310650Z 22004KT CAVOK 21/10 Q1018=
202007310720 METAR EDTL 310720Z 25004KT 210V290 CAVOK 23/11 Q1018=
202007310750 METAR EDTL 310750Z VRB04KT CAVOK 24/11 Q1018=
202007310820 METAR EDTL 310820Z VRB02KT CAVOK 25/12 Q1018=
202007310850 METAR EDTL 310850Z VRB02KT CAVOK 26/11 Q1017=
202007310920 METAR EDTL 310920Z VRB02KT CAVOK 27/11 Q1017=
202007310950 METAR EDTL 310950Z VRB02KT CAVOK 28/11 Q1017=
202007311020 METAR EDTL 311020Z VRB02KT CAVOK 30/11 Q1017=
202007311050 METAR EDTL 311050Z VRB02KT CAVOK 31/10 Q1016=
202007311120 METAR EDTL 311120Z VRB02KT CAVOK 33/12 Q1016=
202007311150 METAR EDTL 311150Z VRB03KT CAVOK 33/11 Q1016=
202007311220 METAR EDTL 311220Z VRB02KT CAVOK 33/12 Q1015=
202007311250 METAR EDTL 311250Z VRB03KT CAVOK 34/11 Q1015=
202007311320 METAR EDTL 311320Z VRB05KT CAVOK 35/11 Q1015=
202007311350 METAR EDTL 311350Z 05005KT 360V110 CAVOK 35/10 Q1015=
202007311420 METAR EDTL 311420Z VRB04KT CAVOK 36/11 Q1014=
202007311450 METAR EDTL 311450Z 03004KT 340V120 CAVOK 36/10 Q1014=
202007311520 METAR EDTL 311520Z 05003KT 330V110 CAVOK 36/10 Q1014=
202007311550 METAR EDTL 311550Z 05004KT 010V100 CAVOK 36/11 Q1014=
202007311620 METAR EDTL 311620Z 05004KT 350V090 CAVOK 35/11 Q1013=
202007311650 METAR EDTL 311650Z VRB03KT CAVOK 35/10 Q1013=
202007311720 METAR EDTL 311720Z 01006KT CAVOK 35/11 Q1013=
202007311750 METAR EDTL 311750Z 01005KT CAVOK 34/11 Q1013=
202007311820 METAR EDTL 311820Z 02006KT CAVOK 33/12 Q1013=
202008010620 METAR EDTL 010620Z 21005KT CAVOK 24/15 Q1015=
202008010650 METAR EDTL 010650Z 20003KT 160V240 CAVOK 24/15 Q1015=
202008010720 METAR EDTL 010720Z VRB02KT CAVOK 25/16 Q1015=
202008010750 METAR EDTL 010750Z VRB02KT CAVOK 27/16 Q1015=
202008010820 METAR EDTL 010820Z 00000KT CAVOK 28/17 Q1015=
202008010850 METAR EDTL 010850Z VRB03KT CAVOK 30/16 Q1015=
202008010920 METAR EDTL 010920Z VRB02KT CAVOK 30/16 Q1016=
202008010950 METAR EDTL 010950Z 05004KT 320V110 CAVOK 31/15 Q1016=
202008011020 METAR EDTL 011020Z VRB05KT CAVOK 31/15 Q1016=
202008011050 METAR EDTL 011050Z 04008KT 330V080 CAVOK 31/14 Q1016=
202008020920 METAR EDTL 020920Z 34006KT 310V020 CAVOK 23/18 Q1016=
202008021420 METAR EDTL 021420Z 21008KT 7000 FEW015 BKN070 22/20 Q1015=
202008021450 METAR EDTL 021450Z 20008KT CAVOK 21/19 Q1015=
202008030550 METAR EDTL 030550Z VRB02KT CAVOK 18/16 Q1013=
202008030620 METAR EDTL 030620Z 01003KT 330V080 CAVOK 19/15 Q1013=
202008030650 METAR EDTL 030650Z 02003KT 340V060 CAVOK 19/15 Q1013=
202008030720 METAR EDTL 030720Z 03003KT 350V070 9999 FEW011 BKN150 19/15
202008030750 METAR EDTL 030750Z 02005KT 330V050 9999 FEW014 BKN150 20/15
202008030820 METAR EDTL 030820Z 02005KT 9999 FEW025 BKN150 20/13 Q1012=
202008030850 METAR EDTL 030850Z 03005KT 360V080 CAVOK 20/14 Q1012=
202008030920 METAR EDTL 030920Z 03006KT 360V070 CAVOK 21/14 Q1012=
202008030950 METAR EDTL 030950Z 04007KT 010V070 CAVOK 21/13 Q1012=
202008031020 METAR EDTL 031020Z 02007KT 340V060 CAVOK 22/13 Q1012=
202008031050 METAR EDTL 031050Z 02008KT 330V070 9999 FEW033 SCT180 22/14
202008031120 METAR EDTL 031120Z 02008KT 330V080 9999 FEW033 SCT200 23/13
202008031150 METAR EDTL 031150Z 03008KT 340V100 9999 FEW037 SCT210 23/13
202008031220 METAR EDTL 031220Z 01008KT 320V050 9999 SCT039 23/13 Q1011=
202008031250 METAR EDTL 031250Z 02007KT 350V050 9999 FEW041 SCT170 BKN200
202008031320 METAR EDTL 031320Z 32017KT 9999 TS SHRA SCT039CB BKN059 BKN210
202008031420 METAR EDTL 031420Z 10005KT CAVOK 17/14 Q1010 RETS=
202008031450 METAR EDTL 031450Z VRB04KT CAVOK 19/15 Q1011=
202008031520 METAR EDTL 031520Z 29007KT 240V330 CAVOK 18/15 Q1011=
202008031550 METAR EDTL 031550Z 28005KT 240V320 CAVOK 17/15 Q1012=
202008031620 METAR EDTL 031620Z 21003KT 9999 -RA NSC 17/15 Q1012=
202008031650 METAR EDTL 031650Z 22003KT CAVOK 17/15 Q1011=
202008031720 METAR EDTL 031720Z 02007KT 340V050 9999 FEW011 SCT064 BKN076
202008031750 METAR EDTL 031750Z 04006KT 360V060 9999 FEW014 BKN078 16/14
202008040550 METAR EDTL 040550Z VRB02KT 9999 FEW014 BKN082 15/14 Q1014=
202008040620 METAR EDTL 040620Z 00000KT 9999 BKN015 BKN086 16/14 Q1015=
202008040650 METAR EDTL 040650Z VRB01KT 9999 SCT007 BKN020 OVC098 16/14
202008040720 METAR EDTL 040720Z VRB02KT 9999 SCT008 BKN015 BKN098 16/15
202008040750 METAR EDTL 040750Z 32004KT 290V350 9999 SCT008 BKN022 17/14
202008040820 METAR EDTL 040820Z 34004KT 310V040 9999 FEW013 BKN019 BKN098
202008040850 METAR EDTL 040850Z VRB03KT 9999 BKN016 BKN025 17/14 Q1016=
202008040920 METAR EDTL 040920Z 32004KT 280V350 9999 SCT016 BKN024 18/14
202008040950 METAR EDTL 040950Z 32005KT 000V360 9999 BKN024 18/14 Q1016=
202008041020 METAR EDTL 041020Z VRB04KT 9999 BKN025 19/13 Q1017=
202008041050 METAR EDTL 041050Z VRB02KT 9999 BKN028 21/14 Q1017=
202008041120 METAR EDTL 041120Z VRB04KT 9999 SCT031 20/14 Q1017=
202008041150 METAR EDTL 041150Z VRB03KT 9999 SCT036 BKN110 21/12 Q1017=
202008041220 METAR EDTL 041220Z VRB03KT 9999 SCT042 BKN110 21/11 Q1017=
202008041250 METAR EDTL 041250Z VRB03KT 9999 FEW046 SCT053 OVC110 22/11
202008041320 METAR EDTL 041320Z 03005KT 360V090 CAVOK 21/11 Q1017=
202008041350 METAR EDTL 041350Z 02004KT 330V080 CAVOK 22/12 Q1017=
202008041420 METAR EDTL 041420Z 34005KT 310V020 CAVOK 22/12 Q1017=
202008041450 METAR EDTL 041450Z 34004KT 280V050 CAVOK 23/11 Q1017=
202008041520 METAR EDTL 041520Z 15006KT 120V200 CAVOK 21/11 Q1017=
202008041550 METAR EDTL 041550Z 16005KT 130V190 CAVOK 22/11 Q1017=
202008041620 METAR EDTL 041620Z VRB03KT CAVOK 22/10 Q1017=
202008041650 METAR EDTL 041650Z 14003KT 090V220 CAVOK 22/11 Q1017=
202008041720 METAR EDTL 041720Z 15007KT CAVOK 22/11 Q1017=
202008041750 METAR EDTL 041750Z 15006KT CAVOK 21/13 Q1017=
202008050550 METAR EDTL 050550Z 00000KT CAVOK 14/12 Q1019=
202008050620 METAR EDTL 050620Z VRB03KT CAVOK 15/12 Q1019=
202008050650 METAR EDTL 050650Z 36003KT 330V070 CAVOK 16/12 Q1019=
202008050720 METAR EDTL 050720Z VRB02KT CAVOK 17/12 Q1019=
202008050750 METAR EDTL 050750Z 35003KT 300V040 CAVOK 18/12 Q1019=
202008050820 METAR EDTL 050820Z 36003KT 280V080 CAVOK 19/13 Q1019=
202008050850 METAR EDTL 050850Z 01004KT 320V060 CAVOK 21/13 Q1019=
202008050920 METAR EDTL 050920Z VRB05KT CAVOK 22/12 Q1018=
202008050950 METAR EDTL 050950Z 01004KT 320V070 CAVOK 23/12 Q1018=
202008051020 METAR EDTL 051020Z VRB05KT CAVOK 23/11 Q1018=
202008051050 METAR EDTL 051050Z 36006KT 330V070 CAVOK 24/10 Q1018=
202008051120 METAR EDTL 051120Z 02005KT 310V120 CAVOK 25/11 Q1017=
202008051150 METAR EDTL 051150Z 01007KT 320V050 CAVOK 25/10 Q1017=
202008051220 METAR EDTL 051220Z 01006KT 280V080 CAVOK 26/09 Q1017=
202008051250 METAR EDTL 051250Z VRB03KT CAVOK 27/08 Q1017=
202008051320 METAR EDTL 051320Z VRB05KT CAVOK 27/09 Q1016=
202008051350 METAR EDTL 051350Z 09006KT 050V130 CAVOK 27/08 Q1016=
202008051420 METAR EDTL 051420Z 05005KT 010V110 CAVOK 27/08 Q1016=
202008051450 METAR EDTL 051450Z 06006KT 360V110 CAVOK 27/09 Q1016=
202008051520 METAR EDTL 051520Z 08005KT 020V130 CAVOK 27/09 Q1016=
202008051550 METAR EDTL 051550Z 06005KT 360V130 CAVOK 28/09 Q1016=
202008051620 METAR EDTL 051620Z 09004KT 040V120 CAVOK 27/08 Q1016=
202008051650 METAR EDTL 051650Z VRB04KT CAVOK 27/09 Q1016=
202008051720 METAR EDTL 051720Z 07003KT 020V140 CAVOK 27/09 Q1016=
202008051750 METAR EDTL 051750Z 08004KT CAVOK 27/09 Q1016=
202008060550 METAR EDTL 060550Z 35002KT CAVOK 16/13 Q1019=
202008060620 METAR EDTL 060620Z VRB02KT CAVOK 16/13 Q1019=
202008060650 METAR EDTL 060650Z 33003KT CAVOK 20/13 Q1019=
202008060720 METAR EDTL 060720Z VRB03KT CAVOK 20/13 Q1020=
202008060750 METAR EDTL 060750Z 34004KT 280V040 CAVOK 21/14 Q1020=
202008060820 METAR EDTL 060820Z VRB03KT CAVOK 21/13 Q1020=
202008060850 METAR EDTL 060850Z 30004KT 260V340 CAVOK 22/13 Q1020=
202008060920 METAR EDTL 060920Z VRB04KT CAVOK 23/13 Q1020=
202008060950 METAR EDTL 060950Z VRB04KT CAVOK 24/14 Q1020=
202008061020 METAR EDTL 061020Z 32004KT 250V020 CAVOK 24/14 Q1019=
202008061050 METAR EDTL 061050Z 31006KT 260V360 CAVOK 25/14 Q1019=
202008061120 METAR EDTL 061120Z 31006KT 260V340 CAVOK 26/14 Q1019=
202008061150 METAR EDTL 061150Z VRB07KT CAVOK 26/14 Q1019=
202008061220 METAR EDTL 061220Z 30007KT 250V330 CAVOK 27/14 Q1019=
202008061250 METAR EDTL 061250Z 32008KT 270V360 CAVOK 27/14 Q1018=
202008061320 METAR EDTL 061320Z 32009KT 280V350 CAVOK 28/14 Q1018=
202008061350 METAR EDTL 061350Z 32007KT 280V010 CAVOK 29/15 Q1018=
202008061420 METAR EDTL 061420Z 33007KT 290V010 CAVOK 29/15 Q1018=
202008061450 METAR EDTL 061450Z 32008KT 280V350 CAVOK 29/14 Q1018=
202008061520 METAR EDTL 061520Z 33007KT 280V360 CAVOK 29/14 Q1018=
202008061550 METAR EDTL 061550Z 30008KT CAVOK 30/14 Q1018=
202008061620 METAR EDTL 061620Z 31009KT CAVOK 29/14 Q1017=
202008061650 METAR EDTL 061650Z 32009KT CAVOK 30/15 Q1017=
202008061720 METAR EDTL 061720Z 31008KT CAVOK 29/14 Q1017=
202008061750 METAR EDTL 061750Z 32007KT CAVOK 29/15 Q1018=
202008070550 METAR EDTL 070550Z VRB01KT CAVOK 19/16 Q1020=
202008070620 METAR EDTL 070620Z VRB02KT CAVOK 20/16 Q1020=
202008070650 METAR EDTL 070650Z VRB02KT CAVOK 21/16 Q1020=
202008070720 METAR EDTL 070720Z 33004KT 300V010 CAVOK 22/16 Q1020=
202008070750 METAR EDTL 070750Z VRB02KT CAVOK 23/16 Q1020=
202008070820 METAR EDTL 070820Z VRB03KT CAVOK 24/17 Q1020=
202008070850 METAR EDTL 070850Z 31005KT 270V350 CAVOK 26/17 Q1020=
202008070920 METAR EDTL 070920Z VRB04KT CAVOK 27/18 Q1020=
202008070950 METAR EDTL 070950Z 30003KT 230V030 CAVOK 28/17 Q1020=
202008071020 METAR EDTL 071020Z VRB03KT CAVOK 28/17 Q1019=
202008071050 METAR EDTL 071050Z VRB03KT CAVOK 29/16 Q1019=
202008071120 METAR EDTL 071120Z VRB04KT CAVOK 30/16 Q1019=
202008071150 METAR EDTL 071150Z VRB04KT CAVOK 30/17 Q1019=
202008071220 METAR EDTL 071220Z 31007KT 260V020 CAVOK 30/17 Q1018=
202008071250 METAR EDTL 071250Z 31008KT 270V340 CAVOK 32/18 Q1018=
202008071320 METAR EDTL 071320Z 30009KT 260V340 CAVOK 31/17 Q1018=
202008071350 METAR EDTL 071350Z 30007KT 260V350 CAVOK 31/17 Q1018=
202008071420 METAR EDTL 071420Z 31008KT 300V360 CAVOK 32/17 Q1018=
202008071450 METAR EDTL 071450Z 31008KT 270V360 CAVOK 32/17 Q1018=
202008071520 METAR EDTL 071520Z 33008KT 300V010 CAVOK 33/18 Q1017=
202008071550 METAR EDTL 071550Z 32009KT CAVOK 33/17 Q1017=
202008071620 METAR EDTL 071620Z 32009KT CAVOK 32/17 Q1017=
202008071650 METAR EDTL 071650Z 32009KT 290V350 CAVOK 32/17 Q1017=
202008071720 METAR EDTL 071720Z 35008KT CAVOK 32/17 Q1017=
202008071750 METAR EDTL 071750Z 35006KT CAVOK 32/18 Q1017=
202008081420 METAR EDTL 081420Z VRB05KT CAVOK 33/15 Q1018=
202008081450 METAR EDTL 081450Z 01006KT 330V070 CAVOK 34/15 Q1018=
202008081520 METAR EDTL 081520Z 31008KT 290V360 CAVOK 34/14 Q1018=
202008100620 METAR EDTL 100620Z VRB02KT CAVOK 21/16 Q1014=
202008100650 METAR EDTL 100650Z 00000KT CAVOK 22/16 Q1014=
202008100720 METAR EDTL 100720Z VRB02KT CAVOK 24/15 Q1015=
202008100750 METAR EDTL 100750Z VRB02KT CAVOK 25/16 Q1015=
202008100820 METAR EDTL 100820Z VRB03KT CAVOK 26/16 Q1014=
202008100850 METAR EDTL 100850Z 32003KT 260V020 CAVOK 27/17 Q1014=
202008100920 METAR EDTL 100920Z VRB02KT CAVOK 28/17 Q1014=
202008100950 METAR EDTL 100950Z 02004KT 310V090 CAVOK 29/16 Q1014=
202008101020 METAR EDTL 101020Z 36004KT 320V070 CAVOK 31/16 Q1014=
202008101050 METAR EDTL 101050Z VRB04KT CAVOK 32/14 Q1014=
202008101120 METAR EDTL 101120Z VRB02KT CAVOK 33/13 Q1014=
202008101150 METAR EDTL 101150Z 02005KT 320V090 CAVOK 32/15 Q1013=
202008101220 METAR EDTL 101220Z VRB05KT CAVOK 33/14 Q1013=
202008101250 METAR EDTL 101250Z 26006KT 220V320 CAVOK 33/15 Q1013=
202008101320 METAR EDTL 101320Z 31005KT 260V010 CAVOK 34/15 Q1013=
202008101350 METAR EDTL 101350Z 30006KT 270V350 CAVOK 33/15 Q1012=
202008101420 METAR EDTL 101420Z VRB05G15KT CAVOK 34/14 Q1012=
202008101450 METAR EDTL 101450Z VRB04KT CAVOK 34/14 Q1012=
202008101520 METAR EDTL 101520Z 31007KT 280V360 CAVOK 34/14 Q1012=
202008101550 METAR EDTL 101550Z VRB05KT CAVOK 34/13 Q1012=
202008101620 METAR EDTL 101620Z 30007KT CAVOK 34/13 Q1012=
202008101650 METAR EDTL 101650Z 34005KT CAVOK 33/14 Q1012=
202008101720 METAR EDTL 101720Z 33004KT CAVOK 32/15 Q1012=
202008101750 METAR EDTL 101750Z 31004KT CAVOK 32/15 Q1012=
202008101820 METAR EDTL 101820Z VRB02KT CAVOK 30/17 Q1012=
202008110520 METAR EDTL 110520Z 29002KT CAVOK 20/16 Q1015=
202008110550 METAR EDTL 110550Z 16002KT CAVOK 23/17 Q1015=
202008110620 METAR EDTL 110620Z VRB02KT CAVOK 24/16 Q1015=
202008110650 METAR EDTL 110650Z VRB01KT CAVOK 23/17 Q1015=
202008110720 METAR EDTL 110720Z VRB01KT CAVOK 25/17 Q1016=
202008110750 METAR EDTL 110750Z VRB01KT CAVOK 26/17 Q1016=
202008110820 METAR EDTL 110820Z VRB02KT CAVOK 28/17 Q1016=
202008110850 METAR EDTL 110850Z 21006KT 170V250 CAVOK 29/17 Q1016=
202008110920 METAR EDTL 110920Z 21006KT CAVOK 30/16 Q1016=
202008110950 METAR EDTL 110950Z VRB05KT CAVOK 30/17 Q1016=
202008111020 METAR EDTL 111020Z VRB04KT CAVOK 30/17 Q1015=
202008111050 METAR EDTL 111050Z 25005KT 170V330 CAVOK 31/18 Q1015=
202008111120 METAR EDTL 111120Z 25004KT 170V310 CAVOK 32/18 Q1015=
202008111150 METAR EDTL 111150Z 25004KT 180V320 CAVOK 32/18 Q1015=
202008111220 METAR EDTL 111220Z 28005KT 240V310 CAVOK 31/17 Q1015=
202008111250 METAR EDTL 111250Z 30005KT 250V330 CAVOK 31/17 Q1015=
202008111350 METAR EDTL 111350Z VRB02KT CAVOK 32/17 Q1015=
202008111420 METAR EDTL 111420Z VRB02KT CAVOK 32/17 Q1015=
202008111450 METAR EDTL 111450Z 12008KT 090V160 CAVOK 33/16 Q1014=
202008111520 METAR EDTL 111520Z 12006KT 090V160 CAVOK 33/15 Q1014=
202008111550 METAR EDTL 111550Z 13006KT 080V170 CAVOK 33/16 Q1013=
202008111620 METAR EDTL 111620Z 15004KT 110V190 CAVOK 32/16 Q1013=
202008111650 METAR EDTL 111650Z VRB02KT CAVOK 32/16 Q1013=
202008111720 METAR EDTL 111720Z 15003KT CAVOK 31/16 Q1013=
202008111750 METAR EDTL 111750Z 14004KT CAVOK 31/16 Q1014=
202008120550 METAR EDTL 120550Z 20001KT CAVOK 20/17 Q1015=
202008120620 METAR EDTL 120620Z VRB02KT CAVOK 22/17 Q1015=
202008120650 METAR EDTL 120650Z 19003KT 110V230 CAVOK 23/18 Q1015=
202008120720 METAR EDTL 120720Z VRB02KT CAVOK 24/18 Q1015=
202008120750 METAR EDTL 120750Z VRB02KT CAVOK 25/18 Q1015=
202008120820 METAR EDTL 120820Z VRB02KT CAVOK 27/18 Q1015=
202008120850 METAR EDTL 120850Z VRB02KT CAVOK 28/18 Q1015=
202008120950 METAR EDTL 120950Z VRB03KT CAVOK 31/19 Q1015=
202008121020 METAR EDTL 121020Z VRB03KT CAVOK 31/18 Q1015=
202008121050 METAR EDTL 121050Z VRB03KT CAVOK 32/18 Q1014=
202008121120 METAR EDTL 121120Z VRB03KT CAVOK 33/19 Q1014=
202008121150 METAR EDTL 121150Z VRB03KT CAVOK 33/18 Q1013=
202008121250 METAR EDTL 121250Z 25007KT 190V290 9999 VCTS FEW060CB 33/18
202008121320 METAR EDTL 121320Z 10012KT 070V150 9999 VCTS VCSH SCT064CB
202008121350 METAR EDTL 121350Z 12008KT 080V150 9999 VCTS VCSH SCT070CB
202008121420 METAR EDTL 121420Z 03005KT 350V070 CAVOK 27/17 Q1014=
202008121450 METAR EDTL 121450Z VRB03KT CAVOK 26/18 Q1014=
202008121520 METAR EDTL 121520Z 13005KT 080V170 CAVOK 27/19 Q1013=
202008121550 METAR EDTL 121550Z 15007KT 110V180 CAVOK 27/19 Q1013=
202008121620 METAR EDTL 121620Z 14006KT 110V170 CAVOK 28/18 Q1013=
202008121650 METAR EDTL 121650Z 13006KT CAVOK 28/19 Q1012=
202008121720 METAR EDTL 121720Z 13004KT CAVOK 28/19 Q1012=
202008121750 METAR EDTL 121750Z VRB02KT CAVOK 28/19 Q1012=
202008130550 METAR EDTL 130550Z 18004KT CAVOK 23/19 Q1013=
202008130620 METAR EDTL 130620Z 19003KT CAVOK 22/19 Q1014=
202008130650 METAR EDTL 130650Z 18004KT 9999 -DZ FEW049 BKN100 22/20 Q1014=
202008130720 METAR EDTL 130720Z VRB02KT 9999 FEW036 SCT055 BKN080 23/20
202008130750 METAR EDTL 130750Z 12005KT 090V160 9999 -DZ NSC 23/17 Q1015=
202008130850 METAR EDTL 130850Z 09007KT CAVOK 22/19 Q1014=
202008130920 METAR EDTL 130920Z VRB03KT CAVOK 22/19 Q1015=
202008130950 METAR EDTL 130950Z 15005KT 130V200 CAVOK 23/18 Q1015=
202008131020 METAR EDTL 131020Z 13007KT CAVOK 23/19 Q1015=
202008131050 METAR EDTL 131050Z 13006KT CAVOK 24/18 Q1015=
202008131120 METAR EDTL 131120Z 12009KT CAVOK 24/18 Q1015=
202008131150 METAR EDTL 131150Z 11006KT CAVOK 24/18 Q1015=
202008131220 METAR EDTL 131220Z 11006KT 080V150 CAVOK 25/17 Q1015=
202008131250 METAR EDTL 131250Z 10005KT 070V140 CAVOK 25/17 Q1015=
202008131320 METAR EDTL 131320Z 10007KT 070V150 CAVOK 27/18 Q1014=
202008131350 METAR EDTL 131350Z 12006KT 070V160 CAVOK 28/18 Q1014=
202008131420 METAR EDTL 131420Z 12010KT CAVOK 29/17 Q1014=
202008131450 METAR EDTL 131450Z 12008KT 080V150 CAVOK 30/16 Q1014=
202008131520 METAR EDTL 131520Z 12009KT 080V150 CAVOK 30/16 Q1013=
202008131550 METAR EDTL 131550Z 12007KT 080V160 CAVOK 29/16 Q1013=
202008131620 METAR EDTL 131620Z 21020G33KT 9999 VCTS NSC 23/15 Q1014=
202008131650 METAR EDTL 131650Z 23016KT 9999 -SHRA FEW015 SCT100TCU 21/16
202008131720 METAR EDTL 131720Z VRB04KT 9999 FEW021 BKN090 22/17 Q1014=
202008131750 METAR EDTL 131750Z 12006KT 9999 FEW042 BKN092 22/18 Q1013=
202008140520 METAR EDTL 140520Z VRB02KT CAVOK 21/16 Q1015=
202008140550 METAR EDTL 140550Z 00000KT CAVOK 22/16 Q1015=
202008140620 METAR EDTL 140620Z 16006KT 8000 RA FEW002 OVC068 20/17 Q1016=
202008140650 METAR EDTL 140650Z 16005KT 9999 -RA FEW002 OVC076 20/18 Q1016
202008140720 METAR EDTL 140720Z VRB03KT 8000 -RA FEW002 BKN074 19/18 Q1016=
202008140750 METAR EDTL 140750Z 17004KT 8000 -RA FEW038 BKN088 19/18 Q1016=
202008140820 METAR EDTL 140820Z VRB03KT 9999 -RA FEW015 BKN088 19/18 Q1016=
202008140850 METAR EDTL 140850Z VRB03KT 9999 -RA NSC 20/18 Q1016=
202008140920 METAR EDTL 140920Z VRB03KT 7000 -RA NSC 20/18 Q1016=
202008140950 METAR EDTL 140950Z 10004KT 070V140 9999 FEW049 BKN076 21/19
202008141020 METAR EDTL 141020Z 11003KT 9999 FEW008 SCT048 OVC062 21/18
202008141050 METAR EDTL 141050Z VRB02KT 9999 FEW012 SCT037 BKN200 22/18
202008141120 METAR EDTL 141120Z VRB02KT 9999 FEW014 SCT059 BKN100 23/17
202008141150 METAR EDTL 141150Z 04003KT 320V100 9999 FEW016 SCT061 24/17
202008141220 METAR EDTL 141220Z VRB03KT 9999 FEW016 SCT060 24/17 Q1015=
202008141250 METAR EDTL 141250Z 08004KT 030V140 9999 FEW022 SCT060 24/17
202008141320 METAR EDTL 141320Z 13003KT 090V190 9999 FEW026 SCT060 24/18
202008141350 METAR EDTL 141350Z VRB03KT 9999 FEW030 SCT060 25/17 Q1015=
202008141420 METAR EDTL 141420Z VRB03KT 9999 FEW030 SCT070 26/18 Q1015=
202008141450 METAR EDTL 141450Z VRB03KT 9999 FEW030 SCT070 25/18 Q1014=
202008141520 METAR EDTL 141520Z VRB02KT 9999 FEW035 SCT070 25/17 Q1014=
202008141550 METAR EDTL 141550Z 28006KT 9999 FEW030 SCT070 24/18 Q1014=
202008141620 METAR EDTL 141620Z 29005KT CAVOK 23/18 Q1014=
202008141650 METAR EDTL 141650Z 32003KT CAVOK 23/18 Q1014=
202008141720 METAR EDTL 141720Z 19004KT 150V220 CAVOK 23/18 Q1015=
202008141750 METAR EDTL 141750Z 21004KT CAVOK 22/19 Q1015=
202008141820 METAR EDTL 141820Z 19004KT CAVOK 22/19 Q1015=
202008170550 METAR EDTL 170550Z 18005KT CAVOK 18/17 Q1012=
202008170620 METAR EDTL 170620Z 18004KT CAVOK 18/17 Q1012=
202008170650 METAR EDTL 170650Z 17003KT 130V210 CAVOK 19/17 Q1012=
202008170720 METAR EDTL 170720Z 19006KT 150V220 9999 FEW048 BKN070 20/17
202008170750 METAR EDTL 170750Z 19008KT 160V220 9999 SCT047 BKN064 20/17
202008170820 METAR EDTL 170820Z 19007KT 9999 SCT046 BKN061 20/17 Q1012=
202008170850 METAR EDTL 170850Z 19007KT 9999 SCT049 20/17 Q1013=
202008170920 METAR EDTL 170920Z 20007KT 9999 SCT048 21/18 Q1012=
202008170950 METAR EDTL 170950Z 22005KT 170V280 9999 FEW024 SCT053 22/17
202008171020 METAR EDTL 171020Z 26005KT 200V330 9999 FEW021 SCT055 23/18
202008171050 METAR EDTL 171050Z VRB02KT 9999 FEW022 23/17 Q1012=
202008171120 METAR EDTL 171120Z VRB02KT 9999 FEW030 24/16 Q1012=
202008171150 METAR EDTL 171150Z VRB03KT 9999 SCT030 24/16 Q1012=
202008171220 METAR EDTL 171220Z 02004KT 340V130 CAVOK 26/17 Q1012=
202008171250 METAR EDTL 171250Z VRB03KT 9999 SCT036 26/17 Q1012=
202008171320 METAR EDTL 171320Z VRB04KT 9999 SCT043CB SCT098 25/15 Q1011=
202008171350 METAR EDTL 171350Z 36004KT 320V050 9999 FEW082CB SCT100 25/16
202008171420 METAR EDTL 171420Z VRB03KT 9999 VCTS FEW038CB 25/16 Q1011=
202008171450 METAR EDTL 171450Z VRB02KT 9999 FEW098TCU SCT120 26/15 Q1011=
202008171520 METAR EDTL 171520Z VRB02KT 9999 FEW045 25/15 Q1011=
202008171550 METAR EDTL 171550Z 04005KT 360V130 9999 SCT049 25/16 Q1011=
202008171620 METAR EDTL 171620Z VRB03KT CAVOK 25/16 Q1011=
202008171650 METAR EDTL 171650Z VRB02KT CAVOK 25/16 Q1011=
202008171720 METAR EDTL 171720Z VRB02KT CAVOK 26/16 Q1011=
202008171750 METAR EDTL 171750Z VRB01KT CAVOK 25/15 Q1011=
202008180520 METAR EDTL 180520Z 19003KT CAVOK 19/16 Q1013=
202008180550 METAR EDTL 180550Z VRB03KT CAVOK 19/16 Q1013=
202008180620 METAR EDTL 180620Z 18004KT 140V220 CAVOK 19/15 Q1013=
202008180650 METAR EDTL 180650Z 20006KT 160V220 CAVOK 20/15 Q1013=
202008180720 METAR EDTL 180720Z 19005KT 160V220 CAVOK 21/16 Q1014=
202008180750 METAR EDTL 180750Z 19005KT 140V220 9999 FEW028 22/16 Q1014=
202008180820 METAR EDTL 180820Z 19005KT 130V250 9999 FEW032 23/15 Q1014=
202008180850 METAR EDTL 180850Z VRB02KT 9999 FEW032 23/15 Q1014=
202008180920 METAR EDTL 180920Z 25004KT 200V280 9999 FEW044 24/13 Q1014=
202008180950 METAR EDTL 180950Z 23004KT 180V300 9999 FEW046 24/13 Q1013=
202008181020 METAR EDTL 181020Z VRB04KT 9999 FEW046 25/13 Q1013=
202008181050 METAR EDTL 181050Z 28005KT 230V340 9999 FEW048 25/13 Q1013=
202008181120 METAR EDTL 181120Z VRB04KT 9999 FEW048 26/14 Q1012=
202008181150 METAR EDTL 181150Z VRB03KT 9999 VCSH FEW048CB 27/13 Q1012=
202008181220 METAR EDTL 181220Z 24006KT 200V290 9999 SCT066TCU SCT130
202008181250 METAR EDTL 181250Z 31008KT 9999 SCT059TCU BKN160 25/13 Q1012=
202008181320 METAR EDTL 181320Z 32009KT 9999 SCT098TCU BKN140 24/15 Q1012=
202008181350 METAR EDTL 181350Z 33005KT 250V020 CAVOK 24/14 Q1012=
202008181420 METAR EDTL 181420Z VRB03KT 9999 SCT065TCU BKN090 24/13 Q1012=
202008181450 METAR EDTL 181450Z 10004KT 060V130 CAVOK 24/15 Q1012=
202008181520 METAR EDTL 181520Z 10003KT CAVOK 25/14 Q1011=
202008181550 METAR EDTL 181550Z VRB02KT CAVOK 25/15 Q1011=
202008181620 METAR EDTL 181620Z VRB02KT CAVOK 25/14 Q1011=
202008181650 METAR EDTL 181650Z 21007KT CAVOK 25/14 Q1011=
202008181720 METAR EDTL 181720Z 22007KT CAVOK 24/14 Q1011=
202008181750 METAR EDTL 181750Z 22009KT 9999 FEW035TCU 23/15 Q1012=
202008190620 METAR EDTL 190620Z VRB02KT CAVOK 19/15 Q1012=
202008190650 METAR EDTL 190650Z 15004KT CAVOK 19/15 Q1012=
202008190720 METAR EDTL 190720Z VRB03KT 9999 FEW024 21/15 Q1012=
202008190750 METAR EDTL 190750Z VRB01KT 9999 FEW028 22/15 Q1012=
202008190820 METAR EDTL 190820Z VRB02KT 9999 FEW032 23/15 Q1012=
202008190850 METAR EDTL 190850Z VRB02KT 9999 FEW036 24/15 Q1012=
202008190920 METAR EDTL 190920Z VRB02KT 9999 FEW040 25/15 Q1011=
202008190950 METAR EDTL 190950Z VRB02KT 9999 FEW040 25/15 Q1011=
202008191020 METAR EDTL 191020Z 20004KT 150V280 9999 FEW040 25/15 Q1011=
202008191050 METAR EDTL 191050Z VRB02KT 9999 FEW044 26/15 Q1011=
202008191120 METAR EDTL 191120Z VRB02KT CAVOK 27/14 Q1011=
202008191150 METAR EDTL 191150Z VRB03KT CAVOK 27/13 Q1011=
202008191220 METAR EDTL 191220Z VRB04KT CAVOK 27/14 Q1010=
202008191250 METAR EDTL 191250Z VRB03KT CAVOK 28/14 Q1010=
202008191320 METAR EDTL 191320Z 23004KT 180V260 CAVOK 28/14 Q1010=
202008191350 METAR EDTL 191350Z 22005KT 180V270 CAVOK 28/14 Q1010=
202008191420 METAR EDTL 191420Z 22004KT 160V260 CAVOK 27/14 Q1009=
202008191450 METAR EDTL 191450Z 24004KT CAVOK 27/15 Q1009=
202008191520 METAR EDTL 191520Z VRB01KT CAVOK 27/15 Q1009=
202008191550 METAR EDTL 191550Z VRB02KT CAVOK 27/14 Q1009=
202008191620 METAR EDTL 191620Z VRB02KT CAVOK 29/14 Q1009=
202008191650 METAR EDTL 191650Z 00000KT CAVOK 28/14 Q1009=
202008191720 METAR EDTL 191720Z 00000KT CAVOK 27/15 Q1009=
202008191750 METAR EDTL 191750Z 00000KT CAVOK 26/16 Q1009=
202008200550 METAR EDTL 200550Z 26002KT CAVOK 20/18 Q1010=
202008200620 METAR EDTL 200620Z VRB02KT CAVOK 21/15 Q1010=
202008200650 METAR EDTL 200650Z 15004KT 120V190 CAVOK 23/15 Q1010=
202008200720 METAR EDTL 200720Z VRB02KT CAVOK 25/16 Q1010=
202008200750 METAR EDTL 200750Z 25004KT 200V310 CAVOK 25/16 Q1011=
202008200820 METAR EDTL 200820Z 17004KT 120V220 CAVOK 26/16 Q1011=
202008200850 METAR EDTL 200850Z VRB03KT CAVOK 27/16 Q1011=
202008200920 METAR EDTL 200920Z VRB02KT CAVOK 27/16 Q1011=
202008200950 METAR EDTL 200950Z VRB02KT CAVOK 29/17 Q1011=
202008201020 METAR EDTL 201020Z VRB02KT CAVOK 30/17 Q1010=
202008201050 METAR EDTL 201050Z 19005KT 120V240 CAVOK 30/15 Q1010=
202008201120 METAR EDTL 201120Z 22008KT 180V250 CAVOK 31/15 Q1010=
202008201150 METAR EDTL 201150Z 22006KT 150V250 CAVOK 32/16 Q1010=
202008201220 METAR EDTL 201220Z 19007KT 140V230 CAVOK 32/14 Q1010=
202008201250 METAR EDTL 201250Z 21007KT 160V230 CAVOK 32/15 Q1010=
202008201320 METAR EDTL 201320Z 23007KT 190V270 CAVOK 33/16 Q1010=
202008201350 METAR EDTL 201350Z 21007KT 130V260 CAVOK 33/15 Q1009=
202008201420 METAR EDTL 201420Z 21006KT 170V260 CAVOK 33/15 Q1009=
202008201450 METAR EDTL 201450Z VRB03KT CAVOK 33/15 Q1009=
202008201520 METAR EDTL 201520Z 21006KT 170V240 CAVOK 34/13 Q1009=
202008201550 METAR EDTL 201550Z 18006KT 140V230 CAVOK 34/13 Q1009=
202008201620 METAR EDTL 201620Z 18004KT 130V210 CAVOK 34/13 Q1009=
202008201650 METAR EDTL 201650Z 17004KT 150V210 CAVOK 33/13 Q1009=
202008201720 METAR EDTL 201720Z 16004KT 130V210 CAVOK 33/14 Q1008=
202008201750 METAR EDTL 201750Z 16002KT CAVOK 33/13 Q1009=
202008210550 METAR EDTL 210550Z 19006KT CAVOK 22/15 Q1011=
202008210620 METAR EDTL 210620Z 16004KT 130V210 CAVOK 23/16 Q1011=
202008210650 METAR EDTL 210650Z 20007KT CAVOK 23/16 Q1012=
202008210720 METAR EDTL 210720Z 21007KT CAVOK 25/18 Q1012=
202008210750 METAR EDTL 210750Z 15005KT 110V190 CAVOK 26/17 Q1012=
202008210820 METAR EDTL 210820Z 18005KT 150V220 CAVOK 27/17 Q1012=
202008210850 METAR EDTL 210850Z 19007KT CAVOK 28/18 Q1012=
202008210920 METAR EDTL 210920Z 20007KT 160V230 CAVOK 31/16 Q1012=
202008210950 METAR EDTL 210950Z 20010KT 160V230 CAVOK 32/16 Q1012=
202008211020 METAR EDTL 211020Z 21012KT 170V230 CAVOK 32/15 Q1012=
202008211050 METAR EDTL 211050Z 21009KT 160V240 CAVOK 32/16 Q1012=
202008211120 METAR EDTL 211120Z 21006KT 150V250 CAVOK 33/16 Q1012=
202008211150 METAR EDTL 211150Z 20007KT 160V240 CAVOK 34/15 Q1012=
202008211220 METAR EDTL 211220Z 18008KT 140V220 CAVOK 33/15 Q1012=
202008211250 METAR EDTL 211250Z 19006KT 160V240 CAVOK 33/15 Q1012=
202008211320 METAR EDTL 211320Z 20007KT 140V240 CAVOK 34/15 Q1012=
202008211350 METAR EDTL 211350Z 22008KT CAVOK 33/15 Q1012=
202008211420 METAR EDTL 211420Z 19006KT 150V220 CAVOK 35/15 Q1012=
202008211450 METAR EDTL 211450Z 20008KT 140V240 CAVOK 33/16 Q1012=
202008211520 METAR EDTL 211520Z 19004KT 140V220 CAVOK 34/16 Q1012=
202008211550 METAR EDTL 211550Z 22005KT CAVOK 34/15 Q1012=
202008211620 METAR EDTL 211620Z 20004KT 170V250 CAVOK 34/15 Q1012=
202008211650 METAR EDTL 211650Z 24005KT CAVOK 33/16 Q1012=
202008211720 METAR EDTL 211720Z 28006KT 250V340 CAVOK 32/17 Q1012=
202008211750 METAR EDTL 211750Z 35005KT CAVOK 30/17 Q1012=
202008221120 METAR EDTL 221120Z 23008KT 160V280 9999 BKN033 23/16 Q1019=
202008221150 METAR EDTL 221150Z 22009KT 200V270 9999 SCT035 23/16 Q1019=
202008221220 METAR EDTL 221220Z 21006KT 140V250 9999 SCT035 25/16 Q1019=
202008221250 METAR EDTL 221250Z 27009KT 230V310 9999 SCT042 26/16 Q1019=
202008221320 METAR EDTL 221320Z 25009KT 220V290 9999 FEW042 27/14 Q1019=
202008221350 METAR EDTL 221350Z 28012KT 250V320 CAVOK 26/12 Q1019=
202008221550 METAR EDTL 221550Z 26010KT 230V290 CAVOK 26/12 Q1019=
202008221620 METAR EDTL 221620Z 27009KT 240V300 CAVOK 26/12 Q1019=
202008221650 METAR EDTL 221650Z 27011KT CAVOK 25/11 Q1019=
202008231050 METAR EDTL 231050Z 26009KT 230V290 CAVOK 23/12 Q1020=
202008231120 METAR EDTL 231120Z 24013KT CAVOK 23/11 Q1020=
202008231150 METAR EDTL 231150Z 24013KT 220V280 CAVOK 24/11 Q1019=
202008231220 METAR EDTL 231220Z 24013KT CAVOK 23/10 Q1019=
202008231420 METAR EDTL 231420Z 27010KT 250V310 CAVOK 25/09 Q1019=
202008231450 METAR EDTL 231450Z 25010KT 230V300 CAVOK 25/10 Q1019=
202008231520 METAR EDTL 231520Z 26009KT 210V290 CAVOK 25/10 Q1019=
202008240720 METAR EDTL 240720Z VRB03KT 9999 FEW024 17/11 Q1019=
202008240750 METAR EDTL 240750Z 19005KT 160V230 9999 FEW032 19/11 Q1019=
202008240820 METAR EDTL 240820Z 19006KT 160V240 9999 FEW036 SCT082 20/11
202008240850 METAR EDTL 240850Z 21007KT 9999 FEW044 SCT082 21/10 Q1019=
202008240920 METAR EDTL 240920Z 20007KT 160V240 9999 FEW048 SCT082 22/10
202008240950 METAR EDTL 240950Z 20007KT 170V260 CAVOK 22/09 Q1018=
202008241220 METAR EDTL 241220Z 32007KT 260V010 CAVOK 24/09 Q1018=
202008241250 METAR EDTL 241250Z 27009KT 230V320 CAVOK 24/09 Q1017=
202008241320 METAR EDTL 241320Z 25010KT 210V310 CAVOK 24/09 Q1017=
202008241350 METAR EDTL 241350Z 29008KT 230V350 CAVOK 24/08 Q1017=
202008250550 METAR EDTL 250550Z 00000KT CAVOK 15/10 Q1015=
202008250620 METAR EDTL 250620Z 00000KT CAVOK 16/10 Q1015=
202008250650 METAR EDTL 250650Z VRB01KT CAVOK 17/10 Q1015=
202008250720 METAR EDTL 250720Z VRB02KT CAVOK 17/10 Q1015=
202008250750 METAR EDTL 250750Z 20003KT 160V220 CAVOK 17/11 Q1015=
202008250820 METAR EDTL 250820Z VRB02KT CAVOK 18/12 Q1016=
202008250850 METAR EDTL 250850Z 18003KT 130V230 CAVOK 19/12 Q1015=
202008250920 METAR EDTL 250920Z 16004KT 120V200 CAVOK 20/11 Q1015=
202008250950 METAR EDTL 250950Z VRB02KT CAVOK 20/12 Q1015=
202008251020 METAR EDTL 251020Z VRB03KT CAVOK 21/11 Q1015=
202008251620 METAR EDTL 251620Z 18007KT CAVOK 26/09 Q1010=
202008251650 METAR EDTL 251650Z 18006KT 150V210 CAVOK 25/10 Q1010=
202008251720 METAR EDTL 251720Z 17006KT CAVOK 25/10 Q1010=
202008251750 METAR EDTL 251750Z 19004KT CAVOK 25/11 Q1009=
202008251820 METAR EDTL 251820Z 19006KT CAVOK 24/10 Q1010=
202008251850 METAR EDTL 251850Z 20004KT CAVOK 24/10 Q1010=
202008251920 METAR EDTL 251920Z 19008KT 160V220 CAVOK 25/10 Q1010=
202008251950 METAR EDTL 251950Z 19010KT CAVOK 25/10 Q1010=
202008261150 METAR EDTL 261150Z 23016KT CAVOK 26/09 Q1016=
202008261220 METAR EDTL 261220Z 26015KT CAVOK 26/09 Q1015=
202008261250 METAR EDTL 261250Z 27015KT 240V310 CAVOK 27/09 Q1016=
202008261320 METAR EDTL 261320Z 27015KT 240V300 CAVOK 27/08 Q1016=
202008261350 METAR EDTL 261350Z 27015KT CAVOK 27/08 Q1016=
202008261420 METAR EDTL 261420Z 26017KT CAVOK 27/08 Q1016=
202008261450 METAR EDTL 261450Z 25016KT 220V290 CAVOK 27/07 Q1016=
202008261520 METAR EDTL 261520Z 27013KT 230V290 CAVOK 26/07 Q1016=
202008261550 METAR EDTL 261550Z 25013KT 220V290 CAVOK 26/08 Q1016=
202008261620 METAR EDTL 261620Z 25012KT CAVOK 25/08 Q1016=
202008261650 METAR EDTL 261650Z 26011KT CAVOK 25/09 Q1016=
202008261720 METAR EDTL 261720Z 28011KT CAVOK 25/08 Q1017=
202008261750 METAR EDTL 261750Z 28013KT CAVOK 24/07 Q1017=
202008270920 METAR EDTL 270920Z VRB04KT CAVOK 21/11 Q1018=
202008270950 METAR EDTL 270950Z 21004KT 150V250 CAVOK 21/11 Q1017=
202008271120 METAR EDTL 271120Z VRB02KT CAVOK 22/10 Q1017=
202008271150 METAR EDTL 271150Z VRB03KT CAVOK 23/10 Q1017=
202008271220 METAR EDTL 271220Z VRB03KT CAVOK 23/10 Q1016=
202008271250 METAR EDTL 271250Z 07004KT 330V130 CAVOK 23/09 Q1016=
202008271320 METAR EDTL 271320Z VRB03KT CAVOK 24/10 Q1015=
202008271350 METAR EDTL 271350Z VRB02KT CAVOK 24/10 Q1015=
202008271420 METAR EDTL 271420Z VRB03KT CAVOK 24/10 Q1015=
202008271450 METAR EDTL 271450Z VRB03KT CAVOK 23/10 Q1014=
202008271520 METAR EDTL 271520Z 24003KT 200V300 CAVOK 24/10 Q1014=
202008271550 METAR EDTL 271550Z VRB02KT CAVOK 24/11 Q1014=
202008271620 METAR EDTL 271620Z VRB01KT CAVOK 24/09 Q1013=
202008271650 METAR EDTL 271650Z VRB03KT CAVOK 24/10 Q1013=
202008271720 METAR EDTL 271720Z VRB03KT CAVOK 24/10 Q1013=
202008271750 METAR EDTL 271750Z 10002KT CAVOK 24/10 Q1012=
202008281150 METAR EDTL 281150Z VRB03KT 9999 -RA FEW004 SCT024 BKN088
202008281220 METAR EDTL 281220Z 21005KT 170V250 9999 FEW015 SCT059 20/16
202008281250 METAR EDTL 281250Z 21007KT 170V240 9999 FEW018 SCT027 20/16
202008281320 METAR EDTL 281320Z 21011KT 9999 FEW017 BKN039 19/16 Q1005=
202008281350 METAR EDTL 281350Z 22008KT 9999 FEW020 OVC036 19/17 Q1005=
202008281420 METAR EDTL 281420Z 21007KT 9999 FEW003 SCT017 BKN029 19/17
202008281450 METAR EDTL 281450Z 19009KT 150V220 9999 SCT011 BKN017 18/17
202008281520 METAR EDTL 281520Z 18008KT 150V220 9999 SCT012 18/15 Q1005=
202008281550 METAR EDTL 281550Z 19009KT CAVOK 18/15 Q1005=
202008281620 METAR EDTL 281620Z 19011KT 160V220 CAVOK 17/14 Q1005=
202008281650 METAR EDTL 281650Z 19010KT 160V220 CAVOK 17/13 Q1005=
202008281720 METAR EDTL 281720Z 19012KT CAVOK 16/13 Q1005=
202008281750 METAR EDTL 281750Z 19011KT 150V220 CAVOK 16/13 Q1005=
202008310850 METAR EDTL 310850Z 19005KT 150V220 9999 SCT025 BKN038 16/13
202008310920 METAR EDTL 310920Z 22004KT 170V270 9999 FEW025 BKN045 17/13
202008310950 METAR EDTL 310950Z 21004KT 180V260 9999 FEW025 SCT057 17/12
202008311020 METAR EDTL 311020Z 22004KT 180V330 9999 FEW025 SCT053 18/13
202008311050 METAR EDTL 311050Z VRB03KT 9999 FEW025 SCT098 19/13 Q1017=
202008311350 METAR EDTL 311350Z 31008KT 240V010 9999 SCT030 20/13 Q1017=
202008311420 METAR EDTL 311420Z 32008KT 9999 FEW029 20/13 Q1017=
202008311450 METAR EDTL 311450Z 31010KT 280V340 9999 SCT030 SCT049TCU
